[{"postal_code": "8490000", "postal_hyphen": "849-0000", "pref": "佐賀県", "city": "佐賀市", "town": "", "full": "佐賀県佐賀市"}, {"postal_code": "8400812", "postal_hyphen": "840-0812", "pref": "佐賀県", "city": "佐賀市", "town": "愛敬町", "full": "佐賀県佐賀市愛敬町"}, {"postal_code": "8400042", "postal_hyphen": "840-0042", "pref": "佐賀県", "city": "佐賀市", "town": "赤松町", "full": "佐賀県佐賀市赤松町"}, {"postal_code": "8400053", "postal_hyphen": "840-0053", "pref": "佐賀県", "city": "佐賀市", "town": "朝日町", "full": "佐賀県佐賀市朝日町"}, {"postal_code": "8400844", "postal_hyphen": "840-0844", "pref": "佐賀県", "city": "佐賀市", "town": "伊勢町", "full": "佐賀県佐賀市伊勢町"}, {"postal_code": "8400052", "postal_hyphen": "840-0052", "pref": "佐賀県", "city": "佐賀市", "town": "今宿町", "full": "佐賀県佐賀市今宿町"}, {"postal_code": "8400801", "postal_hyphen": "840-0801", "pref": "佐賀県", "city": "佐賀市", "town": "駅前中央", "full": "佐賀県佐賀市駅前中央"}, {"postal_code": "8400816", "postal_hyphen": "840-0816", "pref": "佐賀県", "city": "佐賀市", "town": "駅南本町", "full": "佐賀県佐賀市駅南本町"}, {"postal_code": "8400811", "postal_hyphen": "840-0811", "pref": "佐賀県", "city": "佐賀市", "town": "大財", "full": "佐賀県佐賀市大財"}, {"postal_code": "8400802", "postal_hyphen": "840-0802", "pref": "佐賀県", "city": "佐賀市", "town": "大財北町", "full": "佐賀県佐賀市大財北町"}, {"postal_code": "8400021", "postal_hyphen": "840-0021", "pref": "佐賀県", "city": "佐賀市", "town": "鬼丸町", "full": "佐賀県佐賀市鬼丸町"}, {"postal_code": "8490933", "postal_hyphen": "849-0933", "pref": "佐賀県", "city": "佐賀市", "town": "卸本町", "full": "佐賀県佐賀市卸本町"}, {"postal_code": "8490934", "postal_hyphen": "849-0934", "pref": "佐賀県", "city": "佐賀市", "town": "開成", "full": "佐賀県佐賀市開成"}, {"postal_code": "8400862", "postal_hyphen": "840-0862", "pref": "佐賀県", "city": "佐賀市", "town": "嘉瀬町扇町", "full": "佐賀県佐賀市嘉瀬町扇町"}, {"postal_code": "8400864", "postal_hyphen": "840-0864", "pref": "佐賀県", "city": "佐賀市", "town": "嘉瀬町荻野", "full": "佐賀県佐賀市嘉瀬町荻野"}, {"postal_code": "8400863", "postal_hyphen": "840-0863", "pref": "佐賀県", "city": "佐賀市", "town": "嘉瀬町十五", "full": "佐賀県佐賀市嘉瀬町十五"}, {"postal_code": "8400861", "postal_hyphen": "840-0861", "pref": "佐賀県", "city": "佐賀市", "town": "嘉瀬町中原", "full": "佐賀県佐賀市嘉瀬町中原"}, {"postal_code": "8400806", "postal_hyphen": "840-0806", "pref": "佐賀県", "city": "佐賀市", "town": "神園", "full": "佐賀県佐賀市神園"}, {"postal_code": "8402212", "postal_hyphen": "840-2212", "pref": "佐賀県", "city": "佐賀市", "town": "川副町犬井道", "full": "佐賀県佐賀市川副町犬井道"}, {"postal_code": "8402211", "postal_hyphen": "840-2211", "pref": "佐賀県", "city": "佐賀市", "town": "川副町大詫間", "full": "佐賀県佐賀市川副町大詫間"}, {"postal_code": "8402213", "postal_hyphen": "840-2213", "pref": "佐賀県", "city": "佐賀市", "town": "川副町鹿江", "full": "佐賀県佐賀市川副町鹿江"}, {"postal_code": "8402214", "postal_hyphen": "840-2214", "pref": "佐賀県", "city": "佐賀市", "town": "川副町小々森", "full": "佐賀県佐賀市川副町小々森"}, {"postal_code": "8402205", "postal_hyphen": "840-2205", "pref": "佐賀県", "city": "佐賀市", "town": "川副町南里", "full": "佐賀県佐賀市川副町南里"}, {"postal_code": "8402204", "postal_hyphen": "840-2204", "pref": "佐賀県", "city": "佐賀市", "town": "川副町西古賀", "full": "佐賀県佐賀市川副町西古賀"}, {"postal_code": "8402203", "postal_hyphen": "840-2203", "pref": "佐賀県", "city": "佐賀市", "town": "川副町早津江", "full": "佐賀県佐賀市川副町早津江"}, {"postal_code": "8402202", "postal_hyphen": "840-2202", "pref": "佐賀県", "city": "佐賀市", "town": "川副町早津江津", "full": "佐賀県佐賀市川副町早津江津"}, {"postal_code": "8402201", "postal_hyphen": "840-2201", "pref": "佐賀県", "city": "佐賀市", "town": "川副町福富", "full": "佐賀県佐賀市川副町福富"}, {"postal_code": "8400843", "postal_hyphen": "840-0843", "pref": "佐賀県", "city": "佐賀市", "town": "川原町", "full": "佐賀県佐賀市川原町"}, {"postal_code": "8400011", "postal_hyphen": "840-0011", "pref": "佐賀県", "city": "佐賀市", "town": "北川副町江上", "full": "佐賀県佐賀市北川副町江上"}, {"postal_code": "8400013", "postal_hyphen": "840-0013", "pref": "佐賀県", "city": "佐賀市", "town": "北川副町新郷", "full": "佐賀県佐賀市北川副町新郷"}, {"postal_code": "8400012", "postal_hyphen": "840-0012", "pref": "佐賀県", "city": "佐賀市", "town": "北川副町光法", "full": "佐賀県佐賀市北川副町光法"}, {"postal_code": "8400015", "postal_hyphen": "840-0015", "pref": "佐賀県", "city": "佐賀市", "town": "木原", "full": "佐賀県佐賀市木原"}, {"postal_code": "8490906", "postal_hyphen": "849-0906", "pref": "佐賀県", "city": "佐賀市", "town": "金立町金立", "full": "佐賀県佐賀市金立町金立"}, {"postal_code": "8490905", "postal_hyphen": "849-0905", "pref": "佐賀県", "city": "佐賀市", "town": "金立町千布", "full": "佐賀県佐賀市金立町千布"}, {"postal_code": "8490904", "postal_hyphen": "849-0904", "pref": "佐賀県", "city": "佐賀市", "town": "金立町薬師丸", "full": "佐賀県佐賀市金立町薬師丸"}, {"postal_code": "8490902", "postal_hyphen": "849-0902", "pref": "佐賀県", "city": "佐賀市", "town": "久保泉町上和泉", "full": "佐賀県佐賀市久保泉町上和泉"}, {"postal_code": "8490901", "postal_hyphen": "849-0901", "pref": "佐賀県", "city": "佐賀市", "town": "久保泉町川久保", "full": "佐賀県佐賀市久保泉町川久保"}, {"postal_code": "8490903", "postal_hyphen": "849-0903", "pref": "佐賀県", "city": "佐賀市", "town": "久保泉町下和泉", "full": "佐賀県佐賀市久保泉町下和泉"}, {"postal_code": "8490205", "postal_hyphen": "849-0205", "pref": "佐賀県", "city": "佐賀市", "town": "久保田町江戸", "full": "佐賀県佐賀市久保田町江戸"}, {"postal_code": "8490204", "postal_hyphen": "849-0204", "pref": "佐賀県", "city": "佐賀市", "town": "久保田町久保田", "full": "佐賀県佐賀市久保田町久保田"}, {"postal_code": "8490203", "postal_hyphen": "849-0203", "pref": "佐賀県", "city": "佐賀市", "town": "久保田町新田", "full": "佐賀県佐賀市久保田町新田"}, {"postal_code": "8490201", "postal_hyphen": "849-0201", "pref": "佐賀県", "city": "佐賀市", "town": "久保田町徳万", "full": "佐賀県佐賀市久保田町徳万"}, {"postal_code": "8490202", "postal_hyphen": "849-0202", "pref": "佐賀県", "city": "佐賀市", "town": "久保田町久富", "full": "佐賀県佐賀市久保田町久富"}, {"postal_code": "8400804", "postal_hyphen": "840-0804", "pref": "佐賀県", "city": "佐賀市", "town": "神野東", "full": "佐賀県佐賀市神野東"}, {"postal_code": "8400805", "postal_hyphen": "840-0805", "pref": "佐賀県", "city": "佐賀市", "town": "神野西", "full": "佐賀県佐賀市神野西"}, {"postal_code": "8400008", "postal_hyphen": "840-0008", "pref": "佐賀県", "city": "佐賀市", "town": "巨勢町牛島", "full": "佐賀県佐賀市巨勢町牛島"}, {"postal_code": "8400007", "postal_hyphen": "840-0007", "pref": "佐賀県", "city": "佐賀市", "town": "巨勢町高尾", "full": "佐賀県佐賀市巨勢町高尾"}, {"postal_code": "8400001", "postal_hyphen": "840-0001", "pref": "佐賀県", "city": "佐賀市", "town": "巨勢町修理田", "full": "佐賀県佐賀市巨勢町修理田"}, {"postal_code": "8400006", "postal_hyphen": "840-0006", "pref": "佐賀県", "city": "佐賀市", "town": "巨勢町東西", "full": "佐賀県佐賀市巨勢町東西"}, {"postal_code": "8400824", "postal_hyphen": "840-0824", "pref": "佐賀県", "city": "佐賀市", "town": "呉服元町", "full": "佐賀県佐賀市呉服元町"}, {"postal_code": "8400056", "postal_hyphen": "840-0056", "pref": "佐賀県", "city": "佐賀市", "town": "紺屋町", "full": "佐賀県佐賀市紺屋町"}, {"postal_code": "8400055", "postal_hyphen": "840-0055", "pref": "佐賀県", "city": "佐賀市", "town": "材木", "full": "佐賀県佐賀市材木"}, {"postal_code": "8400803", "postal_hyphen": "840-0803", "pref": "佐賀県", "city": "佐賀市", "town": "栄町", "full": "佐賀県佐賀市栄町"}, {"postal_code": "8400044", "postal_hyphen": "840-0044", "pref": "佐賀県", "city": "佐賀市", "town": "道祖元町", "full": "佐賀県佐賀市道祖元町"}, {"postal_code": "8400031", "postal_hyphen": "840-0031", "pref": "佐賀県", "city": "佐賀市", "town": "下田町", "full": "佐賀県佐賀市下田町"}, {"postal_code": "8400855", "postal_hyphen": "840-0855", "pref": "佐賀県", "city": "佐賀市", "town": "昭栄町", "full": "佐賀県佐賀市昭栄町"}, {"postal_code": "8400041", "postal_hyphen": "840-0041", "pref": "佐賀県", "city": "佐賀市", "town": "城内", "full": "佐賀県佐賀市城内"}, {"postal_code": "8400043", "postal_hyphen": "840-0043", "pref": "佐賀県", "city": "佐賀市", "town": "精町", "full": "佐賀県佐賀市精町"}, {"postal_code": "8400826", "postal_hyphen": "840-0826", "pref": "佐賀県", "city": "佐賀市", "town": "白山", "full": "佐賀県佐賀市白山"}, {"postal_code": "8400859", "postal_hyphen": "840-0859", "pref": "佐賀県", "city": "佐賀市", "town": "新栄西", "full": "佐賀県佐賀市新栄西"}, {"postal_code": "8400850", "postal_hyphen": "840-0850", "pref": "佐賀県", "city": "佐賀市", "town": "新栄東", "full": "佐賀県佐賀市新栄東"}, {"postal_code": "8400017", "postal_hyphen": "840-0017", "pref": "佐賀県", "city": "佐賀市", "town": "新郷本町", "full": "佐賀県佐賀市新郷本町"}, {"postal_code": "8400856", "postal_hyphen": "840-0856", "pref": "佐賀県", "city": "佐賀市", "town": "新生町", "full": "佐賀県佐賀市新生町"}, {"postal_code": "8490924", "postal_hyphen": "849-0924", "pref": "佐賀県", "city": "佐賀市", "town": "新中町", "full": "佐賀県佐賀市新中町"}, {"postal_code": "8400032", "postal_hyphen": "840-0032", "pref": "佐賀県", "city": "佐賀市", "town": "末広", "full": "佐賀県佐賀市末広"}, {"postal_code": "8400814", "postal_hyphen": "840-0814", "pref": "佐賀県", "city": "佐賀市", "town": "成章町", "full": "佐賀県佐賀市成章町"}, {"postal_code": "8490927", "postal_hyphen": "849-0927", "pref": "佐賀県", "city": "佐賀市", "town": "高木瀬団地", "full": "佐賀県佐賀市高木瀬団地"}, {"postal_code": "8490922", "postal_hyphen": "849-0922", "pref": "佐賀県", "city": "佐賀市", "town": "高木瀬東", "full": "佐賀県佐賀市高木瀬東"}, {"postal_code": "8490921", "postal_hyphen": "849-0921", "pref": "佐賀県", "city": "佐賀市", "town": "高木瀬西", "full": "佐賀県佐賀市高木瀬西"}, {"postal_code": "8490917", "postal_hyphen": "849-0917", "pref": "佐賀県", "city": "佐賀市", "town": "高木瀬町長瀬", "full": "佐賀県佐賀市高木瀬町長瀬"}, {"postal_code": "8490916", "postal_hyphen": "849-0916", "pref": "佐賀県", "city": "佐賀市", "town": "高木瀬町東高木", "full": "佐賀県佐賀市高木瀬町東高木"}, {"postal_code": "8400822", "postal_hyphen": "840-0822", "pref": "佐賀県", "city": "佐賀市", "town": "高木町", "full": "佐賀県佐賀市高木町"}, {"postal_code": "8400051", "postal_hyphen": "840-0051", "pref": "佐賀県", "city": "佐賀市", "town": "田代", "full": "佐賀県佐賀市田代"}, {"postal_code": "8400842", "postal_hyphen": "840-0842", "pref": "佐賀県", "city": "佐賀市", "town": "多布施", "full": "佐賀県佐賀市多布施"}, {"postal_code": "8400825", "postal_hyphen": "840-0825", "pref": "佐賀県", "city": "佐賀市", "town": "中央本町", "full": "佐賀県佐賀市中央本町"}, {"postal_code": "8400815", "postal_hyphen": "840-0815", "pref": "佐賀県", "city": "佐賀市", "town": "天神", "full": "佐賀県佐賀市天神"}, {"postal_code": "8400851", "postal_hyphen": "840-0851", "pref": "佐賀県", "city": "佐賀市", "town": "天祐", "full": "佐賀県佐賀市天祐"}, {"postal_code": "8400858", "postal_hyphen": "840-0858", "pref": "佐賀県", "city": "佐賀市", "town": "天祐団地", "full": "佐賀県佐賀市天祐団地"}, {"postal_code": "8400813", "postal_hyphen": "840-0813", "pref": "佐賀県", "city": "佐賀市", "town": "唐人", "full": "佐賀県佐賀市唐人"}, {"postal_code": "8400852", "postal_hyphen": "840-0852", "pref": "佐賀県", "city": "佐賀市", "town": "中折町", "full": "佐賀県佐賀市中折町"}, {"postal_code": "8400833", "postal_hyphen": "840-0833", "pref": "佐賀県", "city": "佐賀市", "town": "中の小路", "full": "佐賀県佐賀市中の小路"}, {"postal_code": "8400022", "postal_hyphen": "840-0022", "pref": "佐賀県", "city": "佐賀市", "town": "中の館町", "full": "佐賀県佐賀市中の館町"}, {"postal_code": "8400853", "postal_hyphen": "840-0853", "pref": "佐賀県", "city": "佐賀市", "town": "長瀬町", "full": "佐賀県佐賀市長瀬町"}, {"postal_code": "8490937", "postal_hyphen": "849-0937", "pref": "佐賀県", "city": "佐賀市", "town": "鍋島", "full": "佐賀県佐賀市鍋島"}, {"postal_code": "8490931", "postal_hyphen": "849-0931", "pref": "佐賀県", "city": "佐賀市", "town": "鍋島町蛎久", "full": "佐賀県佐賀市鍋島町蛎久"}, {"postal_code": "8490938", "postal_hyphen": "849-0938", "pref": "佐賀県", "city": "佐賀市", "town": "鍋島町鍋島", "full": "佐賀県佐賀市鍋島町鍋島"}, {"postal_code": "8490936", "postal_hyphen": "849-0936", "pref": "佐賀県", "city": "佐賀市", "town": "鍋島町森田", "full": "佐賀県佐賀市鍋島町森田"}, {"postal_code": "8400857", "postal_hyphen": "840-0857", "pref": "佐賀県", "city": "佐賀市", "town": "鍋島町八戸", "full": "佐賀県佐賀市鍋島町八戸"}, {"postal_code": "8490932", "postal_hyphen": "849-0932", "pref": "佐賀県", "city": "佐賀市", "town": "鍋島町八戸溝", "full": "佐賀県佐賀市鍋島町八戸溝"}, {"postal_code": "8400046", "postal_hyphen": "840-0046", "pref": "佐賀県", "city": "佐賀市", "town": "西魚町", "full": "佐賀県佐賀市西魚町"}, {"postal_code": "8400045", "postal_hyphen": "840-0045", "pref": "佐賀県", "city": "佐賀市", "town": "西田代", "full": "佐賀県佐賀市西田代"}, {"postal_code": "8400035", "postal_hyphen": "840-0035", "pref": "佐賀県", "city": "佐賀市", "town": "西与賀町今津", "full": "佐賀県佐賀市西与賀町今津"}, {"postal_code": "8400037", "postal_hyphen": "840-0037", "pref": "佐賀県", "city": "佐賀市", "town": "西与賀町相応津", "full": "佐賀県佐賀市西与賀町相応津"}, {"postal_code": "8400034", "postal_hyphen": "840-0034", "pref": "佐賀県", "city": "佐賀市", "town": "西与賀町厘外", "full": "佐賀県佐賀市西与賀町厘外"}, {"postal_code": "8400036", "postal_hyphen": "840-0036", "pref": "佐賀県", "city": "佐賀市", "town": "西与賀町高太郎", "full": "佐賀県佐賀市西与賀町高太郎"}, {"postal_code": "8400005", "postal_hyphen": "840-0005", "pref": "佐賀県", "city": "佐賀市", "town": "蓮池町蓮池", "full": "佐賀県佐賀市蓮池町蓮池"}, {"postal_code": "8400003", "postal_hyphen": "840-0003", "pref": "佐賀県", "city": "佐賀市", "town": "蓮池町古賀", "full": "佐賀県佐賀市蓮池町古賀"}, {"postal_code": "8400004", "postal_hyphen": "840-0004", "pref": "佐賀県", "city": "佐賀市", "town": "蓮池町小松", "full": "佐賀県佐賀市蓮池町小松"}, {"postal_code": "8400002", "postal_hyphen": "840-0002", "pref": "佐賀県", "city": "佐賀市", "town": "蓮池町見島", "full": "佐賀県佐賀市蓮池町見島"}, {"postal_code": "8400834", "postal_hyphen": "840-0834", "pref": "佐賀県", "city": "佐賀市", "town": "八幡小路", "full": "佐賀県佐賀市八幡小路"}, {"postal_code": "8490925", "postal_hyphen": "849-0925", "pref": "佐賀県", "city": "佐賀市", "town": "八丁畷町", "full": "佐賀県佐賀市八丁畷町"}, {"postal_code": "8400033", "postal_hyphen": "840-0033", "pref": "佐賀県", "city": "佐賀市", "town": "光", "full": "佐賀県佐賀市光"}, {"postal_code": "8400821", "postal_hyphen": "840-0821", "pref": "佐賀県", "city": "佐賀市", "town": "東佐賀町", "full": "佐賀県佐賀市東佐賀町"}, {"postal_code": "8402223", "postal_hyphen": "840-2223", "pref": "佐賀県", "city": "佐賀市", "town": "東与賀町飯盛", "full": "佐賀県佐賀市東与賀町飯盛"}, {"postal_code": "8402221", "postal_hyphen": "840-2221", "pref": "佐賀県", "city": "佐賀市", "town": "東与賀町下古賀", "full": "佐賀県佐賀市東与賀町下古賀"}, {"postal_code": "8402222", "postal_hyphen": "840-2222", "pref": "佐賀県", "city": "佐賀市", "town": "東与賀町田中", "full": "佐賀県佐賀市東与賀町田中"}, {"postal_code": "8490923", "postal_hyphen": "849-0923", "pref": "佐賀県", "city": "佐賀市", "town": "日の出", "full": "佐賀県佐賀市日の出"}, {"postal_code": "8490912", "postal_hyphen": "849-0912", "pref": "佐賀県", "city": "佐賀市", "town": "兵庫町瓦町", "full": "佐賀県佐賀市兵庫町瓦町"}, {"postal_code": "8490915", "postal_hyphen": "849-0915", "pref": "佐賀県", "city": "佐賀市", "town": "兵庫町藤木", "full": "佐賀県佐賀市兵庫町藤木"}, {"postal_code": "8490914", "postal_hyphen": "849-0914", "pref": "佐賀県", "city": "佐賀市", "town": "兵庫町西渕", "full": "佐賀県佐賀市兵庫町西渕"}, {"postal_code": "8490913", "postal_hyphen": "849-0913", "pref": "佐賀県", "city": "佐賀市", "town": "兵庫町渕", "full": "佐賀県佐賀市兵庫町渕"}, {"postal_code": "8490911", "postal_hyphen": "849-0911", "pref": "佐賀県", "city": "佐賀市", "town": "兵庫町若宮", "full": "佐賀県佐賀市兵庫町若宮"}, {"postal_code": "8490919", "postal_hyphen": "849-0919", "pref": "佐賀県", "city": "佐賀市", "town": "兵庫北", "full": "佐賀県佐賀市兵庫北"}, {"postal_code": "8490918", "postal_hyphen": "849-0918", "pref": "佐賀県", "city": "佐賀市", "town": "兵庫南", "full": "佐賀県佐賀市兵庫南"}, {"postal_code": "8400503", "postal_hyphen": "840-0503", "pref": "佐賀県", "city": "佐賀市", "town": "富士町市川", "full": "佐賀県佐賀市富士町市川"}, {"postal_code": "8400514", "postal_hyphen": "840-0514", "pref": "佐賀県", "city": "佐賀市", "town": "富士町内野", "full": "佐賀県佐賀市富士町内野"}, {"postal_code": "8400516", "postal_hyphen": "840-0516", "pref": "佐賀県", "city": "佐賀市", "town": "富士町梅野", "full": "佐賀県佐賀市富士町梅野"}, {"postal_code": "8400533", "postal_hyphen": "840-0533", "pref": "佐賀県", "city": "佐賀市", "town": "富士町大串", "full": "佐賀県佐賀市富士町大串"}, {"postal_code": "8400532", "postal_hyphen": "840-0532", "pref": "佐賀県", "city": "佐賀市", "town": "富士町大野", "full": "佐賀県佐賀市富士町大野"}, {"postal_code": "8400521", "postal_hyphen": "840-0521", "pref": "佐賀県", "city": "佐賀市", "town": "富士町小副川", "full": "佐賀県佐賀市富士町小副川"}, {"postal_code": "8400511", "postal_hyphen": "840-0511", "pref": "佐賀県", "city": "佐賀市", "town": "富士町鎌原", "full": "佐賀県佐賀市富士町鎌原"}, {"postal_code": "8400545", "postal_hyphen": "840-0545", "pref": "佐賀県", "city": "佐賀市", "town": "富士町上合瀬", "full": "佐賀県佐賀市富士町上合瀬"}, {"postal_code": "8400512", "postal_hyphen": "840-0512", "pref": "佐賀県", "city": "佐賀市", "town": "富士町上熊川", "full": "佐賀県佐賀市富士町上熊川"}, {"postal_code": "8400536", "postal_hyphen": "840-0536", "pref": "佐賀県", "city": "佐賀市", "town": "富士町上無津呂", "full": "佐賀県佐賀市富士町上無津呂"}, {"postal_code": "8400531", "postal_hyphen": "840-0531", "pref": "佐賀県", "city": "佐賀市", "town": "富士町栗並", "full": "佐賀県佐賀市富士町栗並"}, {"postal_code": "8400543", "postal_hyphen": "840-0543", "pref": "佐賀県", "city": "佐賀市", "town": "富士町古場", "full": "佐賀県佐賀市富士町古場"}, {"postal_code": "8400544", "postal_hyphen": "840-0544", "pref": "佐賀県", "city": "佐賀市", "town": "富士町下合瀬", "full": "佐賀県佐賀市富士町下合瀬"}, {"postal_code": "8400513", "postal_hyphen": "840-0513", "pref": "佐賀県", "city": "佐賀市", "town": "富士町下熊川", "full": "佐賀県佐賀市富士町下熊川"}, {"postal_code": "8400535", "postal_hyphen": "840-0535", "pref": "佐賀県", "city": "佐賀市", "town": "富士町下無津呂", "full": "佐賀県佐賀市富士町下無津呂"}, {"postal_code": "8400502", "postal_hyphen": "840-0502", "pref": "佐賀県", "city": "佐賀市", "town": "富士町杉山", "full": "佐賀県佐賀市富士町杉山"}, {"postal_code": "8400541", "postal_hyphen": "840-0541", "pref": "佐賀県", "city": "佐賀市", "town": "富士町関屋", "full": "佐賀県佐賀市富士町関屋"}, {"postal_code": "8400504", "postal_hyphen": "840-0504", "pref": "佐賀県", "city": "佐賀市", "town": "富士町苣木", "full": "佐賀県佐賀市富士町苣木"}, {"postal_code": "8400534", "postal_hyphen": "840-0534", "pref": "佐賀県", "city": "佐賀市", "town": "富士町中原", "full": "佐賀県佐賀市富士町中原"}, {"postal_code": "8400522", "postal_hyphen": "840-0522", "pref": "佐賀県", "city": "佐賀市", "town": "富士町畑瀬", "full": "佐賀県佐賀市富士町畑瀬"}, {"postal_code": "8400542", "postal_hyphen": "840-0542", "pref": "佐賀県", "city": "佐賀市", "town": "富士町藤瀬", "full": "佐賀県佐賀市富士町藤瀬"}, {"postal_code": "8400501", "postal_hyphen": "840-0501", "pref": "佐賀県", "city": "佐賀市", "town": "富士町古湯", "full": "佐賀県佐賀市富士町古湯"}, {"postal_code": "8400515", "postal_hyphen": "840-0515", "pref": "佐賀県", "city": "佐賀市", "town": "富士町松瀬", "full": "佐賀県佐賀市富士町松瀬"}, {"postal_code": "8400537", "postal_hyphen": "840-0537", "pref": "佐賀県", "city": "佐賀市", "town": "富士町麻那古", "full": "佐賀県佐賀市富士町麻那古"}, {"postal_code": "8400832", "postal_hyphen": "840-0832", "pref": "佐賀県", "city": "佐賀市", "town": "堀川町", "full": "佐賀県佐賀市堀川町"}, {"postal_code": "8400025", "postal_hyphen": "840-0025", "pref": "佐賀県", "city": "佐賀市", "town": "本庄町鹿子", "full": "佐賀県佐賀市本庄町鹿子"}, {"postal_code": "8400027", "postal_hyphen": "840-0027", "pref": "佐賀県", "city": "佐賀市", "town": "本庄町本庄", "full": "佐賀県佐賀市本庄町本庄"}, {"postal_code": "8400026", "postal_hyphen": "840-0026", "pref": "佐賀県", "city": "佐賀市", "town": "本庄町正里", "full": "佐賀県佐賀市本庄町正里"}, {"postal_code": "8400024", "postal_hyphen": "840-0024", "pref": "佐賀県", "city": "佐賀市", "town": "本庄町末次", "full": "佐賀県佐賀市本庄町末次"}, {"postal_code": "8400023", "postal_hyphen": "840-0023", "pref": "佐賀県", "city": "佐賀市", "town": "本庄町袋", "full": "佐賀県佐賀市本庄町袋"}, {"postal_code": "8400831", "postal_hyphen": "840-0831", "pref": "佐賀県", "city": "佐賀市", "town": "松原", "full": "佐賀県佐賀市松原"}, {"postal_code": "8400054", "postal_hyphen": "840-0054", "pref": "佐賀県", "city": "佐賀市", "town": "水ケ江", "full": "佐賀県佐賀市水ケ江"}, {"postal_code": "8420302", "postal_hyphen": "842-0302", "pref": "佐賀県", "city": "佐賀市", "town": "三瀬村藤原", "full": "佐賀県佐賀市三瀬村藤原"}, {"postal_code": "8420301", "postal_hyphen": "842-0301", "pref": "佐賀県", "city": "佐賀市", "town": "三瀬村三瀬", "full": "佐賀県佐賀市三瀬村三瀬"}, {"postal_code": "8420303", "postal_hyphen": "842-0303", "pref": "佐賀県", "city": "佐賀市", "town": "三瀬村杠", "full": "佐賀県佐賀市三瀬村杠"}, {"postal_code": "8400841", "postal_hyphen": "840-0841", "pref": "佐賀県", "city": "佐賀市", "town": "緑小路", "full": "佐賀県佐賀市緑小路"}, {"postal_code": "8400016", "postal_hyphen": "840-0016", "pref": "佐賀県", "city": "佐賀市", "town": "南佐賀", "full": "佐賀県佐賀市南佐賀"}, {"postal_code": "8402101", "postal_hyphen": "840-2101", "pref": "佐賀県", "city": "佐賀市", "town": "諸富町大堂", "full": "佐賀県佐賀市諸富町大堂"}, {"postal_code": "8402102", "postal_hyphen": "840-2102", "pref": "佐賀県", "city": "佐賀市", "town": "諸富町為重", "full": "佐賀県佐賀市諸富町為重"}, {"postal_code": "8402103", "postal_hyphen": "840-2103", "pref": "佐賀県", "city": "佐賀市", "town": "諸富町寺井津", "full": "佐賀県佐賀市諸富町寺井津"}, {"postal_code": "8402104", "postal_hyphen": "840-2104", "pref": "佐賀県", "city": "佐賀市", "town": "諸富町徳富", "full": "佐賀県佐賀市諸富町徳富"}, {"postal_code": "8402105", "postal_hyphen": "840-2105", "pref": "佐賀県", "city": "佐賀市", "town": "諸富町諸富津", "full": "佐賀県佐賀市諸富町諸富津"}, {"postal_code": "8402106", "postal_hyphen": "840-2106", "pref": "佐賀県", "city": "佐賀市", "town": "諸富町山領", "full": "佐賀県佐賀市諸富町山領"}, {"postal_code": "8400854", "postal_hyphen": "840-0854", "pref": "佐賀県", "city": "佐賀市", "town": "八戸", "full": "佐賀県佐賀市八戸"}, {"postal_code": "8490935", "postal_hyphen": "849-0935", "pref": "佐賀県", "city": "佐賀市", "town": "八戸溝", "full": "佐賀県佐賀市八戸溝"}, {"postal_code": "8400823", "postal_hyphen": "840-0823", "pref": "佐賀県", "city": "佐賀市", "town": "柳町", "full": "佐賀県佐賀市柳町"}, {"postal_code": "8400212", "postal_hyphen": "840-0212", "pref": "佐賀県", "city": "佐賀市", "town": "大和町池上", "full": "佐賀県佐賀市大和町池上"}, {"postal_code": "8400203", "postal_hyphen": "840-0203", "pref": "佐賀県", "city": "佐賀市", "town": "大和町梅野", "full": "佐賀県佐賀市大和町梅野"}, {"postal_code": "8400214", "postal_hyphen": "840-0214", "pref": "佐賀県", "city": "佐賀市", "town": "大和町川上", "full": "佐賀県佐賀市大和町川上"}, {"postal_code": "8400202", "postal_hyphen": "840-0202", "pref": "佐賀県", "city": "佐賀市", "town": "大和町久池井", "full": "佐賀県佐賀市大和町久池井"}, {"postal_code": "8400213", "postal_hyphen": "840-0213", "pref": "佐賀県", "city": "佐賀市", "town": "大和町久留間", "full": "佐賀県佐賀市大和町久留間"}, {"postal_code": "8400205", "postal_hyphen": "840-0205", "pref": "佐賀県", "city": "佐賀市", "town": "大和町名尾", "full": "佐賀県佐賀市大和町名尾"}, {"postal_code": "8400201", "postal_hyphen": "840-0201", "pref": "佐賀県", "city": "佐賀市", "town": "大和町尼寺", "full": "佐賀県佐賀市大和町尼寺"}, {"postal_code": "8400215", "postal_hyphen": "840-0215", "pref": "佐賀県", "city": "佐賀市", "town": "大和町八反原", "full": "佐賀県佐賀市大和町八反原"}, {"postal_code": "8400211", "postal_hyphen": "840-0211", "pref": "佐賀県", "city": "佐賀市", "town": "大和町東山田", "full": "佐賀県佐賀市大和町東山田"}, {"postal_code": "8400204", "postal_hyphen": "840-0204", "pref": "佐賀県", "city": "佐賀市", "town": "大和町松瀬", "full": "佐賀県佐賀市大和町松瀬"}, {"postal_code": "8400047", "postal_hyphen": "840-0047", "pref": "佐賀県", "city": "佐賀市", "town": "与賀町", "full": "佐賀県佐賀市与賀町"}, {"postal_code": "8400845", "postal_hyphen": "840-0845", "pref": "佐賀県", "city": "佐賀市", "town": "六座町", "full": "佐賀県佐賀市六座町"}, {"postal_code": "8490928", "postal_hyphen": "849-0928", "pref": "佐賀県", "city": "佐賀市", "town": "若楠", "full": "佐賀県佐賀市若楠"}, {"postal_code": "8490926", "postal_hyphen": "849-0926", "pref": "佐賀県", "city": "佐賀市", "town": "若宮", "full": "佐賀県佐賀市若宮"}, {"postal_code": "8470000", "postal_hyphen": "847-0000", "pref": "佐賀県", "city": "唐津市", "town": "", "full": "佐賀県唐津市"}, {"postal_code": "8470823", "postal_hyphen": "847-0823", "pref": "佐賀県", "city": "唐津市", "town": "旭が丘", "full": "佐賀県唐津市旭が丘"}, {"postal_code": "8470841", "postal_hyphen": "847-0841", "pref": "佐賀県", "city": "唐津市", "town": "朝日町", "full": "佐賀県唐津市朝日町"}, {"postal_code": "8470832", "postal_hyphen": "847-0832", "pref": "佐賀県", "city": "唐津市", "town": "石志", "full": "佐賀県唐津市石志"}, {"postal_code": "8470042", "postal_hyphen": "847-0042", "pref": "佐賀県", "city": "唐津市", "town": "魚屋町", "full": "佐賀県唐津市魚屋町"}, {"postal_code": "8470025", "postal_hyphen": "847-0025", "pref": "佐賀県", "city": "唐津市", "town": "宇木", "full": "佐賀県唐津市宇木"}, {"postal_code": "8470804", "postal_hyphen": "847-0804", "pref": "佐賀県", "city": "唐津市", "town": "後川内", "full": "佐賀県唐津市後川内"}, {"postal_code": "8470124", "postal_hyphen": "847-0124", "pref": "佐賀県", "city": "唐津市", "town": "浦", "full": "佐賀県唐津市浦"}, {"postal_code": "8470853", "postal_hyphen": "847-0853", "pref": "佐賀県", "city": "唐津市", "town": "江川町", "full": "佐賀県唐津市江川町"}, {"postal_code": "8470123", "postal_hyphen": "847-0123", "pref": "佐賀県", "city": "唐津市", "town": "枝去木", "full": "佐賀県唐津市枝去木"}, {"postal_code": "8470132", "postal_hyphen": "847-0132", "pref": "佐賀県", "city": "唐津市", "town": "相賀", "full": "佐賀県唐津市相賀"}, {"postal_code": "8493223", "postal_hyphen": "849-3223", "pref": "佐賀県", "city": "唐津市", "town": "相知町伊岐佐", "full": "佐賀県唐津市相知町伊岐佐"}, {"postal_code": "8493201", "postal_hyphen": "849-3201", "pref": "佐賀県", "city": "唐津市", "town": "相知町相知", "full": "佐賀県唐津市相知町相知"}, {"postal_code": "8493221", "postal_hyphen": "849-3221", "pref": "佐賀県", "city": "唐津市", "town": "相知町大野", "full": "佐賀県唐津市相知町大野"}, {"postal_code": "8493215", "postal_hyphen": "849-3215", "pref": "佐賀県", "city": "唐津市", "town": "相知町楠", "full": "佐賀県唐津市相知町楠"}, {"postal_code": "8493232", "postal_hyphen": "849-3232", "pref": "佐賀県", "city": "唐津市", "town": "相知町久保", "full": "佐賀県唐津市相知町久保"}, {"postal_code": "8493222", "postal_hyphen": "849-3222", "pref": "佐賀県", "city": "唐津市", "town": "相知町黒岩", "full": "佐賀県唐津市相知町黒岩"}, {"postal_code": "8493233", "postal_hyphen": "849-3233", "pref": "佐賀県", "city": "唐津市", "town": "相知町佐里", "full": "佐賀県唐津市相知町佐里"}, {"postal_code": "8493211", "postal_hyphen": "849-3211", "pref": "佐賀県", "city": "唐津市", "town": "相知町千束", "full": "佐賀県唐津市相知町千束"}, {"postal_code": "8493214", "postal_hyphen": "849-3214", "pref": "佐賀県", "city": "唐津市", "town": "相知町田頭", "full": "佐賀県唐津市相知町田頭"}, {"postal_code": "8493219", "postal_hyphen": "849-3219", "pref": "佐賀県", "city": "唐津市", "town": "相知町鷹取", "full": "佐賀県唐津市相知町鷹取"}, {"postal_code": "8493216", "postal_hyphen": "849-3216", "pref": "佐賀県", "city": "唐津市", "town": "相知町町切", "full": "佐賀県唐津市相知町町切"}, {"postal_code": "8493217", "postal_hyphen": "849-3217", "pref": "佐賀県", "city": "唐津市", "town": "相知町長部田", "full": "佐賀県唐津市相知町長部田"}, {"postal_code": "8493218", "postal_hyphen": "849-3218", "pref": "佐賀県", "city": "唐津市", "town": "相知町中山", "full": "佐賀県唐津市相知町中山"}, {"postal_code": "8493203", "postal_hyphen": "849-3203", "pref": "佐賀県", "city": "唐津市", "town": "相知町平山上", "full": "佐賀県唐津市相知町平山上"}, {"postal_code": "8493202", "postal_hyphen": "849-3202", "pref": "佐賀県", "city": "唐津市", "town": "相知町平山下", "full": "佐賀県唐津市相知町平山下"}, {"postal_code": "8493231", "postal_hyphen": "849-3231", "pref": "佐賀県", "city": "唐津市", "town": "相知町牟田部", "full": "佐賀県唐津市相知町牟田部"}, {"postal_code": "8493224", "postal_hyphen": "849-3224", "pref": "佐賀県", "city": "唐津市", "town": "相知町山崎", "full": "佐賀県唐津市相知町山崎"}, {"postal_code": "8493213", "postal_hyphen": "849-3213", "pref": "佐賀県", "city": "唐津市", "town": "相知町湯屋", "full": "佐賀県唐津市相知町湯屋"}, {"postal_code": "8493212", "postal_hyphen": "849-3212", "pref": "佐賀県", "city": "唐津市", "town": "相知町横枕", "full": "佐賀県唐津市相知町横枕"}, {"postal_code": "8470066", "postal_hyphen": "847-0066", "pref": "佐賀県", "city": "唐津市", "town": "大石町", "full": "佐賀県唐津市大石町"}, {"postal_code": "8470873", "postal_hyphen": "847-0873", "pref": "佐賀県", "city": "唐津市", "town": "海岸通", "full": "佐賀県唐津市海岸通"}, {"postal_code": "8470022", "postal_hyphen": "847-0022", "pref": "佐賀県", "city": "唐津市", "town": "鏡", "full": "佐賀県唐津市鏡"}, {"postal_code": "8470028", "postal_hyphen": "847-0028", "pref": "佐賀県", "city": "唐津市", "town": "鏡新開", "full": "佐賀県唐津市鏡新開"}, {"postal_code": "8470065", "postal_hyphen": "847-0065", "pref": "佐賀県", "city": "唐津市", "town": "水主町", "full": "佐賀県唐津市水主町"}, {"postal_code": "8470026", "postal_hyphen": "847-0026", "pref": "佐賀県", "city": "唐津市", "town": "柏崎", "full": "佐賀県唐津市柏崎"}, {"postal_code": "8470131", "postal_hyphen": "847-0131", "pref": "佐賀県", "city": "唐津市", "town": "神集島", "full": "佐賀県唐津市神集島"}, {"postal_code": "8470055", "postal_hyphen": "847-0055", "pref": "佐賀県", "city": "唐津市", "town": "刀町", "full": "佐賀県唐津市刀町"}, {"postal_code": "8470015", "postal_hyphen": "847-0015", "pref": "佐賀県", "city": "唐津市", "town": "北城内", "full": "佐賀県唐津市北城内"}, {"postal_code": "8471212", "postal_hyphen": "847-1212", "pref": "佐賀県", "city": "唐津市", "town": "北波多大杉", "full": "佐賀県唐津市北波多大杉"}, {"postal_code": "8471221", "postal_hyphen": "847-1221", "pref": "佐賀県", "city": "唐津市", "town": "北波多上平野", "full": "佐賀県唐津市北波多上平野"}, {"postal_code": "8471211", "postal_hyphen": "847-1211", "pref": "佐賀県", "city": "唐津市", "town": "北波多岸山", "full": "佐賀県唐津市北波多岸山"}, {"postal_code": "8471225", "postal_hyphen": "847-1225", "pref": "佐賀県", "city": "唐津市", "town": "北波多志気", "full": "佐賀県唐津市北波多志気"}, {"postal_code": "8471223", "postal_hyphen": "847-1223", "pref": "佐賀県", "city": "唐津市", "town": "北波多下平野", "full": "佐賀県唐津市北波多下平野"}, {"postal_code": "8471213", "postal_hyphen": "847-1213", "pref": "佐賀県", "city": "唐津市", "town": "北波多竹有", "full": "佐賀県唐津市北波多竹有"}, {"postal_code": "8471202", "postal_hyphen": "847-1202", "pref": "佐賀県", "city": "唐津市", "town": "北波多田中", "full": "佐賀県唐津市北波多田中"}, {"postal_code": "8471201", "postal_hyphen": "847-1201", "pref": "佐賀県", "city": "唐津市", "town": "北波多徳須恵", "full": "佐賀県唐津市北波多徳須恵"}, {"postal_code": "8471222", "postal_hyphen": "847-1222", "pref": "佐賀県", "city": "唐津市", "town": "北波多成渕", "full": "佐賀県唐津市北波多成渕"}, {"postal_code": "8471214", "postal_hyphen": "847-1214", "pref": "佐賀県", "city": "唐津市", "town": "北波多稗田", "full": "佐賀県唐津市北波多稗田"}, {"postal_code": "8471203", "postal_hyphen": "847-1203", "pref": "佐賀県", "city": "唐津市", "town": "北波多山彦", "full": "佐賀県唐津市北波多山彦"}, {"postal_code": "8471224", "postal_hyphen": "847-1224", "pref": "佐賀県", "city": "唐津市", "town": "北波多行合野", "full": "佐賀県唐津市北波多行合野"}, {"postal_code": "8493101", "postal_hyphen": "849-3101", "pref": "佐賀県", "city": "唐津市", "town": "厳木町天川", "full": "佐賀県唐津市厳木町天川"}, {"postal_code": "8493123", "postal_hyphen": "849-3123", "pref": "佐賀県", "city": "唐津市", "town": "厳木町岩屋", "full": "佐賀県唐津市厳木町岩屋"}, {"postal_code": "8493132", "postal_hyphen": "849-3132", "pref": "佐賀県", "city": "唐津市", "town": "厳木町うつぼ木", "full": "佐賀県唐津市厳木町うつぼ木"}, {"postal_code": "8493114", "postal_hyphen": "849-3114", "pref": "佐賀県", "city": "唐津市", "town": "厳木町浦川内", "full": "佐賀県唐津市厳木町浦川内"}, {"postal_code": "8493131", "postal_hyphen": "849-3131", "pref": "佐賀県", "city": "唐津市", "town": "厳木町厳木", "full": "佐賀県唐津市厳木町厳木"}, {"postal_code": "8493121", "postal_hyphen": "849-3121", "pref": "佐賀県", "city": "唐津市", "town": "厳木町瀬戸木場", "full": "佐賀県唐津市厳木町瀬戸木場"}, {"postal_code": "8493102", "postal_hyphen": "849-3102", "pref": "佐賀県", "city": "唐津市", "town": "厳木町鳥越", "full": "佐賀県唐津市厳木町鳥越"}, {"postal_code": "8493112", "postal_hyphen": "849-3112", "pref": "佐賀県", "city": "唐津市", "town": "厳木町中島", "full": "佐賀県唐津市厳木町中島"}, {"postal_code": "8493122", "postal_hyphen": "849-3122", "pref": "佐賀県", "city": "唐津市", "town": "厳木町浪瀬", "full": "佐賀県唐津市厳木町浪瀬"}, {"postal_code": "8493115", "postal_hyphen": "849-3115", "pref": "佐賀県", "city": "唐津市", "town": "厳木町平之", "full": "佐賀県唐津市厳木町平之"}, {"postal_code": "8493103", "postal_hyphen": "849-3103", "pref": "佐賀県", "city": "唐津市", "town": "厳木町広川", "full": "佐賀県唐津市厳木町広川"}, {"postal_code": "8493111", "postal_hyphen": "849-3111", "pref": "佐賀県", "city": "唐津市", "town": "厳木町広瀬", "full": "佐賀県唐津市厳木町広瀬"}, {"postal_code": "8493104", "postal_hyphen": "849-3104", "pref": "佐賀県", "city": "唐津市", "town": "厳木町星領", "full": "佐賀県唐津市厳木町星領"}, {"postal_code": "8493113", "postal_hyphen": "849-3113", "pref": "佐賀県", "city": "唐津市", "town": "厳木町牧瀬", "full": "佐賀県唐津市厳木町牧瀬"}, {"postal_code": "8493133", "postal_hyphen": "849-3133", "pref": "佐賀県", "city": "唐津市", "town": "厳木町本山", "full": "佐賀県唐津市厳木町本山"}, {"postal_code": "8470045", "postal_hyphen": "847-0045", "pref": "佐賀県", "city": "唐津市", "town": "京町", "full": "佐賀県唐津市京町"}, {"postal_code": "8470044", "postal_hyphen": "847-0044", "pref": "佐賀県", "city": "唐津市", "town": "木綿町", "full": "佐賀県唐津市木綿町"}, {"postal_code": "8470817", "postal_hyphen": "847-0817", "pref": "佐賀県", "city": "唐津市", "town": "熊原町", "full": "佐賀県唐津市熊原町"}, {"postal_code": "8470884", "postal_hyphen": "847-0884", "pref": "佐賀県", "city": "唐津市", "town": "熊ノ峰", "full": "佐賀県唐津市熊ノ峰"}, {"postal_code": "8470033", "postal_hyphen": "847-0033", "pref": "佐賀県", "city": "唐津市", "town": "久里", "full": "佐賀県唐津市久里"}, {"postal_code": "8470824", "postal_hyphen": "847-0824", "pref": "佐賀県", "city": "唐津市", "town": "神田", "full": "佐賀県唐津市神田"}, {"postal_code": "8470052", "postal_hyphen": "847-0052", "pref": "佐賀県", "city": "唐津市", "town": "呉服町", "full": "佐賀県唐津市呉服町"}, {"postal_code": "8470054", "postal_hyphen": "847-0054", "pref": "佐賀県", "city": "唐津市", "town": "米屋町", "full": "佐賀県唐津市米屋町"}, {"postal_code": "8470053", "postal_hyphen": "847-0053", "pref": "佐賀県", "city": "唐津市", "town": "紺屋町", "full": "佐賀県唐津市紺屋町"}, {"postal_code": "8470061", "postal_hyphen": "847-0061", "pref": "佐賀県", "city": "唐津市", "town": "材木町", "full": "佐賀県唐津市材木町"}, {"postal_code": "8470011", "postal_hyphen": "847-0011", "pref": "佐賀県", "city": "唐津市", "town": "栄町", "full": "佐賀県唐津市栄町"}, {"postal_code": "8470843", "postal_hyphen": "847-0843", "pref": "佐賀県", "city": "唐津市", "town": "桜馬場", "full": "佐賀県唐津市桜馬場"}, {"postal_code": "8470104", "postal_hyphen": "847-0104", "pref": "佐賀県", "city": "唐津市", "town": "桜町", "full": "佐賀県唐津市桜町"}, {"postal_code": "8470111", "postal_hyphen": "847-0111", "pref": "佐賀県", "city": "唐津市", "town": "佐志", "full": "佐賀県唐津市佐志"}, {"postal_code": "8470113", "postal_hyphen": "847-0113", "pref": "佐賀県", "city": "唐津市", "town": "佐志中里", "full": "佐賀県唐津市佐志中里"}, {"postal_code": "8470114", "postal_hyphen": "847-0114", "pref": "佐賀県", "city": "唐津市", "town": "佐志中通", "full": "佐賀県唐津市佐志中通"}, {"postal_code": "8470115", "postal_hyphen": "847-0115", "pref": "佐賀県", "city": "唐津市", "town": "佐志浜町", "full": "佐賀県唐津市佐志浜町"}, {"postal_code": "8470112", "postal_hyphen": "847-0112", "pref": "佐賀県", "city": "唐津市", "town": "佐志南", "full": "佐賀県唐津市佐志南"}, {"postal_code": "8470883", "postal_hyphen": "847-0883", "pref": "佐賀県", "city": "唐津市", "town": "重河内", "full": "佐賀県唐津市重河内"}, {"postal_code": "8470067", "postal_hyphen": "847-0067", "pref": "佐賀県", "city": "唐津市", "town": "十人町", "full": "佐賀県唐津市十人町"}, {"postal_code": "8470021", "postal_hyphen": "847-0021", "pref": "佐賀県", "city": "唐津市", "town": "松南町", "full": "佐賀県唐津市松南町"}, {"postal_code": "8470818", "postal_hyphen": "847-0818", "pref": "佐賀県", "city": "唐津市", "town": "新興町", "full": "佐賀県唐津市新興町"}, {"postal_code": "8470813", "postal_hyphen": "847-0813", "pref": "佐賀県", "city": "唐津市", "town": "新町", "full": "佐賀県唐津市新町"}, {"postal_code": "8470882", "postal_hyphen": "847-0882", "pref": "佐賀県", "city": "唐津市", "town": "菅牟田", "full": "佐賀県唐津市菅牟田"}, {"postal_code": "8470001", "postal_hyphen": "847-0001", "pref": "佐賀県", "city": "唐津市", "town": "双水", "full": "佐賀県唐津市双水"}, {"postal_code": "8470012", "postal_hyphen": "847-0012", "pref": "佐賀県", "city": "唐津市", "town": "大名小路", "full": "佐賀県唐津市大名小路"}, {"postal_code": "8470803", "postal_hyphen": "847-0803", "pref": "佐賀県", "city": "唐津市", "town": "大良", "full": "佐賀県唐津市大良"}, {"postal_code": "8470046", "postal_hyphen": "847-0046", "pref": "佐賀県", "city": "唐津市", "town": "高砂町", "full": "佐賀県唐津市高砂町"}, {"postal_code": "8470027", "postal_hyphen": "847-0027", "pref": "佐賀県", "city": "唐津市", "town": "高島", "full": "佐賀県唐津市高島"}, {"postal_code": "8470881", "postal_hyphen": "847-0881", "pref": "佐賀県", "city": "唐津市", "town": "竹木場", "full": "佐賀県唐津市竹木場"}, {"postal_code": "8470831", "postal_hyphen": "847-0831", "pref": "佐賀県", "city": "唐津市", "town": "千々賀", "full": "佐賀県唐津市千々賀"}, {"postal_code": "8470821", "postal_hyphen": "847-0821", "pref": "佐賀県", "city": "唐津市", "town": "町田", "full": "佐賀県唐津市町田"}, {"postal_code": "8470041", "postal_hyphen": "847-0041", "pref": "佐賀県", "city": "唐津市", "town": "千代田町", "full": "佐賀県唐津市千代田町"}, {"postal_code": "8470312", "postal_hyphen": "847-0312", "pref": "佐賀県", "city": "唐津市", "town": "鎮西町赤木", "full": "佐賀県唐津市鎮西町赤木"}, {"postal_code": "8470327", "postal_hyphen": "847-0327", "pref": "佐賀県", "city": "唐津市", "town": "鎮西町石室", "full": "佐賀県唐津市鎮西町石室"}, {"postal_code": "8470323", "postal_hyphen": "847-0323", "pref": "佐賀県", "city": "唐津市", "town": "鎮西町岩野", "full": "佐賀県唐津市鎮西町岩野"}, {"postal_code": "8470322", "postal_hyphen": "847-0322", "pref": "佐賀県", "city": "唐津市", "town": "鎮西町打上", "full": "佐賀県唐津市鎮西町打上"}, {"postal_code": "8470317", "postal_hyphen": "847-0317", "pref": "佐賀県", "city": "唐津市", "town": "鎮西町加唐島", "full": "佐賀県唐津市鎮西町加唐島"}, {"postal_code": "8470325", "postal_hyphen": "847-0325", "pref": "佐賀県", "city": "唐津市", "town": "鎮西町加倉", "full": "佐賀県唐津市鎮西町加倉"}, {"postal_code": "8470403", "postal_hyphen": "847-0403", "pref": "佐賀県", "city": "唐津市", "town": "鎮西町串", "full": "佐賀県唐津市鎮西町串"}, {"postal_code": "8470324", "postal_hyphen": "847-0324", "pref": "佐賀県", "city": "唐津市", "town": "鎮西町高野", "full": "佐賀県唐津市鎮西町高野"}, {"postal_code": "8470313", "postal_hyphen": "847-0313", "pref": "佐賀県", "city": "唐津市", "town": "鎮西町塩鶴", "full": "佐賀県唐津市鎮西町塩鶴"}, {"postal_code": "8470314", "postal_hyphen": "847-0314", "pref": "佐賀県", "city": "唐津市", "town": "鎮西町菖蒲", "full": "佐賀県唐津市鎮西町菖蒲"}, {"postal_code": "8470316", "postal_hyphen": "847-0316", "pref": "佐賀県", "city": "唐津市", "town": "鎮西町中野", "full": "佐賀県唐津市鎮西町中野"}, {"postal_code": "8470401", "postal_hyphen": "847-0401", "pref": "佐賀県", "city": "唐津市", "town": "鎮西町名護屋", "full": "佐賀県唐津市鎮西町名護屋"}, {"postal_code": "8470402", "postal_hyphen": "847-0402", "pref": "佐賀県", "city": "唐津市", "town": "鎮西町野元", "full": "佐賀県唐津市鎮西町野元"}, {"postal_code": "8470404", "postal_hyphen": "847-0404", "pref": "佐賀県", "city": "唐津市", "town": "鎮西町波戸", "full": "佐賀県唐津市鎮西町波戸"}, {"postal_code": "8470326", "postal_hyphen": "847-0326", "pref": "佐賀県", "city": "唐津市", "town": "鎮西町早田", "full": "佐賀県唐津市鎮西町早田"}, {"postal_code": "8470405", "postal_hyphen": "847-0405", "pref": "佐賀県", "city": "唐津市", "town": "鎮西町馬渡島", "full": "佐賀県唐津市鎮西町馬渡島"}, {"postal_code": "8470406", "postal_hyphen": "847-0406", "pref": "佐賀県", "city": "唐津市", "town": "鎮西町松島", "full": "佐賀県唐津市鎮西町松島"}, {"postal_code": "8470311", "postal_hyphen": "847-0311", "pref": "佐賀県", "city": "唐津市", "town": "鎮西町丸田", "full": "佐賀県唐津市鎮西町丸田"}, {"postal_code": "8470315", "postal_hyphen": "847-0315", "pref": "佐賀県", "city": "唐津市", "town": "鎮西町八床", "full": "佐賀県唐津市鎮西町八床"}, {"postal_code": "8470321", "postal_hyphen": "847-0321", "pref": "佐賀県", "city": "唐津市", "town": "鎮西町横竹", "full": "佐賀県唐津市鎮西町横竹"}, {"postal_code": "8470885", "postal_hyphen": "847-0885", "pref": "佐賀県", "city": "唐津市", "town": "唐川", "full": "佐賀県唐津市唐川"}, {"postal_code": "8470122", "postal_hyphen": "847-0122", "pref": "佐賀県", "city": "唐津市", "town": "唐房", "full": "佐賀県唐津市唐房"}, {"postal_code": "8470134", "postal_hyphen": "847-0134", "pref": "佐賀県", "city": "唐津市", "town": "中里", "full": "佐賀県唐津市中里"}, {"postal_code": "8470101", "postal_hyphen": "847-0101", "pref": "佐賀県", "city": "唐津市", "town": "中瀬通", "full": "佐賀県唐津市中瀬通"}, {"postal_code": "8470034", "postal_hyphen": "847-0034", "pref": "佐賀県", "city": "唐津市", "town": "中原", "full": "佐賀県唐津市中原"}, {"postal_code": "8470051", "postal_hyphen": "847-0051", "pref": "佐賀県", "city": "唐津市", "town": "中町", "full": "佐賀県唐津市中町"}, {"postal_code": "8470862", "postal_hyphen": "847-0862", "pref": "佐賀県", "city": "唐津市", "town": "中山町", "full": "佐賀県唐津市中山町"}, {"postal_code": "8470822", "postal_hyphen": "847-0822", "pref": "佐賀県", "city": "唐津市", "town": "長谷", "full": "佐賀県唐津市長谷"}, {"postal_code": "8470802", "postal_hyphen": "847-0802", "pref": "佐賀県", "city": "唐津市", "town": "梨川内", "full": "佐賀県唐津市梨川内"}, {"postal_code": "8471101", "postal_hyphen": "847-1101", "pref": "佐賀県", "city": "唐津市", "town": "七山荒川", "full": "佐賀県唐津市七山荒川"}, {"postal_code": "8471103", "postal_hyphen": "847-1103", "pref": "佐賀県", "city": "唐津市", "town": "七山池原", "full": "佐賀県唐津市七山池原"}, {"postal_code": "8471104", "postal_hyphen": "847-1104", "pref": "佐賀県", "city": "唐津市", "town": "七山木浦", "full": "佐賀県唐津市七山木浦"}, {"postal_code": "8471108", "postal_hyphen": "847-1108", "pref": "佐賀県", "city": "唐津市", "town": "七山白木", "full": "佐賀県唐津市七山白木"}, {"postal_code": "8471106", "postal_hyphen": "847-1106", "pref": "佐賀県", "city": "唐津市", "town": "七山滝川", "full": "佐賀県唐津市七山滝川"}, {"postal_code": "8471105", "postal_hyphen": "847-1105", "pref": "佐賀県", "city": "唐津市", "town": "七山仁部", "full": "佐賀県唐津市七山仁部"}, {"postal_code": "8471107", "postal_hyphen": "847-1107", "pref": "佐賀県", "city": "唐津市", "town": "七山藤川", "full": "佐賀県唐津市七山藤川"}, {"postal_code": "8471102", "postal_hyphen": "847-1102", "pref": "佐賀県", "city": "唐津市", "town": "七山馬川", "full": "佐賀県唐津市七山馬川"}, {"postal_code": "8470844", "postal_hyphen": "847-0844", "pref": "佐賀県", "city": "唐津市", "town": "菜畑", "full": "佐賀県唐津市菜畑"}, {"postal_code": "8470872", "postal_hyphen": "847-0872", "pref": "佐賀県", "city": "唐津市", "town": "西大島町", "full": "佐賀県唐津市西大島町"}, {"postal_code": "8470875", "postal_hyphen": "847-0875", "pref": "佐賀県", "city": "唐津市", "town": "西唐津", "full": "佐賀県唐津市西唐津"}, {"postal_code": "8470014", "postal_hyphen": "847-0014", "pref": "佐賀県", "city": "唐津市", "town": "西城内", "full": "佐賀県唐津市西城内"}, {"postal_code": "8470815", "postal_hyphen": "847-0815", "pref": "佐賀県", "city": "唐津市", "town": "西寺町", "full": "佐賀県唐津市西寺町"}, {"postal_code": "8470855", "postal_hyphen": "847-0855", "pref": "佐賀県", "city": "唐津市", "town": "西浜町", "full": "佐賀県唐津市西浜町"}, {"postal_code": "8470854", "postal_hyphen": "847-0854", "pref": "佐賀県", "city": "唐津市", "town": "西旗町", "full": "佐賀県唐津市西旗町"}, {"postal_code": "8470003", "postal_hyphen": "847-0003", "pref": "佐賀県", "city": "唐津市", "town": "橋本", "full": "佐賀県唐津市橋本"}, {"postal_code": "8470103", "postal_hyphen": "847-0103", "pref": "佐賀県", "city": "唐津市", "town": "橋本町", "full": "佐賀県唐津市橋本町"}, {"postal_code": "8470833", "postal_hyphen": "847-0833", "pref": "佐賀県", "city": "唐津市", "town": "畑島", "full": "佐賀県唐津市畑島"}, {"postal_code": "8470023", "postal_hyphen": "847-0023", "pref": "佐賀県", "city": "唐津市", "town": "半田", "full": "佐賀県唐津市半田"}, {"postal_code": "8470121", "postal_hyphen": "847-0121", "pref": "佐賀県", "city": "唐津市", "town": "鳩川", "full": "佐賀県唐津市鳩川"}, {"postal_code": "8495103", "postal_hyphen": "849-5103", "pref": "佐賀県", "city": "唐津市", "town": "浜玉町大江", "full": "佐賀県唐津市浜玉町大江"}, {"postal_code": "8495101", "postal_hyphen": "849-5101", "pref": "佐賀県", "city": "唐津市", "town": "浜玉町岡口", "full": "佐賀県唐津市浜玉町岡口"}, {"postal_code": "8495102", "postal_hyphen": "849-5102", "pref": "佐賀県", "city": "唐津市", "town": "浜玉町五反田", "full": "佐賀県唐津市浜玉町五反田"}, {"postal_code": "8495105", "postal_hyphen": "849-5105", "pref": "佐賀県", "city": "唐津市", "town": "浜玉町谷口", "full": "佐賀県唐津市浜玉町谷口"}, {"postal_code": "8495113", "postal_hyphen": "849-5113", "pref": "佐賀県", "city": "唐津市", "town": "浜玉町鳥巣", "full": "佐賀県唐津市浜玉町鳥巣"}, {"postal_code": "8495131", "postal_hyphen": "849-5131", "pref": "佐賀県", "city": "唐津市", "town": "浜玉町浜崎", "full": "佐賀県唐津市浜玉町浜崎"}, {"postal_code": "8495123", "postal_hyphen": "849-5123", "pref": "佐賀県", "city": "唐津市", "town": "浜玉町東山田", "full": "佐賀県唐津市浜玉町東山田"}, {"postal_code": "8495112", "postal_hyphen": "849-5112", "pref": "佐賀県", "city": "唐津市", "town": "浜玉町平原", "full": "佐賀県唐津市浜玉町平原"}, {"postal_code": "8495104", "postal_hyphen": "849-5104", "pref": "佐賀県", "city": "唐津市", "town": "浜玉町渕上", "full": "佐賀県唐津市浜玉町渕上"}, {"postal_code": "8495111", "postal_hyphen": "849-5111", "pref": "佐賀県", "city": "唐津市", "town": "浜玉町南山", "full": "佐賀県唐津市浜玉町南山"}, {"postal_code": "8495124", "postal_hyphen": "849-5124", "pref": "佐賀県", "city": "唐津市", "town": "浜玉町山瀬", "full": "佐賀県唐津市浜玉町山瀬"}, {"postal_code": "8495121", "postal_hyphen": "849-5121", "pref": "佐賀県", "city": "唐津市", "town": "浜玉町横田上", "full": "佐賀県唐津市浜玉町横田上"}, {"postal_code": "8495122", "postal_hyphen": "849-5122", "pref": "佐賀県", "city": "唐津市", "town": "浜玉町横田下", "full": "佐賀県唐津市浜玉町横田下"}, {"postal_code": "8470031", "postal_hyphen": "847-0031", "pref": "佐賀県", "city": "唐津市", "town": "原", "full": "佐賀県唐津市原"}, {"postal_code": "8470024", "postal_hyphen": "847-0024", "pref": "佐賀県", "city": "唐津市", "town": "東宇木", "full": "佐賀県唐津市東宇木"}, {"postal_code": "8470871", "postal_hyphen": "847-0871", "pref": "佐賀県", "city": "唐津市", "town": "東大島町", "full": "佐賀県唐津市東大島町"}, {"postal_code": "8470017", "postal_hyphen": "847-0017", "pref": "佐賀県", "city": "唐津市", "town": "東唐津", "full": "佐賀県唐津市東唐津"}, {"postal_code": "8470016", "postal_hyphen": "847-0016", "pref": "佐賀県", "city": "唐津市", "town": "東城内", "full": "佐賀県唐津市東城内"}, {"postal_code": "8470063", "postal_hyphen": "847-0063", "pref": "佐賀県", "city": "唐津市", "town": "東町", "full": "佐賀県唐津市東町"}, {"postal_code": "8470801", "postal_hyphen": "847-0801", "pref": "佐賀県", "city": "唐津市", "town": "東山", "full": "佐賀県唐津市東山"}, {"postal_code": "8471502", "postal_hyphen": "847-1502", "pref": "佐賀県", "city": "唐津市", "town": "肥前町赤坂", "full": "佐賀県唐津市肥前町赤坂"}, {"postal_code": "8471517", "postal_hyphen": "847-1517", "pref": "佐賀県", "city": "唐津市", "town": "肥前町上ケ倉", "full": "佐賀県唐津市肥前町上ケ倉"}, {"postal_code": "8471522", "postal_hyphen": "847-1522", "pref": "佐賀県", "city": "唐津市", "town": "肥前町犬頭", "full": "佐賀県唐津市肥前町犬頭"}, {"postal_code": "8471526", "postal_hyphen": "847-1526", "pref": "佐賀県", "city": "唐津市", "town": "肥前町入野", "full": "佐賀県唐津市肥前町入野"}, {"postal_code": "8471512", "postal_hyphen": "847-1512", "pref": "佐賀県", "city": "唐津市", "town": "肥前町梅崎", "full": "佐賀県唐津市肥前町梅崎"}, {"postal_code": "8471516", "postal_hyphen": "847-1516", "pref": "佐賀県", "city": "唐津市", "town": "肥前町瓜ケ坂", "full": "佐賀県唐津市肥前町瓜ケ坂"}, {"postal_code": "8471506", "postal_hyphen": "847-1506", "pref": "佐賀県", "city": "唐津市", "town": "肥前町大浦", "full": "佐賀県唐津市肥前町大浦"}, {"postal_code": "8471501", "postal_hyphen": "847-1501", "pref": "佐賀県", "city": "唐津市", "town": "肥前町切木", "full": "佐賀県唐津市肥前町切木"}, {"postal_code": "8471505", "postal_hyphen": "847-1505", "pref": "佐賀県", "city": "唐津市", "town": "肥前町杉野浦", "full": "佐賀県唐津市肥前町杉野浦"}, {"postal_code": "8471521", "postal_hyphen": "847-1521", "pref": "佐賀県", "city": "唐津市", "town": "肥前町田野", "full": "佐賀県唐津市肥前町田野"}, {"postal_code": "8471527", "postal_hyphen": "847-1527", "pref": "佐賀県", "city": "唐津市", "town": "肥前町鶴牧", "full": "佐賀県唐津市肥前町鶴牧"}, {"postal_code": "8471513", "postal_hyphen": "847-1513", "pref": "佐賀県", "city": "唐津市", "town": "肥前町寺浦", "full": "佐賀県唐津市肥前町寺浦"}, {"postal_code": "8471504", "postal_hyphen": "847-1504", "pref": "佐賀県", "city": "唐津市", "town": "肥前町中浦", "full": "佐賀県唐津市肥前町中浦"}, {"postal_code": "8471511", "postal_hyphen": "847-1511", "pref": "佐賀県", "city": "唐津市", "town": "肥前町新木場", "full": "佐賀県唐津市肥前町新木場"}, {"postal_code": "8471514", "postal_hyphen": "847-1514", "pref": "佐賀県", "city": "唐津市", "town": "肥前町仁田野尾", "full": "佐賀県唐津市肥前町仁田野尾"}, {"postal_code": "8471525", "postal_hyphen": "847-1525", "pref": "佐賀県", "city": "唐津市", "town": "肥前町納所", "full": "佐賀県唐津市肥前町納所"}, {"postal_code": "8471523", "postal_hyphen": "847-1523", "pref": "佐賀県", "city": "唐津市", "town": "肥前町星賀", "full": "佐賀県唐津市肥前町星賀"}, {"postal_code": "8471515", "postal_hyphen": "847-1515", "pref": "佐賀県", "city": "唐津市", "town": "肥前町万賀里川", "full": "佐賀県唐津市肥前町万賀里川"}, {"postal_code": "8471507", "postal_hyphen": "847-1507", "pref": "佐賀県", "city": "唐津市", "town": "肥前町満越", "full": "佐賀県唐津市肥前町満越"}, {"postal_code": "8471524", "postal_hyphen": "847-1524", "pref": "佐賀県", "city": "唐津市", "town": "肥前町向島", "full": "佐賀県唐津市肥前町向島"}, {"postal_code": "8471503", "postal_hyphen": "847-1503", "pref": "佐賀県", "city": "唐津市", "town": "肥前町湯野浦", "full": "佐賀県唐津市肥前町湯野浦"}, {"postal_code": "8470812", "postal_hyphen": "847-0812", "pref": "佐賀県", "city": "唐津市", "town": "平野町", "full": "佐賀県唐津市平野町"}, {"postal_code": "8470874", "postal_hyphen": "847-0874", "pref": "佐賀県", "city": "唐津市", "town": "藤崎通", "full": "佐賀県唐津市藤崎通"}, {"postal_code": "8470851", "postal_hyphen": "847-0851", "pref": "佐賀県", "city": "唐津市", "town": "富士見町", "full": "佐賀県唐津市富士見町"}, {"postal_code": "8470861", "postal_hyphen": "847-0861", "pref": "佐賀県", "city": "唐津市", "town": "二タ子", "full": "佐賀県唐津市二タ子"}, {"postal_code": "8470062", "postal_hyphen": "847-0062", "pref": "佐賀県", "city": "唐津市", "town": "船宮町", "full": "佐賀県唐津市船宮町"}, {"postal_code": "8470056", "postal_hyphen": "847-0056", "pref": "佐賀県", "city": "唐津市", "town": "坊主町", "full": "佐賀県唐津市坊主町"}, {"postal_code": "8470047", "postal_hyphen": "847-0047", "pref": "佐賀県", "city": "唐津市", "town": "本町", "full": "佐賀県唐津市本町"}, {"postal_code": "8470133", "postal_hyphen": "847-0133", "pref": "佐賀県", "city": "唐津市", "town": "湊町", "full": "佐賀県唐津市湊町"}, {"postal_code": "8470013", "postal_hyphen": "847-0013", "pref": "佐賀県", "city": "唐津市", "town": "南城内", "full": "佐賀県唐津市南城内"}, {"postal_code": "8470876", "postal_hyphen": "847-0876", "pref": "佐賀県", "city": "唐津市", "town": "南富士見町", "full": "佐賀県唐津市南富士見町"}, {"postal_code": "8470863", "postal_hyphen": "847-0863", "pref": "佐賀県", "city": "唐津市", "town": "妙見町", "full": "佐賀県唐津市妙見町"}, {"postal_code": "8470825", "postal_hyphen": "847-0825", "pref": "佐賀県", "city": "唐津市", "town": "見借", "full": "佐賀県唐津市見借"}, {"postal_code": "8470064", "postal_hyphen": "847-0064", "pref": "佐賀県", "city": "唐津市", "town": "元石町", "full": "佐賀県唐津市元石町"}, {"postal_code": "8470852", "postal_hyphen": "847-0852", "pref": "佐賀県", "city": "唐津市", "town": "元旗町", "full": "佐賀県唐津市元旗町"}, {"postal_code": "8470811", "postal_hyphen": "847-0811", "pref": "佐賀県", "city": "唐津市", "town": "八百屋町", "full": "佐賀県唐津市八百屋町"}, {"postal_code": "8470135", "postal_hyphen": "847-0135", "pref": "佐賀県", "city": "唐津市", "town": "屋形石", "full": "佐賀県唐津市屋形石"}, {"postal_code": "8470102", "postal_hyphen": "847-0102", "pref": "佐賀県", "city": "唐津市", "town": "八幡町", "full": "佐賀県唐津市八幡町"}, {"postal_code": "8470004", "postal_hyphen": "847-0004", "pref": "佐賀県", "city": "唐津市", "town": "養母田", "full": "佐賀県唐津市養母田"}, {"postal_code": "8470005", "postal_hyphen": "847-0005", "pref": "佐賀県", "city": "唐津市", "town": "養母田鬼塚", "full": "佐賀県唐津市養母田鬼塚"}, {"postal_code": "8470842", "postal_hyphen": "847-0842", "pref": "佐賀県", "city": "唐津市", "town": "山下町", "full": "佐賀県唐津市山下町"}, {"postal_code": "8470834", "postal_hyphen": "847-0834", "pref": "佐賀県", "city": "唐津市", "town": "山田", "full": "佐賀県唐津市山田"}, {"postal_code": "8470002", "postal_hyphen": "847-0002", "pref": "佐賀県", "city": "唐津市", "town": "山本", "full": "佐賀県唐津市山本"}, {"postal_code": "8470032", "postal_hyphen": "847-0032", "pref": "佐賀県", "city": "唐津市", "town": "夕日", "full": "佐賀県唐津市夕日"}, {"postal_code": "8470814", "postal_hyphen": "847-0814", "pref": "佐賀県", "city": "唐津市", "town": "弓鷹町", "full": "佐賀県唐津市弓鷹町"}, {"postal_code": "8470136", "postal_hyphen": "847-0136", "pref": "佐賀県", "city": "唐津市", "town": "横野", "full": "佐賀県唐津市横野"}, {"postal_code": "8470301", "postal_hyphen": "847-0301", "pref": "佐賀県", "city": "唐津市", "town": "呼子町大友", "full": "佐賀県唐津市呼子町大友"}, {"postal_code": "8470306", "postal_hyphen": "847-0306", "pref": "佐賀県", "city": "唐津市", "town": "呼子町小川島", "full": "佐賀県唐津市呼子町小川島"}, {"postal_code": "8470305", "postal_hyphen": "847-0305", "pref": "佐賀県", "city": "唐津市", "town": "呼子町加部島", "full": "佐賀県唐津市呼子町加部島"}, {"postal_code": "8470302", "postal_hyphen": "847-0302", "pref": "佐賀県", "city": "唐津市", "town": "呼子町小友", "full": "佐賀県唐津市呼子町小友"}, {"postal_code": "8470304", "postal_hyphen": "847-0304", "pref": "佐賀県", "city": "唐津市", "town": "呼子町殿ノ浦", "full": "佐賀県唐津市呼子町殿ノ浦"}, {"postal_code": "8470303", "postal_hyphen": "847-0303", "pref": "佐賀県", "city": "唐津市", "town": "呼子町呼子", "full": "佐賀県唐津市呼子町呼子"}, {"postal_code": "8470071", "postal_hyphen": "847-0071", "pref": "佐賀県", "city": "唐津市", "town": "和多田海士町", "full": "佐賀県唐津市和多田海士町"}, {"postal_code": "8470083", "postal_hyphen": "847-0083", "pref": "佐賀県", "city": "唐津市", "town": "和多田大土井", "full": "佐賀県唐津市和多田大土井"}, {"postal_code": "8470074", "postal_hyphen": "847-0074", "pref": "佐賀県", "city": "唐津市", "town": "和多田先石", "full": "佐賀県唐津市和多田先石"}, {"postal_code": "8470082", "postal_hyphen": "847-0082", "pref": "佐賀県", "city": "唐津市", "town": "和多田天満町", "full": "佐賀県唐津市和多田天満町"}, {"postal_code": "8470084", "postal_hyphen": "847-0084", "pref": "佐賀県", "city": "唐津市", "town": "和多田西山", "full": "佐賀県唐津市和多田西山"}, {"postal_code": "8470073", "postal_hyphen": "847-0073", "pref": "佐賀県", "city": "唐津市", "town": "和多田東百人町", "full": "佐賀県唐津市和多田東百人町"}, {"postal_code": "8470072", "postal_hyphen": "847-0072", "pref": "佐賀県", "city": "唐津市", "town": "和多田百人町", "full": "佐賀県唐津市和多田百人町"}, {"postal_code": "8470085", "postal_hyphen": "847-0085", "pref": "佐賀県", "city": "唐津市", "town": "和多田本村", "full": "佐賀県唐津市和多田本村"}, {"postal_code": "8470081", "postal_hyphen": "847-0081", "pref": "佐賀県", "city": "唐津市", "town": "和多田南先石", "full": "佐賀県唐津市和多田南先石"}, {"postal_code": "8470075", "postal_hyphen": "847-0075", "pref": "佐賀県", "city": "唐津市", "town": "和多田用尺", "full": "佐賀県唐津市和多田用尺"}, {"postal_code": "8410000", "postal_hyphen": "841-0000", "pref": "佐賀県", "city": "鳥栖市", "town": "", "full": "佐賀県鳥栖市"}, {"postal_code": "8410036", "postal_hyphen": "841-0036", "pref": "佐賀県", "city": "鳥栖市", "town": "秋葉町", "full": "佐賀県鳥栖市秋葉町"}, {"postal_code": "8410082", "postal_hyphen": "841-0082", "pref": "佐賀県", "city": "鳥栖市", "town": "浅井町", "full": "佐賀県鳥栖市浅井町"}, {"postal_code": "8410068", "postal_hyphen": "841-0068", "pref": "佐賀県", "city": "鳥栖市", "town": "あさひ新町", "full": "佐賀県鳥栖市あさひ新町"}, {"postal_code": "8410045", "postal_hyphen": "841-0045", "pref": "佐賀県", "city": "鳥栖市", "town": "安楽寺町", "full": "佐賀県鳥栖市安楽寺町"}, {"postal_code": "8410022", "postal_hyphen": "841-0022", "pref": "佐賀県", "city": "鳥栖市", "town": "飯田町", "full": "佐賀県鳥栖市飯田町"}, {"postal_code": "8410047", "postal_hyphen": "841-0047", "pref": "佐賀県", "city": "鳥栖市", "town": "今泉町", "full": "佐賀県鳥栖市今泉町"}, {"postal_code": "8410001", "postal_hyphen": "841-0001", "pref": "佐賀県", "city": "鳥栖市", "town": "今町", "full": "佐賀県鳥栖市今町"}, {"postal_code": "8410086", "postal_hyphen": "841-0086", "pref": "佐賀県", "city": "鳥栖市", "town": "牛原町", "full": "佐賀県鳥栖市牛原町"}, {"postal_code": "8410073", "postal_hyphen": "841-0073", "pref": "佐賀県", "city": "鳥栖市", "town": "江島町", "full": "佐賀県鳥栖市江島町"}, {"postal_code": "8410003", "postal_hyphen": "841-0003", "pref": "佐賀県", "city": "鳥栖市", "town": "加藤田町", "full": "佐賀県鳥栖市加藤田町"}, {"postal_code": "8410081", "postal_hyphen": "841-0081", "pref": "佐賀県", "city": "鳥栖市", "town": "萱方町", "full": "佐賀県鳥栖市萱方町"}, {"postal_code": "8410087", "postal_hyphen": "841-0087", "pref": "佐賀県", "city": "鳥栖市", "town": "河内町", "full": "佐賀県鳥栖市河内町"}, {"postal_code": "8410066", "postal_hyphen": "841-0066", "pref": "佐賀県", "city": "鳥栖市", "town": "儀徳町", "full": "佐賀県鳥栖市儀徳町"}, {"postal_code": "8410034", "postal_hyphen": "841-0034", "pref": "佐賀県", "city": "鳥栖市", "town": "京町", "full": "佐賀県鳥栖市京町"}, {"postal_code": "8410056", "postal_hyphen": "841-0056", "pref": "佐賀県", "city": "鳥栖市", "town": "蔵上", "full": "佐賀県鳥栖市蔵上"}, {"postal_code": "8410054", "postal_hyphen": "841-0054", "pref": "佐賀県", "city": "鳥栖市", "town": "蔵上町", "full": "佐賀県鳥栖市蔵上町"}, {"postal_code": "8410004", "postal_hyphen": "841-0004", "pref": "佐賀県", "city": "鳥栖市", "town": "神辺町", "full": "佐賀県鳥栖市神辺町"}, {"postal_code": "8410083", "postal_hyphen": "841-0083", "pref": "佐賀県", "city": "鳥栖市", "town": "古賀町", "full": "佐賀県鳥栖市古賀町"}, {"postal_code": "8410062", "postal_hyphen": "841-0062", "pref": "佐賀県", "city": "鳥栖市", "town": "幸津町", "full": "佐賀県鳥栖市幸津町"}, {"postal_code": "8410041", "postal_hyphen": "841-0041", "pref": "佐賀県", "city": "鳥栖市", "town": "酒井東町", "full": "佐賀県鳥栖市酒井東町"}, {"postal_code": "8410042", "postal_hyphen": "841-0042", "pref": "佐賀県", "city": "鳥栖市", "town": "酒井西町", "full": "佐賀県鳥栖市酒井西町"}, {"postal_code": "8410088", "postal_hyphen": "841-0088", "pref": "佐賀県", "city": "鳥栖市", "town": "桜ケ丘町", "full": "佐賀県鳥栖市桜ケ丘町"}, {"postal_code": "8410014", "postal_hyphen": "841-0014", "pref": "佐賀県", "city": "鳥栖市", "town": "桜町", "full": "佐賀県鳥栖市桜町"}, {"postal_code": "8410063", "postal_hyphen": "841-0063", "pref": "佐賀県", "city": "鳥栖市", "town": "下野町", "full": "佐賀県鳥栖市下野町"}, {"postal_code": "8410052", "postal_hyphen": "841-0052", "pref": "佐賀県", "city": "鳥栖市", "town": "宿町", "full": "佐賀県鳥栖市宿町"}, {"postal_code": "8410025", "postal_hyphen": "841-0025", "pref": "佐賀県", "city": "鳥栖市", "town": "曽根崎町", "full": "佐賀県鳥栖市曽根崎町"}, {"postal_code": "8410032", "postal_hyphen": "841-0032", "pref": "佐賀県", "city": "鳥栖市", "town": "大正町", "full": "佐賀県鳥栖市大正町"}, {"postal_code": "8410044", "postal_hyphen": "841-0044", "pref": "佐賀県", "city": "鳥栖市", "town": "高田町", "full": "佐賀県鳥栖市高田町"}, {"postal_code": "8410015", "postal_hyphen": "841-0015", "pref": "佐賀県", "city": "鳥栖市", "town": "田代上町", "full": "佐賀県鳥栖市田代上町"}, {"postal_code": "8410012", "postal_hyphen": "841-0012", "pref": "佐賀県", "city": "鳥栖市", "town": "田代昌町", "full": "佐賀県鳥栖市田代昌町"}, {"postal_code": "8410013", "postal_hyphen": "841-0013", "pref": "佐賀県", "city": "鳥栖市", "town": "田代新町", "full": "佐賀県鳥栖市田代新町"}, {"postal_code": "8410017", "postal_hyphen": "841-0017", "pref": "佐賀県", "city": "鳥栖市", "town": "田代大官町", "full": "佐賀県鳥栖市田代大官町"}, {"postal_code": "8410016", "postal_hyphen": "841-0016", "pref": "佐賀県", "city": "鳥栖市", "town": "田代外町", "full": "佐賀県鳥栖市田代外町"}, {"postal_code": "8410018", "postal_hyphen": "841-0018", "pref": "佐賀県", "city": "鳥栖市", "town": "田代本町", "full": "佐賀県鳥栖市田代本町"}, {"postal_code": "8410075", "postal_hyphen": "841-0075", "pref": "佐賀県", "city": "鳥栖市", "town": "立石町", "full": "佐賀県鳥栖市立石町"}, {"postal_code": "8410039", "postal_hyphen": "841-0039", "pref": "佐賀県", "city": "鳥栖市", "town": "土井町", "full": "佐賀県鳥栖市土井町"}, {"postal_code": "8410061", "postal_hyphen": "841-0061", "pref": "佐賀県", "city": "鳥栖市", "town": "轟木町", "full": "佐賀県鳥栖市轟木町"}, {"postal_code": "8410011", "postal_hyphen": "841-0011", "pref": "佐賀県", "city": "鳥栖市", "town": "永吉町", "full": "佐賀県鳥栖市永吉町"}, {"postal_code": "8410074", "postal_hyphen": "841-0074", "pref": "佐賀県", "city": "鳥栖市", "town": "西新町", "full": "佐賀県鳥栖市西新町"}, {"postal_code": "8410067", "postal_hyphen": "841-0067", "pref": "佐賀県", "city": "鳥栖市", "town": "西田町", "full": "佐賀県鳥栖市西田町"}, {"postal_code": "8410089", "postal_hyphen": "841-0089", "pref": "佐賀県", "city": "鳥栖市", "town": "虹ケ丘町", "full": "佐賀県鳥栖市虹ケ丘町"}, {"postal_code": "8410021", "postal_hyphen": "841-0021", "pref": "佐賀県", "city": "鳥栖市", "town": "幡崎町", "full": "佐賀県鳥栖市幡崎町"}, {"postal_code": "8410071", "postal_hyphen": "841-0071", "pref": "佐賀県", "city": "鳥栖市", "town": "原古賀町", "full": "佐賀県鳥栖市原古賀町"}, {"postal_code": "8410024", "postal_hyphen": "841-0024", "pref": "佐賀県", "city": "鳥栖市", "town": "原町", "full": "佐賀県鳥栖市原町"}, {"postal_code": "8410035", "postal_hyphen": "841-0035", "pref": "佐賀県", "city": "鳥栖市", "town": "東町", "full": "佐賀県鳥栖市東町"}, {"postal_code": "8410023", "postal_hyphen": "841-0023", "pref": "佐賀県", "city": "鳥栖市", "town": "姫方町", "full": "佐賀県鳥栖市姫方町"}, {"postal_code": "8410076", "postal_hyphen": "841-0076", "pref": "佐賀県", "city": "鳥栖市", "town": "平田町", "full": "佐賀県鳥栖市平田町"}, {"postal_code": "8410048", "postal_hyphen": "841-0048", "pref": "佐賀県", "city": "鳥栖市", "town": "藤木町", "full": "佐賀県鳥栖市藤木町"}, {"postal_code": "8410053", "postal_hyphen": "841-0053", "pref": "佐賀県", "city": "鳥栖市", "town": "布津原町", "full": "佐賀県鳥栖市布津原町"}, {"postal_code": "8410038", "postal_hyphen": "841-0038", "pref": "佐賀県", "city": "鳥栖市", "town": "古野町", "full": "佐賀県鳥栖市古野町"}, {"postal_code": "8410033", "postal_hyphen": "841-0033", "pref": "佐賀県", "city": "鳥栖市", "town": "本通町", "full": "佐賀県鳥栖市本通町"}, {"postal_code": "8410026", "postal_hyphen": "841-0026", "pref": "佐賀県", "city": "鳥栖市", "town": "本鳥栖町", "full": "佐賀県鳥栖市本鳥栖町"}, {"postal_code": "8410037", "postal_hyphen": "841-0037", "pref": "佐賀県", "city": "鳥栖市", "town": "本町", "full": "佐賀県鳥栖市本町"}, {"postal_code": "8410065", "postal_hyphen": "841-0065", "pref": "佐賀県", "city": "鳥栖市", "town": "前田町", "full": "佐賀県鳥栖市前田町"}, {"postal_code": "8410046", "postal_hyphen": "841-0046", "pref": "佐賀県", "city": "鳥栖市", "town": "真木町", "full": "佐賀県鳥栖市真木町"}, {"postal_code": "8410027", "postal_hyphen": "841-0027", "pref": "佐賀県", "city": "鳥栖市", "town": "松原町", "full": "佐賀県鳥栖市松原町"}, {"postal_code": "8410064", "postal_hyphen": "841-0064", "pref": "佐賀県", "city": "鳥栖市", "town": "三島町", "full": "佐賀県鳥栖市三島町"}, {"postal_code": "8410043", "postal_hyphen": "841-0043", "pref": "佐賀県", "city": "鳥栖市", "town": "水屋町", "full": "佐賀県鳥栖市水屋町"}, {"postal_code": "8410072", "postal_hyphen": "841-0072", "pref": "佐賀県", "city": "鳥栖市", "town": "村田町", "full": "佐賀県鳥栖市村田町"}, {"postal_code": "8410051", "postal_hyphen": "841-0051", "pref": "佐賀県", "city": "鳥栖市", "town": "元町", "full": "佐賀県鳥栖市元町"}, {"postal_code": "8410055", "postal_hyphen": "841-0055", "pref": "佐賀県", "city": "鳥栖市", "town": "養父町", "full": "佐賀県鳥栖市養父町"}, {"postal_code": "8410084", "postal_hyphen": "841-0084", "pref": "佐賀県", "city": "鳥栖市", "town": "山浦町", "full": "佐賀県鳥栖市山浦町"}, {"postal_code": "8410085", "postal_hyphen": "841-0085", "pref": "佐賀県", "city": "鳥栖市", "town": "山都町", "full": "佐賀県鳥栖市山都町"}, {"postal_code": "8410005", "postal_hyphen": "841-0005", "pref": "佐賀県", "city": "鳥栖市", "town": "弥生が丘", "full": "佐賀県鳥栖市弥生が丘"}, {"postal_code": "8410031", "postal_hyphen": "841-0031", "pref": "佐賀県", "city": "鳥栖市", "town": "鎗田町", "full": "佐賀県鳥栖市鎗田町"}, {"postal_code": "8410002", "postal_hyphen": "841-0002", "pref": "佐賀県", "city": "鳥栖市", "town": "柚比町", "full": "佐賀県鳥栖市柚比町"}, {"postal_code": "8460000", "postal_hyphen": "846-0000", "pref": "佐賀県", "city": "多久市", "town": "", "full": "佐賀県多久市"}, {"postal_code": "8460001", "postal_hyphen": "846-0001", "pref": "佐賀県", "city": "多久市", "town": "北多久町", "full": "佐賀県多久市北多久町"}, {"postal_code": "8460006", "postal_hyphen": "846-0006", "pref": "佐賀県", "city": "多久市", "town": "北多久町莇原", "full": "佐賀県多久市北多久町莇原"}, {"postal_code": "8460002", "postal_hyphen": "846-0002", "pref": "佐賀県", "city": "多久市", "town": "北多久町小侍", "full": "佐賀県多久市北多久町小侍"}, {"postal_code": "8460005", "postal_hyphen": "846-0005", "pref": "佐賀県", "city": "多久市", "town": "北多久町砂原", "full": "佐賀県多久市北多久町砂原"}, {"postal_code": "8460003", "postal_hyphen": "846-0003", "pref": "佐賀県", "city": "多久市", "town": "北多久町多久原", "full": "佐賀県多久市北多久町多久原"}, {"postal_code": "8460004", "postal_hyphen": "846-0004", "pref": "佐賀県", "city": "多久市", "town": "北多久町中多久", "full": "佐賀県多久市北多久町中多久"}, {"postal_code": "8460007", "postal_hyphen": "846-0007", "pref": "佐賀県", "city": "多久市", "town": "北多久町メイプルタウン", "full": "佐賀県多久市北多久町メイプルタウン"}, {"postal_code": "8460031", "postal_hyphen": "846-0031", "pref": "佐賀県", "city": "多久市", "town": "多久町", "full": "佐賀県多久市多久町"}, {"postal_code": "8460041", "postal_hyphen": "846-0041", "pref": "佐賀県", "city": "多久市", "town": "西多久町", "full": "佐賀県多久市西多久町"}, {"postal_code": "8460011", "postal_hyphen": "846-0011", "pref": "佐賀県", "city": "多久市", "town": "東多久町", "full": "佐賀県多久市東多久町"}, {"postal_code": "8460013", "postal_hyphen": "846-0013", "pref": "佐賀県", "city": "多久市", "town": "東多久町古賀", "full": "佐賀県多久市東多久町古賀"}, {"postal_code": "8460014", "postal_hyphen": "846-0014", "pref": "佐賀県", "city": "多久市", "town": "東多久町納所", "full": "佐賀県多久市東多久町納所"}, {"postal_code": "8460012", "postal_hyphen": "846-0012", "pref": "佐賀県", "city": "多久市", "town": "東多久町別府", "full": "佐賀県多久市東多久町別府"}, {"postal_code": "8460021", "postal_hyphen": "846-0021", "pref": "佐賀県", "city": "多久市", "town": "南多久町", "full": "佐賀県多久市南多久町"}, {"postal_code": "8460022", "postal_hyphen": "846-0022", "pref": "佐賀県", "city": "多久市", "town": "南多久町泉町", "full": "佐賀県多久市南多久町泉町"}, {"postal_code": "8460024", "postal_hyphen": "846-0024", "pref": "佐賀県", "city": "多久市", "town": "南多久町下多久", "full": "佐賀県多久市南多久町下多久"}, {"postal_code": "8460023", "postal_hyphen": "846-0023", "pref": "佐賀県", "city": "多久市", "town": "南多久町長尾", "full": "佐賀県多久市南多久町長尾"}, {"postal_code": "8460025", "postal_hyphen": "846-0025", "pref": "佐賀県", "city": "多久市", "town": "南多久町花祭", "full": "佐賀県多久市南多久町花祭"}, {"postal_code": "8480000", "postal_hyphen": "848-0000", "pref": "佐賀県", "city": "伊万里市", "town": "", "full": "佐賀県伊万里市"}, {"postal_code": "8480047", "postal_hyphen": "848-0047", "pref": "佐賀県", "city": "伊万里市", "town": "伊万里町甲", "full": "佐賀県伊万里市伊万里町甲"}, {"postal_code": "8480046", "postal_hyphen": "848-0046", "pref": "佐賀県", "city": "伊万里市", "town": "伊万里町乙", "full": "佐賀県伊万里市伊万里町乙"}, {"postal_code": "8480024", "postal_hyphen": "848-0024", "pref": "佐賀県", "city": "伊万里市", "town": "大川内町甲", "full": "佐賀県伊万里市大川内町甲"}, {"postal_code": "8480025", "postal_hyphen": "848-0025", "pref": "佐賀県", "city": "伊万里市", "town": "大川内町乙", "full": "佐賀県伊万里市大川内町乙"}, {"postal_code": "8480026", "postal_hyphen": "848-0026", "pref": "佐賀県", "city": "伊万里市", "town": "大川内町丙", "full": "佐賀県伊万里市大川内町丙"}, {"postal_code": "8495251", "postal_hyphen": "849-5251", "pref": "佐賀県", "city": "伊万里市", "town": "大川町大川野", "full": "佐賀県伊万里市大川町大川野"}, {"postal_code": "8495257", "postal_hyphen": "849-5257", "pref": "佐賀県", "city": "伊万里市", "town": "大川町川原", "full": "佐賀県伊万里市大川町川原"}, {"postal_code": "8495252", "postal_hyphen": "849-5252", "pref": "佐賀県", "city": "伊万里市", "town": "大川町川西", "full": "佐賀県伊万里市大川町川西"}, {"postal_code": "8495253", "postal_hyphen": "849-5253", "pref": "佐賀県", "city": "伊万里市", "town": "大川町駒鳴", "full": "佐賀県伊万里市大川町駒鳴"}, {"postal_code": "8495254", "postal_hyphen": "849-5254", "pref": "佐賀県", "city": "伊万里市", "town": "大川町立川", "full": "佐賀県伊万里市大川町立川"}, {"postal_code": "8495256", "postal_hyphen": "849-5256", "pref": "佐賀県", "city": "伊万里市", "town": "大川町東田代", "full": "佐賀県伊万里市大川町東田代"}, {"postal_code": "8495255", "postal_hyphen": "849-5255", "pref": "佐賀県", "city": "伊万里市", "town": "大川町山口", "full": "佐賀県伊万里市大川町山口"}, {"postal_code": "8480021", "postal_hyphen": "848-0021", "pref": "佐賀県", "city": "伊万里市", "town": "大坪町甲", "full": "佐賀県伊万里市大坪町甲"}, {"postal_code": "8480022", "postal_hyphen": "848-0022", "pref": "佐賀県", "city": "伊万里市", "town": "大坪町乙", "full": "佐賀県伊万里市大坪町乙"}, {"postal_code": "8480023", "postal_hyphen": "848-0023", "pref": "佐賀県", "city": "伊万里市", "town": "大坪町丙", "full": "佐賀県伊万里市大坪町丙"}, {"postal_code": "8480044", "postal_hyphen": "848-0044", "pref": "佐賀県", "city": "伊万里市", "town": "木須町", "full": "佐賀県伊万里市木須町"}, {"postal_code": "8480124", "postal_hyphen": "848-0124", "pref": "佐賀県", "city": "伊万里市", "town": "黒川町（名村団地）", "full": "佐賀県伊万里市黒川町（名村団地）"}, {"postal_code": "8480123", "postal_hyphen": "848-0123", "pref": "佐賀県", "city": "伊万里市", "town": "黒川町大黒川", "full": "佐賀県伊万里市黒川町大黒川"}, {"postal_code": "8480146", "postal_hyphen": "848-0146", "pref": "佐賀県", "city": "伊万里市", "town": "黒川町黒塩", "full": "佐賀県伊万里市黒川町黒塩"}, {"postal_code": "8480125", "postal_hyphen": "848-0125", "pref": "佐賀県", "city": "伊万里市", "town": "黒川町小黒川", "full": "佐賀県伊万里市黒川町小黒川"}, {"postal_code": "8480121", "postal_hyphen": "848-0121", "pref": "佐賀県", "city": "伊万里市", "town": "黒川町塩屋", "full": "佐賀県伊万里市黒川町塩屋"}, {"postal_code": "8480141", "postal_hyphen": "848-0141", "pref": "佐賀県", "city": "伊万里市", "town": "黒川町清水", "full": "佐賀県伊万里市黒川町清水"}, {"postal_code": "8480142", "postal_hyphen": "848-0142", "pref": "佐賀県", "city": "伊万里市", "town": "黒川町立目", "full": "佐賀県伊万里市黒川町立目"}, {"postal_code": "8480145", "postal_hyphen": "848-0145", "pref": "佐賀県", "city": "伊万里市", "town": "黒川町椿原", "full": "佐賀県伊万里市黒川町椿原"}, {"postal_code": "8480132", "postal_hyphen": "848-0132", "pref": "佐賀県", "city": "伊万里市", "town": "黒川町長尾", "full": "佐賀県伊万里市黒川町長尾"}, {"postal_code": "8480131", "postal_hyphen": "848-0131", "pref": "佐賀県", "city": "伊万里市", "town": "黒川町畑川内", "full": "佐賀県伊万里市黒川町畑川内"}, {"postal_code": "8480134", "postal_hyphen": "848-0134", "pref": "佐賀県", "city": "伊万里市", "town": "黒川町花房", "full": "佐賀県伊万里市黒川町花房"}, {"postal_code": "8480122", "postal_hyphen": "848-0122", "pref": "佐賀県", "city": "伊万里市", "town": "黒川町福田", "full": "佐賀県伊万里市黒川町福田"}, {"postal_code": "8480133", "postal_hyphen": "848-0133", "pref": "佐賀県", "city": "伊万里市", "town": "黒川町真手野", "full": "佐賀県伊万里市黒川町真手野"}, {"postal_code": "8480143", "postal_hyphen": "848-0143", "pref": "佐賀県", "city": "伊万里市", "town": "黒川町牟田", "full": "佐賀県伊万里市黒川町牟田"}, {"postal_code": "8480144", "postal_hyphen": "848-0144", "pref": "佐賀県", "city": "伊万里市", "town": "黒川町横野", "full": "佐賀県伊万里市黒川町横野"}, {"postal_code": "8480041", "postal_hyphen": "848-0041", "pref": "佐賀県", "city": "伊万里市", "town": "新天町", "full": "佐賀県伊万里市新天町"}, {"postal_code": "8480043", "postal_hyphen": "848-0043", "pref": "佐賀県", "city": "伊万里市", "town": "瀬戸町", "full": "佐賀県伊万里市瀬戸町"}, {"postal_code": "8480027", "postal_hyphen": "848-0027", "pref": "佐賀県", "city": "伊万里市", "town": "立花町", "full": "佐賀県伊万里市立花町"}, {"postal_code": "8480032", "postal_hyphen": "848-0032", "pref": "佐賀県", "city": "伊万里市", "town": "二里町大里甲", "full": "佐賀県伊万里市二里町大里甲"}, {"postal_code": "8480035", "postal_hyphen": "848-0035", "pref": "佐賀県", "city": "伊万里市", "town": "二里町大里乙", "full": "佐賀県伊万里市二里町大里乙"}, {"postal_code": "8480034", "postal_hyphen": "848-0034", "pref": "佐賀県", "city": "伊万里市", "town": "二里町中里甲", "full": "佐賀県伊万里市二里町中里甲"}, {"postal_code": "8480033", "postal_hyphen": "848-0033", "pref": "佐賀県", "city": "伊万里市", "town": "二里町中里乙", "full": "佐賀県伊万里市二里町中里乙"}, {"postal_code": "8480031", "postal_hyphen": "848-0031", "pref": "佐賀県", "city": "伊万里市", "town": "二里町八谷搦", "full": "佐賀県伊万里市二里町八谷搦"}, {"postal_code": "8480042", "postal_hyphen": "848-0042", "pref": "佐賀県", "city": "伊万里市", "town": "蓮池町", "full": "佐賀県伊万里市蓮池町"}, {"postal_code": "8480113", "postal_hyphen": "848-0113", "pref": "佐賀県", "city": "伊万里市", "town": "波多津町板木", "full": "佐賀県伊万里市波多津町板木"}, {"postal_code": "8480116", "postal_hyphen": "848-0116", "pref": "佐賀県", "city": "伊万里市", "town": "波多津町井野尾", "full": "佐賀県伊万里市波多津町井野尾"}, {"postal_code": "8480103", "postal_hyphen": "848-0103", "pref": "佐賀県", "city": "伊万里市", "town": "波多津町内野", "full": "佐賀県伊万里市波多津町内野"}, {"postal_code": "8480111", "postal_hyphen": "848-0111", "pref": "佐賀県", "city": "伊万里市", "town": "波多津町木場", "full": "佐賀県伊万里市波多津町木場"}, {"postal_code": "8480104", "postal_hyphen": "848-0104", "pref": "佐賀県", "city": "伊万里市", "town": "波多津町煤屋", "full": "佐賀県伊万里市波多津町煤屋"}, {"postal_code": "8480112", "postal_hyphen": "848-0112", "pref": "佐賀県", "city": "伊万里市", "town": "波多津町田代", "full": "佐賀県伊万里市波多津町田代"}, {"postal_code": "8480101", "postal_hyphen": "848-0101", "pref": "佐賀県", "city": "伊万里市", "town": "波多津町辻", "full": "佐賀県伊万里市波多津町辻"}, {"postal_code": "8480117", "postal_hyphen": "848-0117", "pref": "佐賀県", "city": "伊万里市", "town": "波多津町筒井", "full": "佐賀県伊万里市波多津町筒井"}, {"postal_code": "8480114", "postal_hyphen": "848-0114", "pref": "佐賀県", "city": "伊万里市", "town": "波多津町津留主屋", "full": "佐賀県伊万里市波多津町津留主屋"}, {"postal_code": "8480115", "postal_hyphen": "848-0115", "pref": "佐賀県", "city": "伊万里市", "town": "波多津町中山", "full": "佐賀県伊万里市波多津町中山"}, {"postal_code": "8480102", "postal_hyphen": "848-0102", "pref": "佐賀県", "city": "伊万里市", "town": "波多津町畑津", "full": "佐賀県伊万里市波多津町畑津"}, {"postal_code": "8480105", "postal_hyphen": "848-0105", "pref": "佐賀県", "city": "伊万里市", "town": "波多津町馬蛤潟", "full": "佐賀県伊万里市波多津町馬蛤潟"}, {"postal_code": "8494284", "postal_hyphen": "849-4284", "pref": "佐賀県", "city": "伊万里市", "town": "東山代町浦川内", "full": "佐賀県伊万里市東山代町浦川内"}, {"postal_code": "8494281", "postal_hyphen": "849-4281", "pref": "佐賀県", "city": "伊万里市", "town": "東山代町大久保", "full": "佐賀県伊万里市東山代町大久保"}, {"postal_code": "8494286", "postal_hyphen": "849-4286", "pref": "佐賀県", "city": "伊万里市", "town": "東山代町川内野", "full": "佐賀県伊万里市東山代町川内野"}, {"postal_code": "8494282", "postal_hyphen": "849-4282", "pref": "佐賀県", "city": "伊万里市", "town": "東山代町里", "full": "佐賀県伊万里市東山代町里"}, {"postal_code": "8494285", "postal_hyphen": "849-4285", "pref": "佐賀県", "city": "伊万里市", "town": "東山代町滝川内", "full": "佐賀県伊万里市東山代町滝川内"}, {"postal_code": "8494273", "postal_hyphen": "849-4273", "pref": "佐賀県", "city": "伊万里市", "town": "東山代町天神", "full": "佐賀県伊万里市東山代町天神"}, {"postal_code": "8494271", "postal_hyphen": "849-4271", "pref": "佐賀県", "city": "伊万里市", "town": "東山代町長浜", "full": "佐賀県伊万里市東山代町長浜"}, {"postal_code": "8494272", "postal_hyphen": "849-4272", "pref": "佐賀県", "city": "伊万里市", "town": "東山代町日尾", "full": "佐賀県伊万里市東山代町日尾"}, {"postal_code": "8494283", "postal_hyphen": "849-4283", "pref": "佐賀県", "city": "伊万里市", "town": "東山代町東大久保", "full": "佐賀県伊万里市東山代町東大久保"}, {"postal_code": "8494274", "postal_hyphen": "849-4274", "pref": "佐賀県", "city": "伊万里市", "town": "東山代町脇野", "full": "佐賀県伊万里市東山代町脇野"}, {"postal_code": "8495264", "postal_hyphen": "849-5264", "pref": "佐賀県", "city": "伊万里市", "town": "松浦町提川", "full": "佐賀県伊万里市松浦町提川"}, {"postal_code": "8495262", "postal_hyphen": "849-5262", "pref": "佐賀県", "city": "伊万里市", "town": "松浦町中野原", "full": "佐賀県伊万里市松浦町中野原"}, {"postal_code": "8495261", "postal_hyphen": "849-5261", "pref": "佐賀県", "city": "伊万里市", "town": "松浦町桃川", "full": "佐賀県伊万里市松浦町桃川"}, {"postal_code": "8495263", "postal_hyphen": "849-5263", "pref": "佐賀県", "city": "伊万里市", "town": "松浦町山形", "full": "佐賀県伊万里市松浦町山形"}, {"postal_code": "8480045", "postal_hyphen": "848-0045", "pref": "佐賀県", "city": "伊万里市", "town": "松島町", "full": "佐賀県伊万里市松島町"}, {"postal_code": "8480007", "postal_hyphen": "848-0007", "pref": "佐賀県", "city": "伊万里市", "town": "南波多町井手野", "full": "佐賀県伊万里市南波多町井手野"}, {"postal_code": "8480011", "postal_hyphen": "848-0011", "pref": "佐賀県", "city": "伊万里市", "town": "南波多町大川原", "full": "佐賀県伊万里市南波多町大川原"}, {"postal_code": "8480005", "postal_hyphen": "848-0005", "pref": "佐賀県", "city": "伊万里市", "town": "南波多町大曲", "full": "佐賀県伊万里市南波多町大曲"}, {"postal_code": "8480013", "postal_hyphen": "848-0013", "pref": "佐賀県", "city": "伊万里市", "town": "南波多町笠椎", "full": "佐賀県伊万里市南波多町笠椎"}, {"postal_code": "8480014", "postal_hyphen": "848-0014", "pref": "佐賀県", "city": "伊万里市", "town": "南波多町小麦原", "full": "佐賀県伊万里市南波多町小麦原"}, {"postal_code": "8480001", "postal_hyphen": "848-0001", "pref": "佐賀県", "city": "伊万里市", "town": "南波多町重橋", "full": "佐賀県伊万里市南波多町重橋"}, {"postal_code": "8480006", "postal_hyphen": "848-0006", "pref": "佐賀県", "city": "伊万里市", "town": "南波多町高瀬", "full": "佐賀県伊万里市南波多町高瀬"}, {"postal_code": "8480002", "postal_hyphen": "848-0002", "pref": "佐賀県", "city": "伊万里市", "town": "南波多町谷口", "full": "佐賀県伊万里市南波多町谷口"}, {"postal_code": "8480004", "postal_hyphen": "848-0004", "pref": "佐賀県", "city": "伊万里市", "town": "南波多町水留", "full": "佐賀県伊万里市南波多町水留"}, {"postal_code": "8480016", "postal_hyphen": "848-0016", "pref": "佐賀県", "city": "伊万里市", "town": "南波多町原屋敷", "full": "佐賀県伊万里市南波多町原屋敷"}, {"postal_code": "8480015", "postal_hyphen": "848-0015", "pref": "佐賀県", "city": "伊万里市", "town": "南波多町府招", "full": "佐賀県伊万里市南波多町府招"}, {"postal_code": "8480012", "postal_hyphen": "848-0012", "pref": "佐賀県", "city": "伊万里市", "town": "南波多町古川", "full": "佐賀県伊万里市南波多町古川"}, {"postal_code": "8480003", "postal_hyphen": "848-0003", "pref": "佐賀県", "city": "伊万里市", "town": "南波多町古里", "full": "佐賀県伊万里市南波多町古里"}, {"postal_code": "8494251", "postal_hyphen": "849-4251", "pref": "佐賀県", "city": "伊万里市", "town": "山代町楠久", "full": "佐賀県伊万里市山代町楠久"}, {"postal_code": "8494252", "postal_hyphen": "849-4252", "pref": "佐賀県", "city": "伊万里市", "town": "山代町楠久津", "full": "佐賀県伊万里市山代町楠久津"}, {"postal_code": "8494256", "postal_hyphen": "849-4256", "pref": "佐賀県", "city": "伊万里市", "town": "山代町久原", "full": "佐賀県伊万里市山代町久原"}, {"postal_code": "8494254", "postal_hyphen": "849-4254", "pref": "佐賀県", "city": "伊万里市", "town": "山代町城", "full": "佐賀県伊万里市山代町城"}, {"postal_code": "8494261", "postal_hyphen": "849-4261", "pref": "佐賀県", "city": "伊万里市", "town": "山代町立岩", "full": "佐賀県伊万里市山代町立岩"}, {"postal_code": "8494263", "postal_hyphen": "849-4263", "pref": "佐賀県", "city": "伊万里市", "town": "山代町西大久保", "full": "佐賀県伊万里市山代町西大久保"}, {"postal_code": "8494264", "postal_hyphen": "849-4264", "pref": "佐賀県", "city": "伊万里市", "town": "山代町東分", "full": "佐賀県伊万里市山代町東分"}, {"postal_code": "8494262", "postal_hyphen": "849-4262", "pref": "佐賀県", "city": "伊万里市", "town": "山代町西分", "full": "佐賀県伊万里市山代町西分"}, {"postal_code": "8494255", "postal_hyphen": "849-4255", "pref": "佐賀県", "city": "伊万里市", "town": "山代町福川内", "full": "佐賀県伊万里市山代町福川内"}, {"postal_code": "8494253", "postal_hyphen": "849-4253", "pref": "佐賀県", "city": "伊万里市", "town": "山代町峰", "full": "佐賀県伊万里市山代町峰"}, {"postal_code": "8480028", "postal_hyphen": "848-0028", "pref": "佐賀県", "city": "伊万里市", "town": "脇田町", "full": "佐賀県伊万里市脇田町"}, {"postal_code": "8430000", "postal_hyphen": "843-0000", "pref": "佐賀県", "city": "武雄市", "town": "", "full": "佐賀県武雄市"}, {"postal_code": "8430003", "postal_hyphen": "843-0003", "pref": "佐賀県", "city": "武雄市", "town": "朝日町芦原", "full": "佐賀県武雄市朝日町芦原"}, {"postal_code": "8430001", "postal_hyphen": "843-0001", "pref": "佐賀県", "city": "武雄市", "town": "朝日町甘久", "full": "佐賀県武雄市朝日町甘久"}, {"postal_code": "8430002", "postal_hyphen": "843-0002", "pref": "佐賀県", "city": "武雄市", "town": "朝日町中野", "full": "佐賀県武雄市朝日町中野"}, {"postal_code": "8492203", "postal_hyphen": "849-2203", "pref": "佐賀県", "city": "武雄市", "town": "北方町芦原", "full": "佐賀県武雄市北方町芦原"}, {"postal_code": "8492204", "postal_hyphen": "849-2204", "pref": "佐賀県", "city": "武雄市", "town": "北方町大崎", "full": "佐賀県武雄市北方町大崎"}, {"postal_code": "8492202", "postal_hyphen": "849-2202", "pref": "佐賀県", "city": "武雄市", "town": "北方町大渡", "full": "佐賀県武雄市北方町大渡"}, {"postal_code": "8492201", "postal_hyphen": "849-2201", "pref": "佐賀県", "city": "武雄市", "town": "北方町志久", "full": "佐賀県武雄市北方町志久"}, {"postal_code": "8492341", "postal_hyphen": "849-2341", "pref": "佐賀県", "city": "武雄市", "town": "武内町梅野", "full": "佐賀県武雄市武内町梅野"}, {"postal_code": "8492342", "postal_hyphen": "849-2342", "pref": "佐賀県", "city": "武雄市", "town": "武内町真手野", "full": "佐賀県武雄市武内町真手野"}, {"postal_code": "8430023", "postal_hyphen": "843-0023", "pref": "佐賀県", "city": "武雄市", "town": "武雄町昭和", "full": "佐賀県武雄市武雄町昭和"}, {"postal_code": "8430022", "postal_hyphen": "843-0022", "pref": "佐賀県", "city": "武雄市", "town": "武雄町武雄", "full": "佐賀県武雄市武雄町武雄"}, {"postal_code": "8430024", "postal_hyphen": "843-0024", "pref": "佐賀県", "city": "武雄市", "town": "武雄町富岡", "full": "佐賀県武雄市武雄町富岡"}, {"postal_code": "8430021", "postal_hyphen": "843-0021", "pref": "佐賀県", "city": "武雄市", "town": "武雄町永島", "full": "佐賀県武雄市武雄町永島"}, {"postal_code": "8430011", "postal_hyphen": "843-0011", "pref": "佐賀県", "city": "武雄市", "town": "橘町芦原", "full": "佐賀県武雄市橘町芦原"}, {"postal_code": "8430012", "postal_hyphen": "843-0012", "pref": "佐賀県", "city": "武雄市", "town": "橘町片白", "full": "佐賀県武雄市橘町片白"}, {"postal_code": "8430013", "postal_hyphen": "843-0013", "pref": "佐賀県", "city": "武雄市", "town": "橘町大日", "full": "佐賀県武雄市橘町大日"}, {"postal_code": "8430014", "postal_hyphen": "843-0014", "pref": "佐賀県", "city": "武雄市", "town": "橘町永島", "full": "佐賀県武雄市橘町永島"}, {"postal_code": "8430231", "postal_hyphen": "843-0231", "pref": "佐賀県", "city": "武雄市", "town": "西川登町小田志", "full": "佐賀県武雄市西川登町小田志"}, {"postal_code": "8430232", "postal_hyphen": "843-0232", "pref": "佐賀県", "city": "武雄市", "town": "西川登町神六", "full": "佐賀県武雄市西川登町神六"}, {"postal_code": "8430233", "postal_hyphen": "843-0233", "pref": "佐賀県", "city": "武雄市", "town": "東川登町永野", "full": "佐賀県武雄市東川登町永野"}, {"postal_code": "8430234", "postal_hyphen": "843-0234", "pref": "佐賀県", "city": "武雄市", "town": "東川登町袴野", "full": "佐賀県武雄市東川登町袴野"}, {"postal_code": "8492301", "postal_hyphen": "849-2301", "pref": "佐賀県", "city": "武雄市", "town": "山内町犬走", "full": "佐賀県武雄市山内町犬走"}, {"postal_code": "8492304", "postal_hyphen": "849-2304", "pref": "佐賀県", "city": "武雄市", "town": "山内町大野", "full": "佐賀県武雄市山内町大野"}, {"postal_code": "8492302", "postal_hyphen": "849-2302", "pref": "佐賀県", "city": "武雄市", "town": "山内町鳥海", "full": "佐賀県武雄市山内町鳥海"}, {"postal_code": "8492303", "postal_hyphen": "849-2303", "pref": "佐賀県", "city": "武雄市", "town": "山内町三間坂", "full": "佐賀県武雄市山内町三間坂"}, {"postal_code": "8492305", "postal_hyphen": "849-2305", "pref": "佐賀県", "city": "武雄市", "town": "山内町宮野", "full": "佐賀県武雄市山内町宮野"}, {"postal_code": "8430151", "postal_hyphen": "843-0151", "pref": "佐賀県", "city": "武雄市", "town": "若木町川古", "full": "佐賀県武雄市若木町川古"}, {"postal_code": "8430152", "postal_hyphen": "843-0152", "pref": "佐賀県", "city": "武雄市", "town": "若木町本部", "full": "佐賀県武雄市若木町本部"}, {"postal_code": "8430153", "postal_hyphen": "843-0153", "pref": "佐賀県", "city": "武雄市", "town": "若木町桃川", "full": "佐賀県武雄市若木町桃川"}, {"postal_code": "8491300", "postal_hyphen": "849-1300", "pref": "佐賀県", "city": "鹿島市", "town": "", "full": "佐賀県鹿島市"}, {"postal_code": "8491324", "postal_hyphen": "849-1324", "pref": "佐賀県", "city": "鹿島市", "town": "飯田", "full": "佐賀県鹿島市飯田"}, {"postal_code": "8491302", "postal_hyphen": "849-1302", "pref": "佐賀県", "city": "鹿島市", "town": "井手", "full": "佐賀県鹿島市井手"}, {"postal_code": "8491323", "postal_hyphen": "849-1323", "pref": "佐賀県", "city": "鹿島市", "town": "音成", "full": "佐賀県鹿島市音成"}, {"postal_code": "8491313", "postal_hyphen": "849-1313", "pref": "佐賀県", "city": "鹿島市", "town": "重ノ木", "full": "佐賀県鹿島市重ノ木"}, {"postal_code": "8491311", "postal_hyphen": "849-1311", "pref": "佐賀県", "city": "鹿島市", "town": "高津原", "full": "佐賀県鹿島市高津原"}, {"postal_code": "8491301", "postal_hyphen": "849-1301", "pref": "佐賀県", "city": "鹿島市", "town": "常広", "full": "佐賀県鹿島市常広"}, {"postal_code": "8491304", "postal_hyphen": "849-1304", "pref": "佐賀県", "city": "鹿島市", "town": "中村", "full": "佐賀県鹿島市中村"}, {"postal_code": "8491312", "postal_hyphen": "849-1312", "pref": "佐賀県", "city": "鹿島市", "town": "納富分", "full": "佐賀県鹿島市納富分"}, {"postal_code": "8491322", "postal_hyphen": "849-1322", "pref": "佐賀県", "city": "鹿島市", "town": "浜町", "full": "佐賀県鹿島市浜町"}, {"postal_code": "8491321", "postal_hyphen": "849-1321", "pref": "佐賀県", "city": "鹿島市", "town": "古枝", "full": "佐賀県鹿島市古枝"}, {"postal_code": "8491315", "postal_hyphen": "849-1315", "pref": "佐賀県", "city": "鹿島市", "town": "三河内", "full": "佐賀県鹿島市三河内"}, {"postal_code": "8491303", "postal_hyphen": "849-1303", "pref": "佐賀県", "city": "鹿島市", "town": "森", "full": "佐賀県鹿島市森"}, {"postal_code": "8491314", "postal_hyphen": "849-1314", "pref": "佐賀県", "city": "鹿島市", "town": "山浦", "full": "佐賀県鹿島市山浦"}, {"postal_code": "8450000", "postal_hyphen": "845-0000", "pref": "佐賀県", "city": "小城市", "town": "", "full": "佐賀県小城市"}, {"postal_code": "8490311", "postal_hyphen": "849-0311", "pref": "佐賀県", "city": "小城市", "town": "芦刈町芦溝", "full": "佐賀県小城市芦刈町芦溝"}, {"postal_code": "8490312", "postal_hyphen": "849-0312", "pref": "佐賀県", "city": "小城市", "town": "芦刈町下古賀", "full": "佐賀県小城市芦刈町下古賀"}, {"postal_code": "8490316", "postal_hyphen": "849-0316", "pref": "佐賀県", "city": "小城市", "town": "芦刈町道免", "full": "佐賀県小城市芦刈町道免"}, {"postal_code": "8490313", "postal_hyphen": "849-0313", "pref": "佐賀県", "city": "小城市", "town": "芦刈町永田", "full": "佐賀県小城市芦刈町永田"}, {"postal_code": "8490315", "postal_hyphen": "849-0315", "pref": "佐賀県", "city": "小城市", "town": "芦刈町浜枝川", "full": "佐賀県小城市芦刈町浜枝川"}, {"postal_code": "8490314", "postal_hyphen": "849-0314", "pref": "佐賀県", "city": "小城市", "town": "芦刈町三王崎", "full": "佐賀県小城市芦刈町三王崎"}, {"postal_code": "8490303", "postal_hyphen": "849-0303", "pref": "佐賀県", "city": "小城市", "town": "牛津町牛津", "full": "佐賀県小城市牛津町牛津"}, {"postal_code": "8490301", "postal_hyphen": "849-0301", "pref": "佐賀県", "city": "小城市", "town": "牛津町乙柳", "full": "佐賀県小城市牛津町乙柳"}, {"postal_code": "8490302", "postal_hyphen": "849-0302", "pref": "佐賀県", "city": "小城市", "town": "牛津町柿樋瀬", "full": "佐賀県小城市牛津町柿樋瀬"}, {"postal_code": "8490306", "postal_hyphen": "849-0306", "pref": "佐賀県", "city": "小城市", "town": "牛津町勝", "full": "佐賀県小城市牛津町勝"}, {"postal_code": "8490305", "postal_hyphen": "849-0305", "pref": "佐賀県", "city": "小城市", "town": "牛津町上砥川", "full": "佐賀県小城市牛津町上砥川"}, {"postal_code": "8490304", "postal_hyphen": "849-0304", "pref": "佐賀県", "city": "小城市", "town": "牛津町下砥川", "full": "佐賀県小城市牛津町下砥川"}, {"postal_code": "8450001", "postal_hyphen": "845-0001", "pref": "佐賀県", "city": "小城市", "town": "小城町", "full": "佐賀県小城市小城町"}, {"postal_code": "8450012", "postal_hyphen": "845-0012", "pref": "佐賀県", "city": "小城市", "town": "小城町池上", "full": "佐賀県小城市小城町池上"}, {"postal_code": "8450003", "postal_hyphen": "845-0003", "pref": "佐賀県", "city": "小城市", "town": "小城町岩蔵", "full": "佐賀県小城市小城町岩蔵"}, {"postal_code": "8450013", "postal_hyphen": "845-0013", "pref": "佐賀県", "city": "小城市", "town": "小城町栗原", "full": "佐賀県小城市小城町栗原"}, {"postal_code": "8450002", "postal_hyphen": "845-0002", "pref": "佐賀県", "city": "小城市", "town": "小城町畑田", "full": "佐賀県小城市小城町畑田"}, {"postal_code": "8450014", "postal_hyphen": "845-0014", "pref": "佐賀県", "city": "小城市", "town": "小城町晴気", "full": "佐賀県小城市小城町晴気"}, {"postal_code": "8450005", "postal_hyphen": "845-0005", "pref": "佐賀県", "city": "小城市", "town": "小城町東新町", "full": "佐賀県小城市小城町東新町"}, {"postal_code": "8450011", "postal_hyphen": "845-0011", "pref": "佐賀県", "city": "小城市", "town": "小城町船田", "full": "佐賀県小城市小城町船田"}, {"postal_code": "8450004", "postal_hyphen": "845-0004", "pref": "佐賀県", "city": "小城市", "town": "小城町松尾", "full": "佐賀県小城市小城町松尾"}, {"postal_code": "8450035", "postal_hyphen": "845-0035", "pref": "佐賀県", "city": "小城市", "town": "三日月町石木", "full": "佐賀県小城市三日月町石木"}, {"postal_code": "8450023", "postal_hyphen": "845-0023", "pref": "佐賀県", "city": "小城市", "town": "三日月町織島", "full": "佐賀県小城市三日月町織島"}, {"postal_code": "8450032", "postal_hyphen": "845-0032", "pref": "佐賀県", "city": "小城市", "town": "三日月町金田", "full": "佐賀県小城市三日月町金田"}, {"postal_code": "8450022", "postal_hyphen": "845-0022", "pref": "佐賀県", "city": "小城市", "town": "三日月町久米", "full": "佐賀県小城市三日月町久米"}, {"postal_code": "8450034", "postal_hyphen": "845-0034", "pref": "佐賀県", "city": "小城市", "town": "三日月町甲柳原", "full": "佐賀県小城市三日月町甲柳原"}, {"postal_code": "8450021", "postal_hyphen": "845-0021", "pref": "佐賀県", "city": "小城市", "town": "三日月町長神田", "full": "佐賀県小城市三日月町長神田"}, {"postal_code": "8450033", "postal_hyphen": "845-0033", "pref": "佐賀県", "city": "小城市", "town": "三日月町樋口", "full": "佐賀県小城市三日月町樋口"}, {"postal_code": "8450031", "postal_hyphen": "845-0031", "pref": "佐賀県", "city": "小城市", "town": "三日月町堀江", "full": "佐賀県小城市三日月町堀江"}, {"postal_code": "8450025", "postal_hyphen": "845-0025", "pref": "佐賀県", "city": "小城市", "town": "三日月町三ケ島", "full": "佐賀県小城市三日月町三ケ島"}, {"postal_code": "8450024", "postal_hyphen": "845-0024", "pref": "佐賀県", "city": "小城市", "town": "三日月町道辺", "full": "佐賀県小城市三日月町道辺"}, {"postal_code": "8430300", "postal_hyphen": "843-0300", "pref": "佐賀県", "city": "嬉野市", "town": "", "full": "佐賀県嬉野市"}, {"postal_code": "8430304", "postal_hyphen": "843-0304", "pref": "佐賀県", "city": "嬉野市", "town": "嬉野町岩屋川内", "full": "佐賀県嬉野市嬉野町岩屋川内"}, {"postal_code": "8430301", "postal_hyphen": "843-0301", "pref": "佐賀県", "city": "嬉野市", "town": "嬉野町下宿", "full": "佐賀県嬉野市嬉野町下宿"}, {"postal_code": "8430302", "postal_hyphen": "843-0302", "pref": "佐賀県", "city": "嬉野市", "town": "嬉野町下野", "full": "佐賀県嬉野市嬉野町下野"}, {"postal_code": "8430305", "postal_hyphen": "843-0305", "pref": "佐賀県", "city": "嬉野市", "town": "嬉野町不動山", "full": "佐賀県嬉野市嬉野町不動山"}, {"postal_code": "8430303", "postal_hyphen": "843-0303", "pref": "佐賀県", "city": "嬉野市", "town": "嬉野町吉田", "full": "佐賀県嬉野市嬉野町吉田"}, {"postal_code": "8491416", "postal_hyphen": "849-1416", "pref": "佐賀県", "city": "嬉野市", "town": "塩田町大草野乙", "full": "佐賀県嬉野市塩田町大草野乙"}, {"postal_code": "8491414", "postal_hyphen": "849-1414", "pref": "佐賀県", "city": "嬉野市", "town": "塩田町大草野甲", "full": "佐賀県嬉野市塩田町大草野甲"}, {"postal_code": "8491415", "postal_hyphen": "849-1415", "pref": "佐賀県", "city": "嬉野市", "town": "塩田町大草野丙", "full": "佐賀県嬉野市塩田町大草野丙"}, {"postal_code": "8491402", "postal_hyphen": "849-1402", "pref": "佐賀県", "city": "嬉野市", "town": "塩田町久間乙", "full": "佐賀県嬉野市塩田町久間乙"}, {"postal_code": "8491401", "postal_hyphen": "849-1401", "pref": "佐賀県", "city": "嬉野市", "town": "塩田町久間甲", "full": "佐賀県嬉野市塩田町久間甲"}, {"postal_code": "8491404", "postal_hyphen": "849-1404", "pref": "佐賀県", "city": "嬉野市", "town": "塩田町久間丁", "full": "佐賀県嬉野市塩田町久間丁"}, {"postal_code": "8491403", "postal_hyphen": "849-1403", "pref": "佐賀県", "city": "嬉野市", "town": "塩田町久間丙", "full": "佐賀県嬉野市塩田町久間丙"}, {"postal_code": "8491426", "postal_hyphen": "849-1426", "pref": "佐賀県", "city": "嬉野市", "town": "塩田町五町田乙", "full": "佐賀県嬉野市塩田町五町田乙"}, {"postal_code": "8491425", "postal_hyphen": "849-1425", "pref": "佐賀県", "city": "嬉野市", "town": "塩田町五町田甲", "full": "佐賀県嬉野市塩田町五町田甲"}, {"postal_code": "8491423", "postal_hyphen": "849-1423", "pref": "佐賀県", "city": "嬉野市", "town": "塩田町谷所乙", "full": "佐賀県嬉野市塩田町谷所乙"}, {"postal_code": "8491422", "postal_hyphen": "849-1422", "pref": "佐賀県", "city": "嬉野市", "town": "塩田町谷所甲", "full": "佐賀県嬉野市塩田町谷所甲"}, {"postal_code": "8491424", "postal_hyphen": "849-1424", "pref": "佐賀県", "city": "嬉野市", "town": "塩田町谷所丙", "full": "佐賀県嬉野市塩田町谷所丙"}, {"postal_code": "8491412", "postal_hyphen": "849-1412", "pref": "佐賀県", "city": "嬉野市", "town": "塩田町馬場下乙", "full": "佐賀県嬉野市塩田町馬場下乙"}, {"postal_code": "8491411", "postal_hyphen": "849-1411", "pref": "佐賀県", "city": "嬉野市", "town": "塩田町馬場下甲", "full": "佐賀県嬉野市塩田町馬場下甲"}, {"postal_code": "8491413", "postal_hyphen": "849-1413", "pref": "佐賀県", "city": "嬉野市", "town": "塩田町馬場下丙", "full": "佐賀県嬉野市塩田町馬場下丙"}, {"postal_code": "8491421", "postal_hyphen": "849-1421", "pref": "佐賀県", "city": "嬉野市", "town": "塩田町真崎", "full": "佐賀県嬉野市塩田町真崎"}, {"postal_code": "8420000", "postal_hyphen": "842-0000", "pref": "佐賀県", "city": "神埼市", "town": "", "full": "佐賀県神埼市"}, {"postal_code": "8420014", "postal_hyphen": "842-0014", "pref": "佐賀県", "city": "神埼市", "town": "神埼町姉川", "full": "佐賀県神埼市神埼町姉川"}, {"postal_code": "8420123", "postal_hyphen": "842-0123", "pref": "佐賀県", "city": "神埼市", "town": "神埼町的", "full": "佐賀県神埼市神埼町的"}, {"postal_code": "8420006", "postal_hyphen": "842-0006", "pref": "佐賀県", "city": "神埼市", "town": "神埼町枝ケ里", "full": "佐賀県神埼市神埼町枝ケ里"}, {"postal_code": "8420015", "postal_hyphen": "842-0015", "pref": "佐賀県", "city": "神埼市", "town": "神埼町尾崎", "full": "佐賀県神埼市神埼町尾崎"}, {"postal_code": "8420001", "postal_hyphen": "842-0001", "pref": "佐賀県", "city": "神埼市", "town": "神埼町神埼", "full": "佐賀県神埼市神埼町神埼"}, {"postal_code": "8420122", "postal_hyphen": "842-0122", "pref": "佐賀県", "city": "神埼市", "town": "神埼町城原", "full": "佐賀県神埼市神埼町城原"}, {"postal_code": "8420121", "postal_hyphen": "842-0121", "pref": "佐賀県", "city": "神埼市", "town": "神埼町志波屋", "full": "佐賀県神埼市神埼町志波屋"}, {"postal_code": "8420011", "postal_hyphen": "842-0011", "pref": "佐賀県", "city": "神埼市", "town": "神埼町竹", "full": "佐賀県神埼市神埼町竹"}, {"postal_code": "8420002", "postal_hyphen": "842-0002", "pref": "佐賀県", "city": "神埼市", "town": "神埼町田道ケ里", "full": "佐賀県神埼市神埼町田道ケ里"}, {"postal_code": "8420107", "postal_hyphen": "842-0107", "pref": "佐賀県", "city": "神埼市", "town": "神埼町鶴（１〜２９９９番地）", "full": "佐賀県神埼市神埼町鶴（１〜２９９９番地）"}, {"postal_code": "8420007", "postal_hyphen": "842-0007", "pref": "佐賀県", "city": "神埼市", "town": "神埼町鶴（３０００番地以降）", "full": "佐賀県神埼市神埼町鶴（３０００番地以降）"}, {"postal_code": "8420004", "postal_hyphen": "842-0004", "pref": "佐賀県", "city": "神埼市", "town": "神埼町永歌", "full": "佐賀県神埼市神埼町永歌"}, {"postal_code": "8420005", "postal_hyphen": "842-0005", "pref": "佐賀県", "city": "神埼市", "town": "神埼町西小津ケ里", "full": "佐賀県神埼市神埼町西小津ケ里"}, {"postal_code": "8420013", "postal_hyphen": "842-0013", "pref": "佐賀県", "city": "神埼市", "town": "神埼町本告牟田", "full": "佐賀県神埼市神埼町本告牟田"}, {"postal_code": "8420003", "postal_hyphen": "842-0003", "pref": "佐賀県", "city": "神埼市", "town": "神埼町本堀", "full": "佐賀県神埼市神埼町本堀"}, {"postal_code": "8420012", "postal_hyphen": "842-0012", "pref": "佐賀県", "city": "神埼市", "town": "神埼町横武", "full": "佐賀県神埼市神埼町横武"}, {"postal_code": "8420203", "postal_hyphen": "842-0203", "pref": "佐賀県", "city": "神埼市", "town": "脊振町服巻", "full": "佐賀県神埼市脊振町服巻"}, {"postal_code": "8420201", "postal_hyphen": "842-0201", "pref": "佐賀県", "city": "神埼市", "town": "脊振町広滝", "full": "佐賀県神埼市脊振町広滝"}, {"postal_code": "8420202", "postal_hyphen": "842-0202", "pref": "佐賀県", "city": "神埼市", "town": "脊振町鹿路", "full": "佐賀県神埼市脊振町鹿路"}, {"postal_code": "8420052", "postal_hyphen": "842-0052", "pref": "佐賀県", "city": "神埼市", "town": "千代田町姉", "full": "佐賀県神埼市千代田町姉"}, {"postal_code": "8420054", "postal_hyphen": "842-0054", "pref": "佐賀県", "city": "神埼市", "town": "千代田町餘江", "full": "佐賀県神埼市千代田町餘江"}, {"postal_code": "8420067", "postal_hyphen": "842-0067", "pref": "佐賀県", "city": "神埼市", "town": "千代田町嘉納", "full": "佐賀県神埼市千代田町嘉納"}, {"postal_code": "8420051", "postal_hyphen": "842-0051", "pref": "佐賀県", "city": "神埼市", "town": "千代田町黒井", "full": "佐賀県神埼市千代田町黒井"}, {"postal_code": "8420056", "postal_hyphen": "842-0056", "pref": "佐賀県", "city": "神埼市", "town": "千代田町境原", "full": "佐賀県神埼市千代田町境原"}, {"postal_code": "8420065", "postal_hyphen": "842-0065", "pref": "佐賀県", "city": "神埼市", "town": "千代田町崎村", "full": "佐賀県神埼市千代田町崎村"}, {"postal_code": "8420068", "postal_hyphen": "842-0068", "pref": "佐賀県", "city": "神埼市", "town": "千代田町下板", "full": "佐賀県神埼市千代田町下板"}, {"postal_code": "8420055", "postal_hyphen": "842-0055", "pref": "佐賀県", "city": "神埼市", "town": "千代田町下西", "full": "佐賀県神埼市千代田町下西"}, {"postal_code": "8420061", "postal_hyphen": "842-0061", "pref": "佐賀県", "city": "神埼市", "town": "千代田町詫田", "full": "佐賀県神埼市千代田町詫田"}, {"postal_code": "8420053", "postal_hyphen": "842-0053", "pref": "佐賀県", "city": "神埼市", "town": "千代田町直鳥", "full": "佐賀県神埼市千代田町直鳥"}, {"postal_code": "8420063", "postal_hyphen": "842-0063", "pref": "佐賀県", "city": "神埼市", "town": "千代田町迎島", "full": "佐賀県神埼市千代田町迎島"}, {"postal_code": "8420062", "postal_hyphen": "842-0062", "pref": "佐賀県", "city": "神埼市", "town": "千代田町柳島", "full": "佐賀県神埼市千代田町柳島"}, {"postal_code": "8420066", "postal_hyphen": "842-0066", "pref": "佐賀県", "city": "神埼市", "town": "千代田町用作", "full": "佐賀県神埼市千代田町用作"}, {"postal_code": "8420064", "postal_hyphen": "842-0064", "pref": "佐賀県", "city": "神埼市", "town": "千代田町渡瀬", "full": "佐賀県神埼市千代田町渡瀬"}, {"postal_code": "8420000", "postal_hyphen": "842-0000", "pref": "佐賀県", "city": "神埼郡吉野ヶ里町", "town": "", "full": "佐賀県神埼郡吉野ヶ里町"}, {"postal_code": "8420102", "postal_hyphen": "842-0102", "pref": "佐賀県", "city": "神埼郡吉野ヶ里町", "town": "石動", "full": "佐賀県神埼郡吉野ヶ里町石動"}, {"postal_code": "8420103", "postal_hyphen": "842-0103", "pref": "佐賀県", "city": "神埼郡吉野ヶ里町", "town": "大曲", "full": "佐賀県神埼郡吉野ヶ里町大曲"}, {"postal_code": "8420035", "postal_hyphen": "842-0035", "pref": "佐賀県", "city": "神埼郡吉野ヶ里町", "town": "田手", "full": "佐賀県神埼郡吉野ヶ里町田手"}, {"postal_code": "8420032", "postal_hyphen": "842-0032", "pref": "佐賀県", "city": "神埼郡吉野ヶ里町", "town": "立野", "full": "佐賀県神埼郡吉野ヶ里町立野"}, {"postal_code": "8420034", "postal_hyphen": "842-0034", "pref": "佐賀県", "city": "神埼郡吉野ヶ里町", "town": "箱川", "full": "佐賀県神埼郡吉野ヶ里町箱川"}, {"postal_code": "8420101", "postal_hyphen": "842-0101", "pref": "佐賀県", "city": "神埼郡吉野ヶ里町", "town": "松隈", "full": "佐賀県神埼郡吉野ヶ里町松隈"}, {"postal_code": "8420033", "postal_hyphen": "842-0033", "pref": "佐賀県", "city": "神埼郡吉野ヶ里町", "town": "豆田", "full": "佐賀県神埼郡吉野ヶ里町豆田"}, {"postal_code": "8420104", "postal_hyphen": "842-0104", "pref": "佐賀県", "city": "神埼郡吉野ヶ里町", "town": "三津", "full": "佐賀県神埼郡吉野ヶ里町三津"}, {"postal_code": "8420031", "postal_hyphen": "842-0031", "pref": "佐賀県", "city": "神埼郡吉野ヶ里町", "town": "吉田", "full": "佐賀県神埼郡吉野ヶ里町吉田"}, {"postal_code": "8410200", "postal_hyphen": "841-0200", "pref": "佐賀県", "city": "三養基郡基山町", "town": "", "full": "佐賀県三養基郡基山町"}, {"postal_code": "8410205", "postal_hyphen": "841-0205", "pref": "佐賀県", "city": "三養基郡基山町", "town": "けやき台", "full": "佐賀県三養基郡基山町けやき台"}, {"postal_code": "8410201", "postal_hyphen": "841-0201", "pref": "佐賀県", "city": "三養基郡基山町", "town": "小倉", "full": "佐賀県三養基郡基山町小倉"}, {"postal_code": "8410203", "postal_hyphen": "841-0203", "pref": "佐賀県", "city": "三養基郡基山町", "town": "園部", "full": "佐賀県三養基郡基山町園部"}, {"postal_code": "8410202", "postal_hyphen": "841-0202", "pref": "佐賀県", "city": "三養基郡基山町", "town": "長野", "full": "佐賀県三養基郡基山町長野"}, {"postal_code": "8410204", "postal_hyphen": "841-0204", "pref": "佐賀県", "city": "三養基郡基山町", "town": "宮浦", "full": "佐賀県三養基郡基山町宮浦"}, {"postal_code": "8490100", "postal_hyphen": "849-0100", "pref": "佐賀県", "city": "三養基郡上峰町", "town": "", "full": "佐賀県三養基郡上峰町"}, {"postal_code": "8490121", "postal_hyphen": "849-0121", "pref": "佐賀県", "city": "三養基郡上峰町", "town": "江迎", "full": "佐賀県三養基郡上峰町江迎"}, {"postal_code": "8490124", "postal_hyphen": "849-0124", "pref": "佐賀県", "city": "三養基郡上峰町", "town": "堤", "full": "佐賀県三養基郡上峰町堤"}, {"postal_code": "8490123", "postal_hyphen": "849-0123", "pref": "佐賀県", "city": "三養基郡上峰町", "town": "坊所", "full": "佐賀県三養基郡上峰町坊所"}, {"postal_code": "8490122", "postal_hyphen": "849-0122", "pref": "佐賀県", "city": "三養基郡上峰町", "town": "前牟田", "full": "佐賀県三養基郡上峰町前牟田"}, {"postal_code": "8490100", "postal_hyphen": "849-0100", "pref": "佐賀県", "city": "三養基郡みやき町", "town": "", "full": "佐賀県三養基郡みやき町"}, {"postal_code": "8401106", "postal_hyphen": "840-1106", "pref": "佐賀県", "city": "三養基郡みやき町", "town": "市武", "full": "佐賀県三養基郡みやき町市武"}, {"postal_code": "8490112", "postal_hyphen": "849-0112", "pref": "佐賀県", "city": "三養基郡みやき町", "town": "江口", "full": "佐賀県三養基郡みやき町江口"}, {"postal_code": "8401103", "postal_hyphen": "840-1103", "pref": "佐賀県", "city": "三養基郡みやき町", "town": "坂口", "full": "佐賀県三養基郡みやき町坂口"}, {"postal_code": "8490111", "postal_hyphen": "849-0111", "pref": "佐賀県", "city": "三養基郡みやき町", "town": "白壁", "full": "佐賀県三養基郡みやき町白壁"}, {"postal_code": "8401102", "postal_hyphen": "840-1102", "pref": "佐賀県", "city": "三養基郡みやき町", "town": "天建寺", "full": "佐賀県三養基郡みやき町天建寺"}, {"postal_code": "8490114", "postal_hyphen": "849-0114", "pref": "佐賀県", "city": "三養基郡みやき町", "town": "中津隈", "full": "佐賀県三養基郡みやき町中津隈"}, {"postal_code": "8401101", "postal_hyphen": "840-1101", "pref": "佐賀県", "city": "三養基郡みやき町", "town": "西島", "full": "佐賀県三養基郡みやき町西島"}, {"postal_code": "8490101", "postal_hyphen": "849-0101", "pref": "佐賀県", "city": "三養基郡みやき町", "town": "原古賀", "full": "佐賀県三養基郡みやき町原古賀"}, {"postal_code": "8490113", "postal_hyphen": "849-0113", "pref": "佐賀県", "city": "三養基郡みやき町", "town": "東尾", "full": "佐賀県三養基郡みやき町東尾"}, {"postal_code": "8401104", "postal_hyphen": "840-1104", "pref": "佐賀県", "city": "三養基郡みやき町", "town": "東津", "full": "佐賀県三養基郡みやき町東津"}, {"postal_code": "8490102", "postal_hyphen": "849-0102", "pref": "佐賀県", "city": "三養基郡みやき町", "town": "簑原", "full": "佐賀県三養基郡みやき町簑原"}, {"postal_code": "8401105", "postal_hyphen": "840-1105", "pref": "佐賀県", "city": "三養基郡みやき町", "town": "寄人", "full": "佐賀県三養基郡みやき町寄人"}, {"postal_code": "8471400", "postal_hyphen": "847-1400", "pref": "佐賀県", "city": "東松浦郡玄海町", "town": "", "full": "佐賀県東松浦郡玄海町"}, {"postal_code": "8471403", "postal_hyphen": "847-1403", "pref": "佐賀県", "city": "東松浦郡玄海町", "town": "有浦上", "full": "佐賀県東松浦郡玄海町有浦上"}, {"postal_code": "8471402", "postal_hyphen": "847-1402", "pref": "佐賀県", "city": "東松浦郡玄海町", "town": "有浦下", "full": "佐賀県東松浦郡玄海町有浦下"}, {"postal_code": "8471423", "postal_hyphen": "847-1423", "pref": "佐賀県", "city": "東松浦郡玄海町", "town": "石田", "full": "佐賀県東松浦郡玄海町石田"}, {"postal_code": "8471441", "postal_hyphen": "847-1441", "pref": "佐賀県", "city": "東松浦郡玄海町", "town": "今村", "full": "佐賀県東松浦郡玄海町今村"}, {"postal_code": "8471434", "postal_hyphen": "847-1434", "pref": "佐賀県", "city": "東松浦郡玄海町", "town": "大薗", "full": "佐賀県東松浦郡玄海町大薗"}, {"postal_code": "8471413", "postal_hyphen": "847-1413", "pref": "佐賀県", "city": "東松浦郡玄海町", "town": "大鳥", "full": "佐賀県東松浦郡玄海町大鳥"}, {"postal_code": "8471443", "postal_hyphen": "847-1443", "pref": "佐賀県", "city": "東松浦郡玄海町", "town": "仮立", "full": "佐賀県東松浦郡玄海町仮立"}, {"postal_code": "8471435", "postal_hyphen": "847-1435", "pref": "佐賀県", "city": "東松浦郡玄海町", "town": "仮屋", "full": "佐賀県東松浦郡玄海町仮屋"}, {"postal_code": "8471401", "postal_hyphen": "847-1401", "pref": "佐賀県", "city": "東松浦郡玄海町", "town": "小加倉", "full": "佐賀県東松浦郡玄海町小加倉"}, {"postal_code": "8471424", "postal_hyphen": "847-1424", "pref": "佐賀県", "city": "東松浦郡玄海町", "town": "栄", "full": "佐賀県東松浦郡玄海町栄"}, {"postal_code": "8471445", "postal_hyphen": "847-1445", "pref": "佐賀県", "city": "東松浦郡玄海町", "town": "下宮", "full": "佐賀県東松浦郡玄海町下宮"}, {"postal_code": "8471422", "postal_hyphen": "847-1422", "pref": "佐賀県", "city": "東松浦郡玄海町", "town": "新田", "full": "佐賀県東松浦郡玄海町新田"}, {"postal_code": "8471415", "postal_hyphen": "847-1415", "pref": "佐賀県", "city": "東松浦郡玄海町", "town": "座川内", "full": "佐賀県東松浦郡玄海町座川内"}, {"postal_code": "8471412", "postal_hyphen": "847-1412", "pref": "佐賀県", "city": "東松浦郡玄海町", "town": "田代", "full": "佐賀県東松浦郡玄海町田代"}, {"postal_code": "8471442", "postal_hyphen": "847-1442", "pref": "佐賀県", "city": "東松浦郡玄海町", "town": "値賀川内", "full": "佐賀県東松浦郡玄海町値賀川内"}, {"postal_code": "8471411", "postal_hyphen": "847-1411", "pref": "佐賀県", "city": "東松浦郡玄海町", "town": "轟木", "full": "佐賀県東松浦郡玄海町轟木"}, {"postal_code": "8471444", "postal_hyphen": "847-1444", "pref": "佐賀県", "city": "東松浦郡玄海町", "town": "中通", "full": "佐賀県東松浦郡玄海町中通"}, {"postal_code": "8471404", "postal_hyphen": "847-1404", "pref": "佐賀県", "city": "東松浦郡玄海町", "town": "長倉", "full": "佐賀県東松浦郡玄海町長倉"}, {"postal_code": "8471425", "postal_hyphen": "847-1425", "pref": "佐賀県", "city": "東松浦郡玄海町", "town": "花の木", "full": "佐賀県東松浦郡玄海町花の木"}, {"postal_code": "8471433", "postal_hyphen": "847-1433", "pref": "佐賀県", "city": "東松浦郡玄海町", "town": "浜野浦", "full": "佐賀県東松浦郡玄海町浜野浦"}, {"postal_code": "8471432", "postal_hyphen": "847-1432", "pref": "佐賀県", "city": "東松浦郡玄海町", "town": "平尾", "full": "佐賀県東松浦郡玄海町平尾"}, {"postal_code": "8471431", "postal_hyphen": "847-1431", "pref": "佐賀県", "city": "東松浦郡玄海町", "town": "普恩寺", "full": "佐賀県東松浦郡玄海町普恩寺"}, {"postal_code": "8471405", "postal_hyphen": "847-1405", "pref": "佐賀県", "city": "東松浦郡玄海町", "town": "藤平", "full": "佐賀県東松浦郡玄海町藤平"}, {"postal_code": "8471446", "postal_hyphen": "847-1446", "pref": "佐賀県", "city": "東松浦郡玄海町", "town": "外津", "full": "佐賀県東松浦郡玄海町外津"}, {"postal_code": "8471416", "postal_hyphen": "847-1416", "pref": "佐賀県", "city": "東松浦郡玄海町", "town": "牟形", "full": "佐賀県東松浦郡玄海町牟形"}, {"postal_code": "8471421", "postal_hyphen": "847-1421", "pref": "佐賀県", "city": "東松浦郡玄海町", "town": "諸浦", "full": "佐賀県東松浦郡玄海町諸浦"}, {"postal_code": "8471414", "postal_hyphen": "847-1414", "pref": "佐賀県", "city": "東松浦郡玄海町", "town": "湯野尾", "full": "佐賀県東松浦郡玄海町湯野尾"}, {"postal_code": "8440000", "postal_hyphen": "844-0000", "pref": "佐賀県", "city": "西松浦郡有田町", "town": "", "full": "佐賀県西松浦郡有田町"}, {"postal_code": "8440006", "postal_hyphen": "844-0006", "pref": "佐賀県", "city": "西松浦郡有田町", "town": "赤絵町", "full": "佐賀県西松浦郡有田町赤絵町"}, {"postal_code": "8440024", "postal_hyphen": "844-0024", "pref": "佐賀県", "city": "西松浦郡有田町", "town": "赤坂", "full": "佐賀県西松浦郡有田町赤坂"}, {"postal_code": "8440001", "postal_hyphen": "844-0001", "pref": "佐賀県", "city": "西松浦郡有田町", "town": "泉山", "full": "佐賀県西松浦郡有田町泉山"}, {"postal_code": "8440011", "postal_hyphen": "844-0011", "pref": "佐賀県", "city": "西松浦郡有田町", "town": "岩谷川内", "full": "佐賀県西松浦郡有田町岩谷川内"}, {"postal_code": "8440021", "postal_hyphen": "844-0021", "pref": "佐賀県", "city": "西松浦郡有田町", "town": "応法", "full": "佐賀県西松浦郡有田町応法"}, {"postal_code": "8494154", "postal_hyphen": "849-4154", "pref": "佐賀県", "city": "西松浦郡有田町", "town": "大木宿", "full": "佐賀県西松浦郡有田町大木宿"}, {"postal_code": "8440004", "postal_hyphen": "844-0004", "pref": "佐賀県", "city": "西松浦郡有田町", "town": "大樽", "full": "佐賀県西松浦郡有田町大樽"}, {"postal_code": "8440013", "postal_hyphen": "844-0013", "pref": "佐賀県", "city": "西松浦郡有田町", "town": "大野", "full": "佐賀県西松浦郡有田町大野"}, {"postal_code": "8494162", "postal_hyphen": "849-4162", "pref": "佐賀県", "city": "西松浦郡有田町", "town": "上内野", "full": "佐賀県西松浦郡有田町上内野"}, {"postal_code": "8440003", "postal_hyphen": "844-0003", "pref": "佐賀県", "city": "西松浦郡有田町", "town": "上幸平", "full": "佐賀県西松浦郡有田町上幸平"}, {"postal_code": "8494174", "postal_hyphen": "849-4174", "pref": "佐賀県", "city": "西松浦郡有田町", "town": "上本", "full": "佐賀県西松浦郡有田町上本"}, {"postal_code": "8494144", "postal_hyphen": "849-4144", "pref": "佐賀県", "city": "西松浦郡有田町", "town": "上山谷", "full": "佐賀県西松浦郡有田町上山谷"}, {"postal_code": "8494166", "postal_hyphen": "849-4166", "pref": "佐賀県", "city": "西松浦郡有田町", "town": "北ノ川内", "full": "佐賀県西松浦郡有田町北ノ川内"}, {"postal_code": "8494175", "postal_hyphen": "849-4175", "pref": "佐賀県", "city": "西松浦郡有田町", "town": "楠木原", "full": "佐賀県西松浦郡有田町楠木原"}, {"postal_code": "8494165", "postal_hyphen": "849-4165", "pref": "佐賀県", "city": "西松浦郡有田町", "town": "黒川", "full": "佐賀県西松浦郡有田町黒川"}, {"postal_code": "8440022", "postal_hyphen": "844-0022", "pref": "佐賀県", "city": "西松浦郡有田町", "town": "黒牟田", "full": "佐賀県西松浦郡有田町黒牟田"}, {"postal_code": "8440012", "postal_hyphen": "844-0012", "pref": "佐賀県", "city": "西松浦郡有田町", "town": "桑古場", "full": "佐賀県西松浦郡有田町桑古場"}, {"postal_code": "8494156", "postal_hyphen": "849-4156", "pref": "佐賀県", "city": "西松浦郡有田町", "town": "桑木原", "full": "佐賀県西松浦郡有田町桑木原"}, {"postal_code": "8440005", "postal_hyphen": "844-0005", "pref": "佐賀県", "city": "西松浦郡有田町", "town": "幸平", "full": "佐賀県西松浦郡有田町幸平"}, {"postal_code": "8440016", "postal_hyphen": "844-0016", "pref": "佐賀県", "city": "西松浦郡有田町", "town": "境野", "full": "佐賀県西松浦郡有田町境野"}, {"postal_code": "8494163", "postal_hyphen": "849-4163", "pref": "佐賀県", "city": "西松浦郡有田町", "town": "下内野", "full": "佐賀県西松浦郡有田町下内野"}, {"postal_code": "8494172", "postal_hyphen": "849-4172", "pref": "佐賀県", "city": "西松浦郡有田町", "town": "下本", "full": "佐賀県西松浦郡有田町下本"}, {"postal_code": "8494143", "postal_hyphen": "849-4143", "pref": "佐賀県", "city": "西松浦郡有田町", "town": "下山谷", "full": "佐賀県西松浦郡有田町下山谷"}, {"postal_code": "8440007", "postal_hyphen": "844-0007", "pref": "佐賀県", "city": "西松浦郡有田町", "town": "白川", "full": "佐賀県西松浦郡有田町白川"}, {"postal_code": "8494161", "postal_hyphen": "849-4161", "pref": "佐賀県", "city": "西松浦郡有田町", "town": "蔵宿", "full": "佐賀県西松浦郡有田町蔵宿"}, {"postal_code": "8494146", "postal_hyphen": "849-4146", "pref": "佐賀県", "city": "西松浦郡有田町", "town": "岳", "full": "佐賀県西松浦郡有田町岳"}, {"postal_code": "8494153", "postal_hyphen": "849-4153", "pref": "佐賀県", "city": "西松浦郡有田町", "town": "立部", "full": "佐賀県西松浦郡有田町立部"}, {"postal_code": "8440017", "postal_hyphen": "844-0017", "pref": "佐賀県", "city": "西松浦郡有田町", "town": "戸杓", "full": "佐賀県西松浦郡有田町戸杓"}, {"postal_code": "8440014", "postal_hyphen": "844-0014", "pref": "佐賀県", "city": "西松浦郡有田町", "town": "戸矢", "full": "佐賀県西松浦郡有田町戸矢"}, {"postal_code": "8440002", "postal_hyphen": "844-0002", "pref": "佐賀県", "city": "西松浦郡有田町", "town": "中樽", "full": "佐賀県西松浦郡有田町中樽"}, {"postal_code": "8440009", "postal_hyphen": "844-0009", "pref": "佐賀県", "city": "西松浦郡有田町", "town": "中の原", "full": "佐賀県西松浦郡有田町中の原"}, {"postal_code": "8440028", "postal_hyphen": "844-0028", "pref": "佐賀県", "city": "西松浦郡有田町", "town": "南山", "full": "佐賀県西松浦郡有田町南山"}, {"postal_code": "8440027", "postal_hyphen": "844-0027", "pref": "佐賀県", "city": "西松浦郡有田町", "town": "南原", "full": "佐賀県西松浦郡有田町南原"}, {"postal_code": "8494141", "postal_hyphen": "849-4141", "pref": "佐賀県", "city": "西松浦郡有田町", "town": "二ノ瀬", "full": "佐賀県西松浦郡有田町二ノ瀬"}, {"postal_code": "8494176", "postal_hyphen": "849-4176", "pref": "佐賀県", "city": "西松浦郡有田町", "town": "原明", "full": "佐賀県西松浦郡有田町原明"}, {"postal_code": "8440008", "postal_hyphen": "844-0008", "pref": "佐賀県", "city": "西松浦郡有田町", "town": "稗古場", "full": "佐賀県西松浦郡有田町稗古場"}, {"postal_code": "8494152", "postal_hyphen": "849-4152", "pref": "佐賀県", "city": "西松浦郡有田町", "town": "広瀬", "full": "佐賀県西松浦郡有田町広瀬"}, {"postal_code": "8494151", "postal_hyphen": "849-4151", "pref": "佐賀県", "city": "西松浦郡有田町", "town": "広瀬山", "full": "佐賀県西松浦郡有田町広瀬山"}, {"postal_code": "8440015", "postal_hyphen": "844-0015", "pref": "佐賀県", "city": "西松浦郡有田町", "town": "古木場", "full": "佐賀県西松浦郡有田町古木場"}, {"postal_code": "8440026", "postal_hyphen": "844-0026", "pref": "佐賀県", "city": "西松浦郡有田町", "town": "外尾町", "full": "佐賀県西松浦郡有田町外尾町"}, {"postal_code": "8440025", "postal_hyphen": "844-0025", "pref": "佐賀県", "city": "西松浦郡有田町", "town": "外尾山", "full": "佐賀県西松浦郡有田町外尾山"}, {"postal_code": "8494164", "postal_hyphen": "849-4164", "pref": "佐賀県", "city": "西松浦郡有田町", "town": "仏ノ原", "full": "佐賀県西松浦郡有田町仏ノ原"}, {"postal_code": "8440018", "postal_hyphen": "844-0018", "pref": "佐賀県", "city": "西松浦郡有田町", "town": "本町", "full": "佐賀県西松浦郡有田町本町"}, {"postal_code": "8494173", "postal_hyphen": "849-4173", "pref": "佐賀県", "city": "西松浦郡有田町", "town": "舞原", "full": "佐賀県西松浦郡有田町舞原"}, {"postal_code": "8440023", "postal_hyphen": "844-0023", "pref": "佐賀県", "city": "西松浦郡有田町", "town": "丸尾", "full": "佐賀県西松浦郡有田町丸尾"}, {"postal_code": "8494145", "postal_hyphen": "849-4145", "pref": "佐賀県", "city": "西松浦郡有田町", "town": "山谷切口", "full": "佐賀県西松浦郡有田町山谷切口"}, {"postal_code": "8494142", "postal_hyphen": "849-4142", "pref": "佐賀県", "city": "西松浦郡有田町", "town": "山谷牧", "full": "佐賀県西松浦郡有田町山谷牧"}, {"postal_code": "8494155", "postal_hyphen": "849-4155", "pref": "佐賀県", "city": "西松浦郡有田町", "town": "山本", "full": "佐賀県西松浦郡有田町山本"}, {"postal_code": "8494171", "postal_hyphen": "849-4171", "pref": "佐賀県", "city": "西松浦郡有田町", "town": "代々木", "full": "佐賀県西松浦郡有田町代々木"}, {"postal_code": "8492100", "postal_hyphen": "849-2100", "pref": "佐賀県", "city": "杵島郡大町町", "town": "", "full": "佐賀県杵島郡大町町"}, {"postal_code": "8492101", "postal_hyphen": "849-2101", "pref": "佐賀県", "city": "杵島郡大町町", "town": "大町", "full": "佐賀県杵島郡大町町大町"}, {"postal_code": "8492102", "postal_hyphen": "849-2102", "pref": "佐賀県", "city": "杵島郡大町町", "town": "福母", "full": "佐賀県杵島郡大町町福母"}, {"postal_code": "8490500", "postal_hyphen": "849-0500", "pref": "佐賀県", "city": "杵島郡江北町", "town": "", "full": "佐賀県杵島郡江北町"}, {"postal_code": "8490506", "postal_hyphen": "849-0506", "pref": "佐賀県", "city": "杵島郡江北町", "town": "上小田", "full": "佐賀県杵島郡江北町上小田"}, {"postal_code": "8490502", "postal_hyphen": "849-0502", "pref": "佐賀県", "city": "杵島郡江北町", "town": "佐留志", "full": "佐賀県杵島郡江北町佐留志"}, {"postal_code": "8490505", "postal_hyphen": "849-0505", "pref": "佐賀県", "city": "杵島郡江北町", "town": "下小田", "full": "佐賀県杵島郡江北町下小田"}, {"postal_code": "8490503", "postal_hyphen": "849-0503", "pref": "佐賀県", "city": "杵島郡江北町", "town": "惣領分", "full": "佐賀県杵島郡江北町惣領分"}, {"postal_code": "8490504", "postal_hyphen": "849-0504", "pref": "佐賀県", "city": "杵島郡江北町", "town": "八町", "full": "佐賀県杵島郡江北町八町"}, {"postal_code": "8490501", "postal_hyphen": "849-0501", "pref": "佐賀県", "city": "杵島郡江北町", "town": "山口", "full": "佐賀県杵島郡江北町山口"}, {"postal_code": "8491100", "postal_hyphen": "849-1100", "pref": "佐賀県", "city": "杵島郡白石町", "town": "", "full": "佐賀県杵島郡白石町"}, {"postal_code": "8491101", "postal_hyphen": "849-1101", "pref": "佐賀県", "city": "杵島郡白石町", "town": "今泉", "full": "佐賀県杵島郡白石町今泉"}, {"postal_code": "8491201", "postal_hyphen": "849-1201", "pref": "佐賀県", "city": "杵島郡白石町", "town": "牛屋", "full": "佐賀県杵島郡白石町牛屋"}, {"postal_code": "8491102", "postal_hyphen": "849-1102", "pref": "佐賀県", "city": "杵島郡白石町", "town": "大渡", "full": "佐賀県杵島郡白石町大渡"}, {"postal_code": "8491204", "postal_hyphen": "849-1204", "pref": "佐賀県", "city": "杵島郡白石町", "town": "坂田", "full": "佐賀県杵島郡白石町坂田"}, {"postal_code": "8491208", "postal_hyphen": "849-1208", "pref": "佐賀県", "city": "杵島郡白石町", "town": "新開", "full": "佐賀県杵島郡白石町新開"}, {"postal_code": "8491221", "postal_hyphen": "849-1221", "pref": "佐賀県", "city": "杵島郡白石町", "town": "新拓", "full": "佐賀県杵島郡白石町新拓"}, {"postal_code": "8491202", "postal_hyphen": "849-1202", "pref": "佐賀県", "city": "杵島郡白石町", "town": "新明", "full": "佐賀県杵島郡白石町新明"}, {"postal_code": "8491205", "postal_hyphen": "849-1205", "pref": "佐賀県", "city": "杵島郡白石町", "town": "田野上", "full": "佐賀県杵島郡白石町田野上"}, {"postal_code": "8491103", "postal_hyphen": "849-1103", "pref": "佐賀県", "city": "杵島郡白石町", "town": "築切", "full": "佐賀県杵島郡白石町築切"}, {"postal_code": "8491104", "postal_hyphen": "849-1104", "pref": "佐賀県", "city": "杵島郡白石町", "town": "堤", "full": "佐賀県杵島郡白石町堤"}, {"postal_code": "8491105", "postal_hyphen": "849-1105", "pref": "佐賀県", "city": "杵島郡白石町", "town": "遠江", "full": "佐賀県杵島郡白石町遠江"}, {"postal_code": "8491203", "postal_hyphen": "849-1203", "pref": "佐賀県", "city": "杵島郡白石町", "town": "戸ケ里", "full": "佐賀県杵島郡白石町戸ケ里"}, {"postal_code": "8491106", "postal_hyphen": "849-1106", "pref": "佐賀県", "city": "杵島郡白石町", "town": "廿治", "full": "佐賀県杵島郡白石町廿治"}, {"postal_code": "8490403", "postal_hyphen": "849-0403", "pref": "佐賀県", "city": "杵島郡白石町", "town": "八平", "full": "佐賀県杵島郡白石町八平"}, {"postal_code": "8491111", "postal_hyphen": "849-1111", "pref": "佐賀県", "city": "杵島郡白石町", "town": "東郷", "full": "佐賀県杵島郡白石町東郷"}, {"postal_code": "8491207", "postal_hyphen": "849-1207", "pref": "佐賀県", "city": "杵島郡白石町", "town": "深浦", "full": "佐賀県杵島郡白石町深浦"}, {"postal_code": "8491112", "postal_hyphen": "849-1112", "pref": "佐賀県", "city": "杵島郡白石町", "town": "福田", "full": "佐賀県杵島郡白石町福田"}, {"postal_code": "8490401", "postal_hyphen": "849-0401", "pref": "佐賀県", "city": "杵島郡白石町", "town": "福富", "full": "佐賀県杵島郡白石町福富"}, {"postal_code": "8490402", "postal_hyphen": "849-0402", "pref": "佐賀県", "city": "杵島郡白石町", "town": "福富下分", "full": "佐賀県杵島郡白石町福富下分"}, {"postal_code": "8491113", "postal_hyphen": "849-1113", "pref": "佐賀県", "city": "杵島郡白石町", "town": "福吉", "full": "佐賀県杵島郡白石町福吉"}, {"postal_code": "8491206", "postal_hyphen": "849-1206", "pref": "佐賀県", "city": "杵島郡白石町", "town": "辺田", "full": "佐賀県杵島郡白石町辺田"}, {"postal_code": "8491114", "postal_hyphen": "849-1114", "pref": "佐賀県", "city": "杵島郡白石町", "town": "馬洗", "full": "佐賀県杵島郡白石町馬洗"}, {"postal_code": "8491115", "postal_hyphen": "849-1115", "pref": "佐賀県", "city": "杵島郡白石町", "town": "湯崎", "full": "佐賀県杵島郡白石町湯崎"}, {"postal_code": "8491116", "postal_hyphen": "849-1116", "pref": "佐賀県", "city": "杵島郡白石町", "town": "横手", "full": "佐賀県杵島郡白石町横手"}, {"postal_code": "8491600", "postal_hyphen": "849-1600", "pref": "佐賀県", "city": "藤津郡太良町", "town": "", "full": "佐賀県藤津郡太良町"}, {"postal_code": "8491603", "postal_hyphen": "849-1603", "pref": "佐賀県", "city": "藤津郡太良町", "town": "糸岐", "full": "佐賀県藤津郡太良町糸岐"}, {"postal_code": "8491601", "postal_hyphen": "849-1601", "pref": "佐賀県", "city": "藤津郡太良町", "town": "伊福甲", "full": "佐賀県藤津郡太良町伊福甲"}, {"postal_code": "8491614", "postal_hyphen": "849-1614", "pref": "佐賀県", "city": "藤津郡太良町", "town": "大浦甲", "full": "佐賀県藤津郡太良町大浦甲"}, {"postal_code": "8491615", "postal_hyphen": "849-1615", "pref": "佐賀県", "city": "藤津郡太良町", "town": "大浦乙", "full": "佐賀県藤津郡太良町大浦乙"}, {"postal_code": "8491613", "postal_hyphen": "849-1613", "pref": "佐賀県", "city": "藤津郡太良町", "town": "大浦丙", "full": "佐賀県藤津郡太良町大浦丙"}, {"postal_code": "8491612", "postal_hyphen": "849-1612", "pref": "佐賀県", "city": "藤津郡太良町", "town": "大浦丁", "full": "佐賀県藤津郡太良町大浦丁"}, {"postal_code": "8491611", "postal_hyphen": "849-1611", "pref": "佐賀県", "city": "藤津郡太良町", "town": "大浦戊", "full": "佐賀県藤津郡太良町大浦戊"}, {"postal_code": "8491616", "postal_hyphen": "849-1616", "pref": "佐賀県", "city": "藤津郡太良町", "town": "大浦己", "full": "佐賀県藤津郡太良町大浦己"}, {"postal_code": "8491602", "postal_hyphen": "849-1602", "pref": "佐賀県", "city": "藤津郡太良町", "town": "多良", "full": "佐賀県藤津郡太良町多良"}]