[{"postal_code": "8800000", "postal_hyphen": "880-0000", "pref": "宮崎県", "city": "宮崎市", "town": "", "full": "宮崎県宮崎市"}, {"postal_code": "8892162", "postal_hyphen": "889-2162", "pref": "宮崎県", "city": "宮崎市", "town": "青島", "full": "宮崎県宮崎市青島"}, {"postal_code": "8892163", "postal_hyphen": "889-2163", "pref": "宮崎県", "city": "宮崎市", "town": "青島西", "full": "宮崎県宮崎市青島西"}, {"postal_code": "8800842", "postal_hyphen": "880-0842", "pref": "宮崎県", "city": "宮崎市", "town": "青葉町", "full": "宮崎県宮崎市青葉町"}, {"postal_code": "8800912", "postal_hyphen": "880-0912", "pref": "宮崎県", "city": "宮崎市", "town": "赤江", "full": "宮崎県宮崎市赤江"}, {"postal_code": "8800803", "postal_hyphen": "880-0803", "pref": "宮崎県", "city": "宮崎市", "town": "旭", "full": "宮崎県宮崎市旭"}, {"postal_code": "8800864", "postal_hyphen": "880-0864", "pref": "宮崎県", "city": "宮崎市", "town": "吾妻町", "full": "宮崎県宮崎市吾妻町"}, {"postal_code": "8802101", "postal_hyphen": "880-2101", "pref": "宮崎県", "city": "宮崎市", "town": "跡江", "full": "宮崎県宮崎市跡江"}, {"postal_code": "8802102", "postal_hyphen": "880-2102", "pref": "宮崎県", "city": "宮崎市", "town": "有田", "full": "宮崎県宮崎市有田"}, {"postal_code": "8800835", "postal_hyphen": "880-0835", "pref": "宮崎県", "city": "宮崎市", "town": "阿波岐原町", "full": "宮崎県宮崎市阿波岐原町"}, {"postal_code": "8802103", "postal_hyphen": "880-2103", "pref": "宮崎県", "city": "宮崎市", "town": "生目", "full": "宮崎県宮崎市生目"}, {"postal_code": "8800942", "postal_hyphen": "880-0942", "pref": "宮崎県", "city": "宮崎市", "town": "生目台東", "full": "宮崎県宮崎市生目台東"}, {"postal_code": "8800943", "postal_hyphen": "880-0943", "pref": "宮崎県", "city": "宮崎市", "town": "生目台西", "full": "宮崎県宮崎市生目台西"}, {"postal_code": "8800041", "postal_hyphen": "880-0041", "pref": "宮崎県", "city": "宮崎市", "town": "池内町", "full": "宮崎県宮崎市池内町"}, {"postal_code": "8800854", "postal_hyphen": "880-0854", "pref": "宮崎県", "city": "宮崎市", "town": "一の宮町", "full": "宮崎県宮崎市一の宮町"}, {"postal_code": "8802231", "postal_hyphen": "880-2231", "pref": "宮崎県", "city": "宮崎市", "town": "糸原", "full": "宮崎県宮崎市糸原"}, {"postal_code": "8802104", "postal_hyphen": "880-2104", "pref": "宮崎県", "city": "宮崎市", "town": "浮田", "full": "宮崎県宮崎市浮田"}, {"postal_code": "8800821", "postal_hyphen": "880-0821", "pref": "宮崎県", "city": "宮崎市", "town": "浮城町", "full": "宮崎県宮崎市浮城町"}, {"postal_code": "8892301", "postal_hyphen": "889-2301", "pref": "宮崎県", "city": "宮崎市", "town": "内海", "full": "宮崎県宮崎市内海"}, {"postal_code": "8800344", "postal_hyphen": "880-0344", "pref": "宮崎県", "city": "宮崎市", "town": "瓜生野（下畑）", "full": "宮崎県宮崎市瓜生野（下畑）"}, {"postal_code": "8800044", "postal_hyphen": "880-0044", "pref": "宮崎県", "city": "宮崎市", "town": "瓜生野（その他）", "full": "宮崎県宮崎市瓜生野（その他）"}, {"postal_code": "8800872", "postal_hyphen": "880-0872", "pref": "宮崎県", "city": "宮崎市", "town": "永楽町", "full": "宮崎県宮崎市永楽町"}, {"postal_code": "8800814", "postal_hyphen": "880-0814", "pref": "宮崎県", "city": "宮崎市", "town": "江平中町", "full": "宮崎県宮崎市江平中町"}, {"postal_code": "8800817", "postal_hyphen": "880-0817", "pref": "宮崎県", "city": "宮崎市", "town": "江平東町", "full": "宮崎県宮崎市江平東町"}, {"postal_code": "8800816", "postal_hyphen": "880-0816", "pref": "宮崎県", "city": "宮崎市", "town": "江平東", "full": "宮崎県宮崎市江平東"}, {"postal_code": "8800051", "postal_hyphen": "880-0051", "pref": "宮崎県", "city": "宮崎市", "town": "江平西", "full": "宮崎県宮崎市江平西"}, {"postal_code": "8800815", "postal_hyphen": "880-0815", "pref": "宮崎県", "city": "宮崎市", "town": "江平町", "full": "宮崎県宮崎市江平町"}, {"postal_code": "8800801", "postal_hyphen": "880-0801", "pref": "宮崎県", "city": "宮崎市", "town": "老松", "full": "宮崎県宮崎市老松"}, {"postal_code": "8800824", "postal_hyphen": "880-0824", "pref": "宮崎県", "city": "宮崎市", "town": "大島町", "full": "宮崎県宮崎市大島町"}, {"postal_code": "8800345", "postal_hyphen": "880-0345", "pref": "宮崎県", "city": "宮崎市", "town": "大瀬町（上畑）", "full": "宮崎県宮崎市大瀬町（上畑）"}, {"postal_code": "8800045", "postal_hyphen": "880-0045", "pref": "宮崎県", "city": "宮崎市", "town": "大瀬町（その他）", "full": "宮崎県宮崎市大瀬町（その他）"}, {"postal_code": "8800903", "postal_hyphen": "880-0903", "pref": "宮崎県", "city": "宮崎市", "town": "太田", "full": "宮崎県宮崎市太田"}, {"postal_code": "8800952", "postal_hyphen": "880-0952", "pref": "宮崎県", "city": "宮崎市", "town": "大塚台東", "full": "宮崎県宮崎市大塚台東"}, {"postal_code": "8802105", "postal_hyphen": "880-2105", "pref": "宮崎県", "city": "宮崎市", "town": "大塚台西", "full": "宮崎県宮崎市大塚台西"}, {"postal_code": "8800951", "postal_hyphen": "880-0951", "pref": "宮崎県", "city": "宮崎市", "town": "大塚町", "full": "宮崎県宮崎市大塚町"}, {"postal_code": "8800933", "postal_hyphen": "880-0933", "pref": "宮崎県", "city": "宮崎市", "town": "大坪町", "full": "宮崎県宮崎市大坪町"}, {"postal_code": "8800934", "postal_hyphen": "880-0934", "pref": "宮崎県", "city": "宮崎市", "town": "大坪東", "full": "宮崎県宮崎市大坪東"}, {"postal_code": "8800932", "postal_hyphen": "880-0932", "pref": "宮崎県", "city": "宮崎市", "town": "大坪西", "full": "宮崎県宮崎市大坪西"}, {"postal_code": "8800022", "postal_hyphen": "880-0022", "pref": "宮崎県", "city": "宮崎市", "town": "大橋", "full": "宮崎県宮崎市大橋"}, {"postal_code": "8800902", "postal_hyphen": "880-0902", "pref": "宮崎県", "city": "宮崎市", "town": "大淀", "full": "宮崎県宮崎市大淀"}, {"postal_code": "8800857", "postal_hyphen": "880-0857", "pref": "宮崎県", "city": "宮崎市", "town": "小戸町", "full": "宮崎県宮崎市小戸町"}, {"postal_code": "8892164", "postal_hyphen": "889-2164", "pref": "宮崎県", "city": "宮崎市", "town": "折生迫", "full": "宮崎県宮崎市折生迫"}, {"postal_code": "8892161", "postal_hyphen": "889-2161", "pref": "宮崎県", "city": "宮崎市", "town": "加江田", "full": "宮崎県宮崎市加江田"}, {"postal_code": "8800947", "postal_hyphen": "880-0947", "pref": "宮崎県", "city": "宮崎市", "town": "薫る坂", "full": "宮崎県宮崎市薫る坂"}, {"postal_code": "8892156", "postal_hyphen": "889-2156", "pref": "宮崎県", "city": "宮崎市", "town": "鏡洲", "full": "宮崎県宮崎市鏡洲"}, {"postal_code": "8892154", "postal_hyphen": "889-2154", "pref": "宮崎県", "city": "宮崎市", "town": "学園木花台桜", "full": "宮崎県宮崎市学園木花台桜"}, {"postal_code": "8892155", "postal_hyphen": "889-2155", "pref": "宮崎県", "city": "宮崎市", "town": "学園木花台西", "full": "宮崎県宮崎市学園木花台西"}, {"postal_code": "8892153", "postal_hyphen": "889-2153", "pref": "宮崎県", "city": "宮崎市", "town": "学園木花台南", "full": "宮崎県宮崎市学園木花台南"}, {"postal_code": "8892152", "postal_hyphen": "889-2152", "pref": "宮崎県", "city": "宮崎市", "town": "学園木花台北", "full": "宮崎県宮崎市学園木花台北"}, {"postal_code": "8802111", "postal_hyphen": "880-2111", "pref": "宮崎県", "city": "宮崎市", "town": "柏原", "full": "宮崎県宮崎市柏原"}, {"postal_code": "8802234", "postal_hyphen": "880-2234", "pref": "宮崎県", "city": "宮崎市", "town": "金崎", "full": "宮崎県宮崎市金崎"}, {"postal_code": "8800043", "postal_hyphen": "880-0043", "pref": "宮崎県", "city": "宮崎市", "town": "上北方", "full": "宮崎県宮崎市上北方"}, {"postal_code": "8800011", "postal_hyphen": "880-0011", "pref": "宮崎県", "city": "宮崎市", "town": "上野町", "full": "宮崎県宮崎市上野町"}, {"postal_code": "8800866", "postal_hyphen": "880-0866", "pref": "宮崎県", "city": "宮崎市", "town": "川原町", "full": "宮崎県宮崎市川原町"}, {"postal_code": "8800024", "postal_hyphen": "880-0024", "pref": "宮崎県", "city": "宮崎市", "town": "祇園", "full": "宮崎県宮崎市祇園"}, {"postal_code": "8800941", "postal_hyphen": "880-0941", "pref": "宮崎県", "city": "宮崎市", "town": "北川内町", "full": "宮崎県宮崎市北川内町"}, {"postal_code": "8800823", "postal_hyphen": "880-0823", "pref": "宮崎県", "city": "宮崎市", "town": "北権現町", "full": "宮崎県宮崎市北権現町"}, {"postal_code": "8800017", "postal_hyphen": "880-0017", "pref": "宮崎県", "city": "宮崎市", "town": "北高松町", "full": "宮崎県宮崎市北高松町"}, {"postal_code": "8800923", "postal_hyphen": "880-0923", "pref": "宮崎県", "city": "宮崎市", "town": "希望ケ丘", "full": "宮崎県宮崎市希望ケ丘"}, {"postal_code": "8800937", "postal_hyphen": "880-0937", "pref": "宮崎県", "city": "宮崎市", "town": "京塚", "full": "宮崎県宮崎市京塚"}, {"postal_code": "8800938", "postal_hyphen": "880-0938", "pref": "宮崎県", "city": "宮崎市", "town": "京塚町", "full": "宮崎県宮崎市京塚町"}, {"postal_code": "8891609", "postal_hyphen": "889-1609", "pref": "宮崎県", "city": "宮崎市", "town": "清武町あさひ", "full": "宮崎県宮崎市清武町あさひ"}, {"postal_code": "8891606", "postal_hyphen": "889-1606", "pref": "宮崎県", "city": "宮崎市", "town": "清武町池田台", "full": "宮崎県宮崎市清武町池田台"}, {"postal_code": "8891608", "postal_hyphen": "889-1608", "pref": "宮崎県", "city": "宮崎市", "town": "清武町池田台北", "full": "宮崎県宮崎市清武町池田台北"}, {"postal_code": "8891602", "postal_hyphen": "889-1602", "pref": "宮崎県", "city": "宮崎市", "town": "清武町今泉", "full": "宮崎県宮崎市清武町今泉"}, {"postal_code": "8891612", "postal_hyphen": "889-1612", "pref": "宮崎県", "city": "宮崎市", "town": "清武町岡", "full": "宮崎県宮崎市清武町岡"}, {"postal_code": "8891607", "postal_hyphen": "889-1607", "pref": "宮崎県", "city": "宮崎市", "town": "清武町加納（丁目）", "full": "宮崎県宮崎市清武町加納（丁目）"}, {"postal_code": "8891605", "postal_hyphen": "889-1605", "pref": "宮崎県", "city": "宮崎市", "town": "清武町加納（番地）", "full": "宮崎県宮崎市清武町加納（番地）"}, {"postal_code": "8891601", "postal_hyphen": "889-1601", "pref": "宮崎県", "city": "宮崎市", "town": "清武町木原", "full": "宮崎県宮崎市清武町木原"}, {"postal_code": "8891603", "postal_hyphen": "889-1603", "pref": "宮崎県", "city": "宮崎市", "town": "清武町正手", "full": "宮崎県宮崎市清武町正手"}, {"postal_code": "8891611", "postal_hyphen": "889-1611", "pref": "宮崎県", "city": "宮崎市", "town": "清武町新町", "full": "宮崎県宮崎市清武町新町"}, {"postal_code": "8891613", "postal_hyphen": "889-1613", "pref": "宮崎県", "city": "宮崎市", "town": "清武町西新町", "full": "宮崎県宮崎市清武町西新町"}, {"postal_code": "8891604", "postal_hyphen": "889-1604", "pref": "宮崎県", "city": "宮崎市", "town": "清武町船引", "full": "宮崎県宮崎市清武町船引"}, {"postal_code": "8800032", "postal_hyphen": "880-0032", "pref": "宮崎県", "city": "宮崎市", "town": "霧島", "full": "宮崎県宮崎市霧島"}, {"postal_code": "8800924", "postal_hyphen": "880-0924", "pref": "宮崎県", "city": "宮崎市", "town": "郡司分", "full": "宮崎県宮崎市郡司分"}, {"postal_code": "8892151", "postal_hyphen": "889-2151", "pref": "宮崎県", "city": "宮崎市", "town": "熊野", "full": "宮崎県宮崎市熊野"}, {"postal_code": "8800927", "postal_hyphen": "880-0927", "pref": "宮崎県", "city": "宮崎市", "town": "源藤町", "full": "宮崎県宮崎市源藤町"}, {"postal_code": "8800944", "postal_hyphen": "880-0944", "pref": "宮崎県", "city": "宮崎市", "town": "江南", "full": "宮崎県宮崎市江南"}, {"postal_code": "8802112", "postal_hyphen": "880-2112", "pref": "宮崎県", "city": "宮崎市", "town": "小松", "full": "宮崎県宮崎市小松"}, {"postal_code": "8802113", "postal_hyphen": "880-2113", "pref": "宮崎県", "city": "宮崎市", "town": "小松台北町", "full": "宮崎県宮崎市小松台北町"}, {"postal_code": "8800954", "postal_hyphen": "880-0954", "pref": "宮崎県", "city": "宮崎市", "town": "小松台西", "full": "宮崎県宮崎市小松台西"}, {"postal_code": "8800953", "postal_hyphen": "880-0953", "pref": "宮崎県", "city": "宮崎市", "town": "小松台東", "full": "宮崎県宮崎市小松台東"}, {"postal_code": "8800956", "postal_hyphen": "880-0956", "pref": "宮崎県", "city": "宮崎市", "town": "小松台南町", "full": "宮崎県宮崎市小松台南町"}, {"postal_code": "8800822", "postal_hyphen": "880-0822", "pref": "宮崎県", "city": "宮崎市", "town": "権現町", "full": "宮崎県宮崎市権現町"}, {"postal_code": "8800955", "postal_hyphen": "880-0955", "pref": "宮崎県", "city": "宮崎市", "town": "桜ケ丘町", "full": "宮崎県宮崎市桜ケ丘町"}, {"postal_code": "8800057", "postal_hyphen": "880-0057", "pref": "宮崎県", "city": "宮崎市", "town": "桜町", "full": "宮崎県宮崎市桜町"}, {"postal_code": "8800213", "postal_hyphen": "880-0213", "pref": "宮崎県", "city": "宮崎市", "town": "佐土原町石崎", "full": "宮崎県宮崎市佐土原町石崎"}, {"postal_code": "8800301", "postal_hyphen": "880-0301", "pref": "宮崎県", "city": "宮崎市", "town": "佐土原町上田島", "full": "宮崎県宮崎市佐土原町上田島"}, {"postal_code": "8800211", "postal_hyphen": "880-0211", "pref": "宮崎県", "city": "宮崎市", "town": "佐土原町下田島", "full": "宮崎県宮崎市佐土原町下田島"}, {"postal_code": "8800204", "postal_hyphen": "880-0204", "pref": "宮崎県", "city": "宮崎市", "town": "佐土原町下富田", "full": "宮崎県宮崎市佐土原町下富田"}, {"postal_code": "8800212", "postal_hyphen": "880-0212", "pref": "宮崎県", "city": "宮崎市", "town": "佐土原町下那珂", "full": "宮崎県宮崎市佐土原町下那珂"}, {"postal_code": "8800302", "postal_hyphen": "880-0302", "pref": "宮崎県", "city": "宮崎市", "town": "佐土原町西上那珂", "full": "宮崎県宮崎市佐土原町西上那珂"}, {"postal_code": "8800303", "postal_hyphen": "880-0303", "pref": "宮崎県", "city": "宮崎市", "town": "佐土原町東上那珂", "full": "宮崎県宮崎市佐土原町東上那珂"}, {"postal_code": "8800214", "postal_hyphen": "880-0214", "pref": "宮崎県", "city": "宮崎市", "town": "佐土原町松小路", "full": "宮崎県宮崎市佐土原町松小路"}, {"postal_code": "8800122", "postal_hyphen": "880-0122", "pref": "宮崎県", "city": "宮崎市", "town": "塩路", "full": "宮崎県宮崎市塩路"}, {"postal_code": "8800862", "postal_hyphen": "880-0862", "pref": "宮崎県", "city": "宮崎市", "town": "潮見町", "full": "宮崎県宮崎市潮見町"}, {"postal_code": "8800121", "postal_hyphen": "880-0121", "pref": "宮崎県", "city": "宮崎市", "town": "島之内", "full": "宮崎県宮崎市島之内"}, {"postal_code": "8800021", "postal_hyphen": "880-0021", "pref": "宮崎県", "city": "宮崎市", "town": "清水", "full": "宮崎県宮崎市清水"}, {"postal_code": "8800035", "postal_hyphen": "880-0035", "pref": "宮崎県", "city": "宮崎市", "town": "下北方町", "full": "宮崎県宮崎市下北方町"}, {"postal_code": "8800843", "postal_hyphen": "880-0843", "pref": "宮崎県", "city": "宮崎市", "town": "下原町", "full": "宮崎県宮崎市下原町"}, {"postal_code": "8800833", "postal_hyphen": "880-0833", "pref": "宮崎県", "city": "宮崎市", "town": "昭栄町", "full": "宮崎県宮崎市昭栄町"}, {"postal_code": "8800917", "postal_hyphen": "880-0917", "pref": "宮崎県", "city": "宮崎市", "town": "城ケ崎", "full": "宮崎県宮崎市城ケ崎"}, {"postal_code": "8800876", "postal_hyphen": "880-0876", "pref": "宮崎県", "city": "宮崎市", "town": "浄土江町", "full": "宮崎県宮崎市浄土江町"}, {"postal_code": "8800874", "postal_hyphen": "880-0874", "pref": "宮崎県", "city": "宮崎市", "town": "昭和町", "full": "宮崎県宮崎市昭和町"}, {"postal_code": "8800831", "postal_hyphen": "880-0831", "pref": "宮崎県", "city": "宮崎市", "town": "新栄町", "full": "宮崎県宮崎市新栄町"}, {"postal_code": "8800053", "postal_hyphen": "880-0053", "pref": "宮崎県", "city": "宮崎市", "town": "神宮", "full": "宮崎県宮崎市神宮"}, {"postal_code": "8800033", "postal_hyphen": "880-0033", "pref": "宮崎県", "city": "宮崎市", "town": "神宮西", "full": "宮崎県宮崎市神宮西"}, {"postal_code": "8800056", "postal_hyphen": "880-0056", "pref": "宮崎県", "city": "宮崎市", "town": "神宮東", "full": "宮崎県宮崎市神宮東"}, {"postal_code": "8800054", "postal_hyphen": "880-0054", "pref": "宮崎県", "city": "宮崎市", "town": "神宮町", "full": "宮崎県宮崎市神宮町"}, {"postal_code": "8800845", "postal_hyphen": "880-0845", "pref": "宮崎県", "city": "宮崎市", "town": "新城町", "full": "宮崎県宮崎市新城町"}, {"postal_code": "8800834", "postal_hyphen": "880-0834", "pref": "宮崎県", "city": "宮崎市", "town": "新別府町", "full": "宮崎県宮崎市新別府町"}, {"postal_code": "8800012", "postal_hyphen": "880-0012", "pref": "宮崎県", "city": "宮崎市", "town": "末広", "full": "宮崎県宮崎市末広"}, {"postal_code": "8800867", "postal_hyphen": "880-0867", "pref": "宮崎県", "city": "宮崎市", "town": "瀬頭", "full": "宮崎県宮崎市瀬頭"}, {"postal_code": "8800868", "postal_hyphen": "880-0868", "pref": "宮崎県", "city": "宮崎市", "town": "瀬頭町", "full": "宮崎県宮崎市瀬頭町"}, {"postal_code": "8800875", "postal_hyphen": "880-0875", "pref": "宮崎県", "city": "宮崎市", "town": "曽師町", "full": "宮崎県宮崎市曽師町"}, {"postal_code": "8800871", "postal_hyphen": "880-0871", "pref": "宮崎県", "city": "宮崎市", "town": "大王町", "full": "宮崎県宮崎市大王町"}, {"postal_code": "8800015", "postal_hyphen": "880-0015", "pref": "宮崎県", "city": "宮崎市", "town": "大工", "full": "宮崎県宮崎市大工"}, {"postal_code": "8802224", "postal_hyphen": "880-2224", "pref": "宮崎県", "city": "宮崎市", "town": "高岡町飯田", "full": "宮崎県宮崎市高岡町飯田"}, {"postal_code": "8802221", "postal_hyphen": "880-2221", "pref": "宮崎県", "city": "宮崎市", "town": "高岡町内山（１〜３２１４番地）", "full": "宮崎県宮崎市高岡町内山（１〜３２１４番地）"}, {"postal_code": "8802321", "postal_hyphen": "880-2321", "pref": "宮崎県", "city": "宮崎市", "town": "高岡町内山（その他）", "full": "宮崎県宮崎市高岡町内山（その他）"}, {"postal_code": "8802223", "postal_hyphen": "880-2223", "pref": "宮崎県", "city": "宮崎市", "town": "高岡町浦之名（２７９３〜４３８９番地）", "full": "宮崎県宮崎市高岡町浦之名（２７９３〜４３８９番地）"}, {"postal_code": "8802323", "postal_hyphen": "880-2323", "pref": "宮崎県", "city": "宮崎市", "town": "高岡町浦之名（その他）", "full": "宮崎県宮崎市高岡町浦之名（その他）"}, {"postal_code": "8802214", "postal_hyphen": "880-2214", "pref": "宮崎県", "city": "宮崎市", "town": "高岡町小山田", "full": "宮崎県宮崎市高岡町小山田"}, {"postal_code": "8891713", "postal_hyphen": "889-1713", "pref": "宮崎県", "city": "宮崎市", "town": "高岡町上倉永（１２０６〜１２６８番地、内の八重）", "full": "宮崎県宮崎市高岡町上倉永（１２０６〜１２６８番地、内の八重）"}, {"postal_code": "8802213", "postal_hyphen": "880-2213", "pref": "宮崎県", "city": "宮崎市", "town": "高岡町上倉永（その他）", "full": "宮崎県宮崎市高岡町上倉永（その他）"}, {"postal_code": "8802325", "postal_hyphen": "880-2325", "pref": "宮崎県", "city": "宮崎市", "town": "高岡町紙屋", "full": "宮崎県宮崎市高岡町紙屋"}, {"postal_code": "8802222", "postal_hyphen": "880-2222", "pref": "宮崎県", "city": "宮崎市", "town": "高岡町五町（１〜３１３７番地）", "full": "宮崎県宮崎市高岡町五町（１〜３１３７番地）"}, {"postal_code": "8802322", "postal_hyphen": "880-2322", "pref": "宮崎県", "city": "宮崎市", "town": "高岡町五町（その他）", "full": "宮崎県宮崎市高岡町五町（その他）"}, {"postal_code": "8802212", "postal_hyphen": "880-2212", "pref": "宮崎県", "city": "宮崎市", "town": "高岡町下倉永", "full": "宮崎県宮崎市高岡町下倉永"}, {"postal_code": "8802215", "postal_hyphen": "880-2215", "pref": "宮崎県", "city": "宮崎市", "town": "高岡町高浜", "full": "宮崎県宮崎市高岡町高浜"}, {"postal_code": "8802211", "postal_hyphen": "880-2211", "pref": "宮崎県", "city": "宮崎市", "town": "高岡町花見", "full": "宮崎県宮崎市高岡町花見"}, {"postal_code": "8800852", "postal_hyphen": "880-0852", "pref": "宮崎県", "city": "宮崎市", "town": "高洲町", "full": "宮崎県宮崎市高洲町"}, {"postal_code": "8800812", "postal_hyphen": "880-0812", "pref": "宮崎県", "city": "宮崎市", "town": "高千穂通", "full": "宮崎県宮崎市高千穂通"}, {"postal_code": "8800003", "postal_hyphen": "880-0003", "pref": "宮崎県", "city": "宮崎市", "town": "高松町", "full": "宮崎県宮崎市高松町"}, {"postal_code": "8800855", "postal_hyphen": "880-0855", "pref": "宮崎県", "city": "宮崎市", "town": "田代町", "full": "宮崎県宮崎市田代町"}, {"postal_code": "8800001", "postal_hyphen": "880-0001", "pref": "宮崎県", "city": "宮崎市", "town": "橘通西", "full": "宮崎県宮崎市橘通西"}, {"postal_code": "8800805", "postal_hyphen": "880-0805", "pref": "宮崎県", "city": "宮崎市", "town": "橘通東", "full": "宮崎県宮崎市橘通東"}, {"postal_code": "8800908", "postal_hyphen": "880-0908", "pref": "宮崎県", "city": "宮崎市", "town": "谷川", "full": "宮崎県宮崎市谷川"}, {"postal_code": "8800909", "postal_hyphen": "880-0909", "pref": "宮崎県", "city": "宮崎市", "town": "谷川町", "full": "宮崎県宮崎市谷川町"}, {"postal_code": "8891703", "postal_hyphen": "889-1703", "pref": "宮崎県", "city": "宮崎市", "town": "田野町あけぼの", "full": "宮崎県宮崎市田野町あけぼの"}, {"postal_code": "8891702", "postal_hyphen": "889-1702", "pref": "宮崎県", "city": "宮崎市", "town": "田野町乙", "full": "宮崎県宮崎市田野町乙"}, {"postal_code": "8891701", "postal_hyphen": "889-1701", "pref": "宮崎県", "city": "宮崎市", "town": "田野町甲", "full": "宮崎県宮崎市田野町甲"}, {"postal_code": "8891704", "postal_hyphen": "889-1704", "pref": "宮崎県", "city": "宮崎市", "town": "田野町南原", "full": "宮崎県宮崎市田野町南原"}, {"postal_code": "8800911", "postal_hyphen": "880-0911", "pref": "宮崎県", "city": "宮崎市", "town": "田吉", "full": "宮崎県宮崎市田吉"}, {"postal_code": "8800006", "postal_hyphen": "880-0006", "pref": "宮崎県", "city": "宮崎市", "town": "千草町", "full": "宮崎県宮崎市千草町"}, {"postal_code": "8800002", "postal_hyphen": "880-0002", "pref": "宮崎県", "city": "宮崎市", "town": "中央通", "full": "宮崎県宮崎市中央通"}, {"postal_code": "8800926", "postal_hyphen": "880-0926", "pref": "宮崎県", "city": "宮崎市", "town": "月見ケ丘", "full": "宮崎県宮崎市月見ケ丘"}, {"postal_code": "8802232", "postal_hyphen": "880-2232", "pref": "宮崎県", "city": "宮崎市", "town": "堤内", "full": "宮崎県宮崎市堤内"}, {"postal_code": "8800913", "postal_hyphen": "880-0913", "pref": "宮崎県", "city": "宮崎市", "town": "恒久（丁目）", "full": "宮崎県宮崎市恒久（丁目）"}, {"postal_code": "8800916", "postal_hyphen": "880-0916", "pref": "宮崎県", "city": "宮崎市", "town": "恒久（番地）", "full": "宮崎県宮崎市恒久（番地）"}, {"postal_code": "8800915", "postal_hyphen": "880-0915", "pref": "宮崎県", "city": "宮崎市", "town": "恒久南", "full": "宮崎県宮崎市恒久南"}, {"postal_code": "8800014", "postal_hyphen": "880-0014", "pref": "宮崎県", "city": "宮崎市", "town": "鶴島", "full": "宮崎県宮崎市鶴島"}, {"postal_code": "8800861", "postal_hyphen": "880-0861", "pref": "宮崎県", "city": "宮崎市", "town": "出来島町", "full": "宮崎県宮崎市出来島町"}, {"postal_code": "8800936", "postal_hyphen": "880-0936", "pref": "宮崎県", "city": "宮崎市", "town": "天満", "full": "宮崎県宮崎市天満"}, {"postal_code": "8800935", "postal_hyphen": "880-0935", "pref": "宮崎県", "city": "宮崎市", "town": "天満町", "full": "宮崎県宮崎市天満町"}, {"postal_code": "8800928", "postal_hyphen": "880-0928", "pref": "宮崎県", "city": "宮崎市", "town": "東宮", "full": "宮崎県宮崎市東宮"}, {"postal_code": "8802114", "postal_hyphen": "880-2114", "pref": "宮崎県", "city": "宮崎市", "town": "富吉", "full": "宮崎県宮崎市富吉"}, {"postal_code": "8800025", "postal_hyphen": "880-0025", "pref": "宮崎県", "city": "宮崎市", "town": "中津瀬町", "full": "宮崎県宮崎市中津瀬町"}, {"postal_code": "8800853", "postal_hyphen": "880-0853", "pref": "宮崎県", "city": "宮崎市", "town": "中西町", "full": "宮崎県宮崎市中西町"}, {"postal_code": "8800904", "postal_hyphen": "880-0904", "pref": "宮崎県", "city": "宮崎市", "town": "中村東", "full": "宮崎県宮崎市中村東"}, {"postal_code": "8800905", "postal_hyphen": "880-0905", "pref": "宮崎県", "city": "宮崎市", "town": "中村西", "full": "宮崎県宮崎市中村西"}, {"postal_code": "8802115", "postal_hyphen": "880-2115", "pref": "宮崎県", "city": "宮崎市", "town": "長嶺", "full": "宮崎県宮崎市長嶺"}, {"postal_code": "8800826", "postal_hyphen": "880-0826", "pref": "宮崎県", "city": "宮崎市", "town": "波島", "full": "宮崎県宮崎市波島"}, {"postal_code": "8800124", "postal_hyphen": "880-0124", "pref": "宮崎県", "city": "宮崎市", "town": "新名爪", "full": "宮崎県宮崎市新名爪"}, {"postal_code": "8800027", "postal_hyphen": "880-0027", "pref": "宮崎県", "city": "宮崎市", "town": "西池町", "full": "宮崎県宮崎市西池町"}, {"postal_code": "8800818", "postal_hyphen": "880-0818", "pref": "宮崎県", "city": "宮崎市", "town": "錦本町", "full": "宮崎県宮崎市錦本町"}, {"postal_code": "8800811", "postal_hyphen": "880-0811", "pref": "宮崎県", "city": "宮崎市", "town": "錦町", "full": "宮崎県宮崎市錦町"}, {"postal_code": "8800016", "postal_hyphen": "880-0016", "pref": "宮崎県", "city": "宮崎市", "town": "西高松町", "full": "宮崎県宮崎市西高松町"}, {"postal_code": "8800036", "postal_hyphen": "880-0036", "pref": "宮崎県", "city": "宮崎市", "town": "花ケ島町", "full": "宮崎県宮崎市花ケ島町"}, {"postal_code": "8800026", "postal_hyphen": "880-0026", "pref": "宮崎県", "city": "宮崎市", "town": "花殿町", "full": "宮崎県宮崎市花殿町"}, {"postal_code": "8800939", "postal_hyphen": "880-0939", "pref": "宮崎県", "city": "宮崎市", "town": "花山手西", "full": "宮崎県宮崎市花山手西"}, {"postal_code": "8800930", "postal_hyphen": "880-0930", "pref": "宮崎県", "city": "宮崎市", "town": "花山手東", "full": "宮崎県宮崎市花山手東"}, {"postal_code": "8800007", "postal_hyphen": "880-0007", "pref": "宮崎県", "city": "宮崎市", "town": "原町", "full": "宮崎県宮崎市原町"}, {"postal_code": "8800832", "postal_hyphen": "880-0832", "pref": "宮崎県", "city": "宮崎市", "town": "稗原町", "full": "宮崎県宮崎市稗原町"}, {"postal_code": "8800825", "postal_hyphen": "880-0825", "pref": "宮崎県", "city": "宮崎市", "town": "東大宮", "full": "宮崎県宮崎市東大宮"}, {"postal_code": "8800901", "postal_hyphen": "880-0901", "pref": "宮崎県", "city": "宮崎市", "town": "東大淀", "full": "宮崎県宮崎市東大淀"}, {"postal_code": "8800856", "postal_hyphen": "880-0856", "pref": "宮崎県", "city": "宮崎市", "town": "日ノ出町", "full": "宮崎県宮崎市日ノ出町"}, {"postal_code": "8800806", "postal_hyphen": "880-0806", "pref": "宮崎県", "city": "宮崎市", "town": "広島", "full": "宮崎県宮崎市広島"}, {"postal_code": "8800125", "postal_hyphen": "880-0125", "pref": "宮崎県", "city": "宮崎市", "town": "広原", "full": "宮崎県宮崎市広原"}, {"postal_code": "8800946", "postal_hyphen": "880-0946", "pref": "宮崎県", "city": "宮崎市", "town": "福島町（丁目）", "full": "宮崎県宮崎市福島町（丁目）"}, {"postal_code": "8800945", "postal_hyphen": "880-0945", "pref": "宮崎県", "city": "宮崎市", "town": "福島町（番地）", "full": "宮崎県宮崎市福島町（番地）"}, {"postal_code": "8800031", "postal_hyphen": "880-0031", "pref": "宮崎県", "city": "宮崎市", "town": "船塚", "full": "宮崎県宮崎市船塚"}, {"postal_code": "8800931", "postal_hyphen": "880-0931", "pref": "宮崎県", "city": "宮崎市", "town": "古城町", "full": "宮崎県宮崎市古城町"}, {"postal_code": "8800046", "postal_hyphen": "880-0046", "pref": "宮崎県", "city": "宮崎市", "town": "平和が丘北町", "full": "宮崎県宮崎市平和が丘北町"}, {"postal_code": "8800047", "postal_hyphen": "880-0047", "pref": "宮崎県", "city": "宮崎市", "town": "平和が丘西町", "full": "宮崎県宮崎市平和が丘西町"}, {"postal_code": "8800042", "postal_hyphen": "880-0042", "pref": "宮崎県", "city": "宮崎市", "town": "平和が丘東町", "full": "宮崎県宮崎市平和が丘東町"}, {"postal_code": "8800802", "postal_hyphen": "880-0802", "pref": "宮崎県", "city": "宮崎市", "town": "別府町", "full": "宮崎県宮崎市別府町"}, {"postal_code": "8800123", "postal_hyphen": "880-0123", "pref": "宮崎県", "city": "宮崎市", "town": "芳士", "full": "宮崎県宮崎市芳士"}, {"postal_code": "8891716", "postal_hyphen": "889-1716", "pref": "宮崎県", "city": "宮崎市", "town": "細江（平和）", "full": "宮崎県宮崎市細江（平和）"}, {"postal_code": "8802116", "postal_hyphen": "880-2116", "pref": "宮崎県", "city": "宮崎市", "town": "細江（その他）", "full": "宮崎県宮崎市細江（その他）"}, {"postal_code": "8800873", "postal_hyphen": "880-0873", "pref": "宮崎県", "city": "宮崎市", "town": "堀川町", "full": "宮崎県宮崎市堀川町"}, {"postal_code": "8800922", "postal_hyphen": "880-0922", "pref": "宮崎県", "city": "宮崎市", "town": "本郷", "full": "宮崎県宮崎市本郷"}, {"postal_code": "8800925", "postal_hyphen": "880-0925", "pref": "宮崎県", "city": "宮崎市", "town": "本郷北方", "full": "宮崎県宮崎市本郷北方"}, {"postal_code": "8800921", "postal_hyphen": "880-0921", "pref": "宮崎県", "city": "宮崎市", "town": "本郷南方", "full": "宮崎県宮崎市本郷南方"}, {"postal_code": "8800863", "postal_hyphen": "880-0863", "pref": "宮崎県", "city": "宮崎市", "town": "前原町", "full": "宮崎県宮崎市前原町"}, {"postal_code": "8800013", "postal_hyphen": "880-0013", "pref": "宮崎県", "city": "宮崎市", "town": "松橋", "full": "宮崎県宮崎市松橋"}, {"postal_code": "8800865", "postal_hyphen": "880-0865", "pref": "宮崎県", "city": "宮崎市", "town": "松山", "full": "宮崎県宮崎市松山"}, {"postal_code": "8800929", "postal_hyphen": "880-0929", "pref": "宮崎県", "city": "宮崎市", "town": "まなび野", "full": "宮崎県宮崎市まなび野"}, {"postal_code": "8800813", "postal_hyphen": "880-0813", "pref": "宮崎県", "city": "宮崎市", "town": "丸島町", "full": "宮崎県宮崎市丸島町"}, {"postal_code": "8800052", "postal_hyphen": "880-0052", "pref": "宮崎県", "city": "宮崎市", "town": "丸山", "full": "宮崎県宮崎市丸山"}, {"postal_code": "8800858", "postal_hyphen": "880-0858", "pref": "宮崎県", "city": "宮崎市", "town": "港", "full": "宮崎県宮崎市港"}, {"postal_code": "8800851", "postal_hyphen": "880-0851", "pref": "宮崎県", "city": "宮崎市", "town": "港東", "full": "宮崎県宮崎市港東"}, {"postal_code": "8800037", "postal_hyphen": "880-0037", "pref": "宮崎県", "city": "宮崎市", "town": "南方町", "full": "宮崎県宮崎市南方町"}, {"postal_code": "8800005", "postal_hyphen": "880-0005", "pref": "宮崎県", "city": "宮崎市", "town": "南高松町", "full": "宮崎県宮崎市南高松町"}, {"postal_code": "8800055", "postal_hyphen": "880-0055", "pref": "宮崎県", "city": "宮崎市", "town": "南花ケ島町", "full": "宮崎県宮崎市南花ケ島町"}, {"postal_code": "8800906", "postal_hyphen": "880-0906", "pref": "宮崎県", "city": "宮崎市", "town": "南町", "full": "宮崎県宮崎市南町"}, {"postal_code": "8800879", "postal_hyphen": "880-0879", "pref": "宮崎県", "city": "宮崎市", "town": "宮崎駅東", "full": "宮崎県宮崎市宮崎駅東"}, {"postal_code": "8800804", "postal_hyphen": "880-0804", "pref": "宮崎県", "city": "宮崎市", "town": "宮田町", "full": "宮崎県宮崎市宮田町"}, {"postal_code": "8800914", "postal_hyphen": "880-0914", "pref": "宮崎県", "city": "宮崎市", "town": "宮の元町", "full": "宮崎県宮崎市宮の元町"}, {"postal_code": "8800877", "postal_hyphen": "880-0877", "pref": "宮崎県", "city": "宮崎市", "town": "宮脇町", "full": "宮崎県宮崎市宮脇町"}, {"postal_code": "8800837", "postal_hyphen": "880-0837", "pref": "宮崎県", "city": "宮崎市", "town": "村角町", "full": "宮崎県宮崎市村角町"}, {"postal_code": "8800004", "postal_hyphen": "880-0004", "pref": "宮崎県", "city": "宮崎市", "town": "元宮町", "full": "宮崎県宮崎市元宮町"}, {"postal_code": "8800844", "postal_hyphen": "880-0844", "pref": "宮崎県", "city": "宮崎市", "town": "柳丸町", "full": "宮崎県宮崎市柳丸町"}, {"postal_code": "8800034", "postal_hyphen": "880-0034", "pref": "宮崎県", "city": "宮崎市", "town": "矢の先町", "full": "宮崎県宮崎市矢の先町"}, {"postal_code": "8800836", "postal_hyphen": "880-0836", "pref": "宮崎県", "city": "宮崎市", "town": "山崎町", "full": "宮崎県宮崎市山崎町"}, {"postal_code": "8800878", "postal_hyphen": "880-0878", "pref": "宮崎県", "city": "宮崎市", "town": "大和町", "full": "宮崎県宮崎市大和町"}, {"postal_code": "8802233", "postal_hyphen": "880-2233", "pref": "宮崎県", "city": "宮崎市", "town": "吉野", "full": "宮崎県宮崎市吉野"}, {"postal_code": "8800841", "postal_hyphen": "880-0841", "pref": "宮崎県", "city": "宮崎市", "town": "吉村町", "full": "宮崎県宮崎市吉村町"}, {"postal_code": "8800907", "postal_hyphen": "880-0907", "pref": "宮崎県", "city": "宮崎市", "town": "淀川", "full": "宮崎県宮崎市淀川"}, {"postal_code": "8800023", "postal_hyphen": "880-0023", "pref": "宮崎県", "city": "宮崎市", "town": "和知川原", "full": "宮崎県宮崎市和知川原"}, {"postal_code": "8850000", "postal_hyphen": "885-0000", "pref": "宮崎県", "city": "都城市", "town": "", "full": "宮崎県都城市"}, {"postal_code": "8850034", "postal_hyphen": "885-0034", "pref": "宮崎県", "city": "都城市", "town": "菖蒲原町", "full": "宮崎県都城市菖蒲原町"}, {"postal_code": "8850041", "postal_hyphen": "885-0041", "pref": "宮崎県", "city": "都城市", "town": "一万城町", "full": "宮崎県都城市一万城町"}, {"postal_code": "8850064", "postal_hyphen": "885-0064", "pref": "宮崎県", "city": "都城市", "town": "今町", "full": "宮崎県都城市今町"}, {"postal_code": "8851101", "postal_hyphen": "885-1101", "pref": "宮崎県", "city": "都城市", "town": "岩満町", "full": "宮崎県都城市岩満町"}, {"postal_code": "8850019", "postal_hyphen": "885-0019", "pref": "宮崎県", "city": "都城市", "town": "祝吉", "full": "宮崎県都城市祝吉"}, {"postal_code": "8850014", "postal_hyphen": "885-0014", "pref": "宮崎県", "city": "都城市", "town": "祝吉町", "full": "宮崎県都城市祝吉町"}, {"postal_code": "8850063", "postal_hyphen": "885-0063", "pref": "宮崎県", "city": "都城市", "town": "梅北町", "full": "宮崎県都城市梅北町"}, {"postal_code": "8850062", "postal_hyphen": "885-0062", "pref": "宮崎県", "city": "都城市", "town": "大岩田町", "full": "宮崎県都城市大岩田町"}, {"postal_code": "8850112", "postal_hyphen": "885-0112", "pref": "宮崎県", "city": "都城市", "town": "乙房町", "full": "宮崎県都城市乙房町"}, {"postal_code": "8850074", "postal_hyphen": "885-0074", "pref": "宮崎県", "city": "都城市", "town": "甲斐元町", "full": "宮崎県都城市甲斐元町"}, {"postal_code": "8850111", "postal_hyphen": "885-0111", "pref": "宮崎県", "city": "都城市", "town": "菓子野町", "full": "宮崎県都城市菓子野町"}, {"postal_code": "8850001", "postal_hyphen": "885-0001", "pref": "宮崎県", "city": "都城市", "town": "金田町", "full": "宮崎県都城市金田町"}, {"postal_code": "8850012", "postal_hyphen": "885-0012", "pref": "宮崎県", "city": "都城市", "town": "上川東", "full": "宮崎県都城市上川東"}, {"postal_code": "8851103", "postal_hyphen": "885-1103", "pref": "宮崎県", "city": "都城市", "town": "上水流町", "full": "宮崎県都城市上水流町"}, {"postal_code": "8850042", "postal_hyphen": "885-0042", "pref": "宮崎県", "city": "都城市", "town": "上長飯町", "full": "宮崎県都城市上長飯町"}, {"postal_code": "8850053", "postal_hyphen": "885-0053", "pref": "宮崎県", "city": "都城市", "town": "上東町", "full": "宮崎県都城市上東町"}, {"postal_code": "8850072", "postal_hyphen": "885-0072", "pref": "宮崎県", "city": "都城市", "town": "上町", "full": "宮崎県都城市上町"}, {"postal_code": "8850024", "postal_hyphen": "885-0024", "pref": "宮崎県", "city": "都城市", "town": "北原町", "full": "宮崎県都城市北原町"}, {"postal_code": "8850086", "postal_hyphen": "885-0086", "pref": "宮崎県", "city": "都城市", "town": "久保原町", "full": "宮崎県都城市久保原町"}, {"postal_code": "8850051", "postal_hyphen": "885-0051", "pref": "宮崎県", "city": "都城市", "town": "蔵原町", "full": "宮崎県都城市蔵原町"}, {"postal_code": "8850018", "postal_hyphen": "885-0018", "pref": "宮崎県", "city": "都城市", "town": "郡元", "full": "宮崎県都城市郡元"}, {"postal_code": "8850013", "postal_hyphen": "885-0013", "pref": "宮崎県", "city": "都城市", "town": "郡元町", "full": "宮崎県都城市郡元町"}, {"postal_code": "8850084", "postal_hyphen": "885-0084", "pref": "宮崎県", "city": "都城市", "town": "五十町", "full": "宮崎県都城市五十町"}, {"postal_code": "8850022", "postal_hyphen": "885-0022", "pref": "宮崎県", "city": "都城市", "town": "小松原町", "full": "宮崎県都城市小松原町"}, {"postal_code": "8850023", "postal_hyphen": "885-0023", "pref": "宮崎県", "city": "都城市", "town": "栄町", "full": "宮崎県都城市栄町"}, {"postal_code": "8850093", "postal_hyphen": "885-0093", "pref": "宮崎県", "city": "都城市", "town": "志比田町", "full": "宮崎県都城市志比田町"}, {"postal_code": "8850011", "postal_hyphen": "885-0011", "pref": "宮崎県", "city": "都城市", "town": "下川東", "full": "宮崎県都城市下川東"}, {"postal_code": "8851102", "postal_hyphen": "885-1102", "pref": "宮崎県", "city": "都城市", "town": "下水流町", "full": "宮崎県都城市下水流町"}, {"postal_code": "8850061", "postal_hyphen": "885-0061", "pref": "宮崎県", "city": "都城市", "town": "下長飯町", "full": "宮崎県都城市下長飯町"}, {"postal_code": "8850114", "postal_hyphen": "885-0114", "pref": "宮崎県", "city": "都城市", "town": "庄内町", "full": "宮崎県都城市庄内町"}, {"postal_code": "8850005", "postal_hyphen": "885-0005", "pref": "宮崎県", "city": "都城市", "town": "神之山町", "full": "宮崎県都城市神之山町"}, {"postal_code": "8850113", "postal_hyphen": "885-0113", "pref": "宮崎県", "city": "都城市", "town": "関之尾町", "full": "宮崎県都城市関之尾町"}, {"postal_code": "8850015", "postal_hyphen": "885-0015", "pref": "宮崎県", "city": "都城市", "town": "千町", "full": "宮崎県都城市千町"}, {"postal_code": "8850026", "postal_hyphen": "885-0026", "pref": "宮崎県", "city": "都城市", "town": "大王町", "full": "宮崎県都城市大王町"}, {"postal_code": "8850081", "postal_hyphen": "885-0081", "pref": "宮崎県", "city": "都城市", "town": "鷹尾", "full": "宮崎県都城市鷹尾"}, {"postal_code": "8850003", "postal_hyphen": "885-0003", "pref": "宮崎県", "city": "都城市", "town": "高木町", "full": "宮崎県都城市高木町"}, {"postal_code": "8894502", "postal_hyphen": "889-4502", "pref": "宮崎県", "city": "都城市", "town": "高崎町江平", "full": "宮崎県都城市高崎町江平"}, {"postal_code": "8894505", "postal_hyphen": "889-4505", "pref": "宮崎県", "city": "都城市", "town": "高崎町大牟田", "full": "宮崎県都城市高崎町大牟田"}, {"postal_code": "8894504", "postal_hyphen": "889-4504", "pref": "宮崎県", "city": "都城市", "town": "高崎町東霧島", "full": "宮崎県都城市高崎町東霧島"}, {"postal_code": "8894503", "postal_hyphen": "889-4503", "pref": "宮崎県", "city": "都城市", "town": "高崎町縄瀬", "full": "宮崎県都城市高崎町縄瀬"}, {"postal_code": "8894501", "postal_hyphen": "889-4501", "pref": "宮崎県", "city": "都城市", "town": "高崎町笛水", "full": "宮崎県都城市高崎町笛水"}, {"postal_code": "8894506", "postal_hyphen": "889-4506", "pref": "宮崎県", "city": "都城市", "town": "高崎町前田", "full": "宮崎県都城市高崎町前田"}, {"postal_code": "8851311", "postal_hyphen": "885-1311", "pref": "宮崎県", "city": "都城市", "town": "高城町有水", "full": "宮崎県都城市高城町有水"}, {"postal_code": "8851205", "postal_hyphen": "885-1205", "pref": "宮崎県", "city": "都城市", "town": "高城町石山", "full": "宮崎県都城市高城町石山"}, {"postal_code": "8851203", "postal_hyphen": "885-1203", "pref": "宮崎県", "city": "都城市", "town": "高城町大井手", "full": "宮崎県都城市高城町大井手"}, {"postal_code": "8851204", "postal_hyphen": "885-1204", "pref": "宮崎県", "city": "都城市", "town": "高城町桜木", "full": "宮崎県都城市高城町桜木"}, {"postal_code": "8851312", "postal_hyphen": "885-1312", "pref": "宮崎県", "city": "都城市", "town": "高城町四家", "full": "宮崎県都城市高城町四家"}, {"postal_code": "8851201", "postal_hyphen": "885-1201", "pref": "宮崎県", "city": "都城市", "town": "高城町高城", "full": "宮崎県都城市高城町高城"}, {"postal_code": "8851202", "postal_hyphen": "885-1202", "pref": "宮崎県", "city": "都城市", "town": "高城町穂満坊", "full": "宮崎県都城市高城町穂満坊"}, {"postal_code": "8850221", "postal_hyphen": "885-0221", "pref": "宮崎県", "city": "都城市", "town": "高野町", "full": "宮崎県都城市高野町"}, {"postal_code": "8850035", "postal_hyphen": "885-0035", "pref": "宮崎県", "city": "都城市", "town": "立野町", "full": "宮崎県都城市立野町"}, {"postal_code": "8850002", "postal_hyphen": "885-0002", "pref": "宮崎県", "city": "都城市", "town": "太郎坊町", "full": "宮崎県都城市太郎坊町"}, {"postal_code": "8850033", "postal_hyphen": "885-0033", "pref": "宮崎県", "city": "都城市", "town": "妻ケ丘町", "full": "宮崎県都城市妻ケ丘町"}, {"postal_code": "8850031", "postal_hyphen": "885-0031", "pref": "宮崎県", "city": "都城市", "town": "天神町", "full": "宮崎県都城市天神町"}, {"postal_code": "8850017", "postal_hyphen": "885-0017", "pref": "宮崎県", "city": "都城市", "town": "年見町", "full": "宮崎県都城市年見町"}, {"postal_code": "8850004", "postal_hyphen": "885-0004", "pref": "宮崎県", "city": "都城市", "town": "都北町", "full": "宮崎県都城市都北町"}, {"postal_code": "8850043", "postal_hyphen": "885-0043", "pref": "宮崎県", "city": "都城市", "town": "豊満町", "full": "宮崎県都城市豊満町"}, {"postal_code": "8850032", "postal_hyphen": "885-0032", "pref": "宮崎県", "city": "都城市", "town": "中原町", "full": "宮崎県都城市中原町"}, {"postal_code": "8850071", "postal_hyphen": "885-0071", "pref": "宮崎県", "city": "都城市", "town": "中町", "full": "宮崎県都城市中町"}, {"postal_code": "8850225", "postal_hyphen": "885-0225", "pref": "宮崎県", "city": "都城市", "town": "夏尾町", "full": "宮崎県都城市夏尾町"}, {"postal_code": "8850076", "postal_hyphen": "885-0076", "pref": "宮崎県", "city": "都城市", "town": "西町", "full": "宮崎県都城市西町"}, {"postal_code": "8851104", "postal_hyphen": "885-1104", "pref": "宮崎県", "city": "都城市", "town": "野々美谷町", "full": "宮崎県都城市野々美谷町"}, {"postal_code": "8850075", "postal_hyphen": "885-0075", "pref": "宮崎県", "city": "都城市", "town": "八幡町", "full": "宮崎県都城市八幡町"}, {"postal_code": "8850037", "postal_hyphen": "885-0037", "pref": "宮崎県", "city": "都城市", "town": "花繰町", "full": "宮崎県都城市花繰町"}, {"postal_code": "8850055", "postal_hyphen": "885-0055", "pref": "宮崎県", "city": "都城市", "town": "早鈴町", "full": "宮崎県都城市早鈴町"}, {"postal_code": "8850016", "postal_hyphen": "885-0016", "pref": "宮崎県", "city": "都城市", "town": "早水町", "full": "宮崎県都城市早水町"}, {"postal_code": "8850052", "postal_hyphen": "885-0052", "pref": "宮崎県", "city": "都城市", "town": "東町", "full": "宮崎県都城市東町"}, {"postal_code": "8850073", "postal_hyphen": "885-0073", "pref": "宮崎県", "city": "都城市", "town": "姫城町", "full": "宮崎県都城市姫城町"}, {"postal_code": "8850021", "postal_hyphen": "885-0021", "pref": "宮崎県", "city": "都城市", "town": "平江町", "full": "宮崎県都城市平江町"}, {"postal_code": "8850085", "postal_hyphen": "885-0085", "pref": "宮崎県", "city": "都城市", "town": "平塚町", "full": "宮崎県都城市平塚町"}, {"postal_code": "8850036", "postal_hyphen": "885-0036", "pref": "宮崎県", "city": "都城市", "town": "広原町", "full": "宮崎県都城市広原町"}, {"postal_code": "8850025", "postal_hyphen": "885-0025", "pref": "宮崎県", "city": "都城市", "town": "前田町", "full": "宮崎県都城市前田町"}, {"postal_code": "8850077", "postal_hyphen": "885-0077", "pref": "宮崎県", "city": "都城市", "town": "松元町", "full": "宮崎県都城市松元町"}, {"postal_code": "8851105", "postal_hyphen": "885-1105", "pref": "宮崎県", "city": "都城市", "town": "丸谷町", "full": "宮崎県都城市丸谷町"}, {"postal_code": "8850224", "postal_hyphen": "885-0224", "pref": "宮崎県", "city": "都城市", "town": "御池町", "full": "宮崎県都城市御池町"}, {"postal_code": "8850222", "postal_hyphen": "885-0222", "pref": "宮崎県", "city": "都城市", "town": "美川町", "full": "宮崎県都城市美川町"}, {"postal_code": "8850082", "postal_hyphen": "885-0082", "pref": "宮崎県", "city": "都城市", "town": "南鷹尾町", "full": "宮崎県都城市南鷹尾町"}, {"postal_code": "8850092", "postal_hyphen": "885-0092", "pref": "宮崎県", "city": "都城市", "town": "南横市町", "full": "宮崎県都城市南横市町"}, {"postal_code": "8850095", "postal_hyphen": "885-0095", "pref": "宮崎県", "city": "都城市", "town": "蓑原町", "full": "宮崎県都城市蓑原町"}, {"postal_code": "8850083", "postal_hyphen": "885-0083", "pref": "宮崎県", "city": "都城市", "town": "都島町", "full": "宮崎県都城市都島町"}, {"postal_code": "8850094", "postal_hyphen": "885-0094", "pref": "宮崎県", "city": "都城市", "town": "都原町", "full": "宮崎県都城市都原町"}, {"postal_code": "8850078", "postal_hyphen": "885-0078", "pref": "宮崎県", "city": "都城市", "town": "宮丸町", "full": "宮崎県都城市宮丸町"}, {"postal_code": "8850079", "postal_hyphen": "885-0079", "pref": "宮崎県", "city": "都城市", "town": "牟田町", "full": "宮崎県都城市牟田町"}, {"postal_code": "8850044", "postal_hyphen": "885-0044", "pref": "宮崎県", "city": "都城市", "town": "安久町", "full": "宮崎県都城市安久町"}, {"postal_code": "8894602", "postal_hyphen": "889-4602", "pref": "宮崎県", "city": "都城市", "town": "山田町中霧島", "full": "宮崎県都城市山田町中霧島"}, {"postal_code": "8894601", "postal_hyphen": "889-4601", "pref": "宮崎県", "city": "都城市", "town": "山田町山田", "full": "宮崎県都城市山田町山田"}, {"postal_code": "8891801", "postal_hyphen": "889-1801", "pref": "宮崎県", "city": "都城市", "town": "山之口町富吉", "full": "宮崎県都城市山之口町富吉"}, {"postal_code": "8891802", "postal_hyphen": "889-1802", "pref": "宮崎県", "city": "都城市", "town": "山之口町花木", "full": "宮崎県都城市山之口町花木"}, {"postal_code": "8802303", "postal_hyphen": "880-2303", "pref": "宮崎県", "city": "都城市", "town": "山之口町山之口（上平野、仲田）", "full": "宮崎県都城市山之口町山之口（上平野、仲田）"}, {"postal_code": "8891803", "postal_hyphen": "889-1803", "pref": "宮崎県", "city": "都城市", "town": "山之口町山之口（その他）", "full": "宮崎県都城市山之口町山之口（その他）"}, {"postal_code": "8850091", "postal_hyphen": "885-0091", "pref": "宮崎県", "city": "都城市", "town": "横市町", "full": "宮崎県都城市横市町"}, {"postal_code": "8850006", "postal_hyphen": "885-0006", "pref": "宮崎県", "city": "都城市", "town": "吉尾町", "full": "宮崎県都城市吉尾町"}, {"postal_code": "8850223", "postal_hyphen": "885-0223", "pref": "宮崎県", "city": "都城市", "town": "吉之元町", "full": "宮崎県都城市吉之元町"}, {"postal_code": "8850054", "postal_hyphen": "885-0054", "pref": "宮崎県", "city": "都城市", "town": "若葉町", "full": "宮崎県都城市若葉町"}, {"postal_code": "8820000", "postal_hyphen": "882-0000", "pref": "宮崎県", "city": "延岡市", "town": "", "full": "宮崎県延岡市"}, {"postal_code": "8890517", "postal_hyphen": "889-0517", "pref": "宮崎県", "city": "延岡市", "town": "赤水町", "full": "宮崎県延岡市赤水町"}, {"postal_code": "8820845", "postal_hyphen": "882-0845", "pref": "宮崎県", "city": "延岡市", "town": "安賀多町", "full": "宮崎県延岡市安賀多町"}, {"postal_code": "8890507", "postal_hyphen": "889-0507", "pref": "宮崎県", "city": "延岡市", "town": "旭ケ丘", "full": "宮崎県延岡市旭ケ丘"}, {"postal_code": "8820847", "postal_hyphen": "882-0847", "pref": "宮崎県", "city": "延岡市", "town": "旭町", "full": "宮崎県延岡市旭町"}, {"postal_code": "8820872", "postal_hyphen": "882-0872", "pref": "宮崎県", "city": "延岡市", "town": "愛宕町", "full": "宮崎県延岡市愛宕町"}, {"postal_code": "8820871", "postal_hyphen": "882-0871", "pref": "宮崎県", "city": "延岡市", "town": "愛宕山", "full": "宮崎県延岡市愛宕山"}, {"postal_code": "8820071", "postal_hyphen": "882-0071", "pref": "宮崎県", "city": "延岡市", "town": "天下町", "full": "宮崎県延岡市天下町"}, {"postal_code": "8820025", "postal_hyphen": "882-0025", "pref": "宮崎県", "city": "延岡市", "town": "粟野名町", "full": "宮崎県延岡市粟野名町"}, {"postal_code": "8890503", "postal_hyphen": "889-0503", "pref": "宮崎県", "city": "延岡市", "town": "伊形町", "full": "宮崎県延岡市伊形町"}, {"postal_code": "8890501", "postal_hyphen": "889-0501", "pref": "宮崎県", "city": "延岡市", "town": "石田町", "full": "宮崎県延岡市石田町"}, {"postal_code": "8820831", "postal_hyphen": "882-0831", "pref": "宮崎県", "city": "延岡市", "town": "出口町", "full": "宮崎県延岡市出口町"}, {"postal_code": "8820856", "postal_hyphen": "882-0856", "pref": "宮崎県", "city": "延岡市", "town": "出北", "full": "宮崎県延岡市出北"}, {"postal_code": "8820003", "postal_hyphen": "882-0003", "pref": "宮崎県", "city": "延岡市", "town": "稲葉崎町", "full": "宮崎県延岡市稲葉崎町"}, {"postal_code": "8820095", "postal_hyphen": "882-0095", "pref": "宮崎県", "city": "延岡市", "town": "浦城町", "full": "宮崎県延岡市浦城町"}, {"postal_code": "8820084", "postal_hyphen": "882-0084", "pref": "宮崎県", "city": "延岡市", "town": "宇和田町", "full": "宮崎県延岡市宇和田町"}, {"postal_code": "8820046", "postal_hyphen": "882-0046", "pref": "宮崎県", "city": "延岡市", "town": "恵比須町", "full": "宮崎県延岡市恵比須町"}, {"postal_code": "8820013", "postal_hyphen": "882-0013", "pref": "宮崎県", "city": "延岡市", "town": "追内町", "full": "宮崎県延岡市追内町"}, {"postal_code": "8820001", "postal_hyphen": "882-0001", "pref": "宮崎県", "city": "延岡市", "town": "大峡町", "full": "宮崎県延岡市大峡町"}, {"postal_code": "8820027", "postal_hyphen": "882-0027", "pref": "宮崎県", "city": "延岡市", "town": "大門町", "full": "宮崎県延岡市大門町"}, {"postal_code": "8820841", "postal_hyphen": "882-0841", "pref": "宮崎県", "city": "延岡市", "town": "大瀬町", "full": "宮崎県延岡市大瀬町"}, {"postal_code": "8820024", "postal_hyphen": "882-0024", "pref": "宮崎県", "city": "延岡市", "town": "大武町", "full": "宮崎県延岡市大武町"}, {"postal_code": "8820803", "postal_hyphen": "882-0803", "pref": "宮崎県", "city": "延岡市", "town": "大貫町", "full": "宮崎県延岡市大貫町"}, {"postal_code": "8820086", "postal_hyphen": "882-0086", "pref": "宮崎県", "city": "延岡市", "town": "大野町", "full": "宮崎県延岡市大野町"}, {"postal_code": "8820056", "postal_hyphen": "882-0056", "pref": "宮崎県", "city": "延岡市", "town": "岡富町", "full": "宮崎県延岡市岡富町"}, {"postal_code": "8820057", "postal_hyphen": "882-0057", "pref": "宮崎県", "city": "延岡市", "town": "岡富山", "full": "宮崎県延岡市岡富山"}, {"postal_code": "8820075", "postal_hyphen": "882-0075", "pref": "宮崎県", "city": "延岡市", "town": "岡元町", "full": "宮崎県延岡市岡元町"}, {"postal_code": "8820876", "postal_hyphen": "882-0876", "pref": "宮崎県", "city": "延岡市", "town": "沖田町", "full": "宮崎県延岡市沖田町"}, {"postal_code": "8820006", "postal_hyphen": "882-0006", "pref": "宮崎県", "city": "延岡市", "town": "尾崎町", "full": "宮崎県延岡市尾崎町"}, {"postal_code": "8820855", "postal_hyphen": "882-0855", "pref": "宮崎県", "city": "延岡市", "town": "卸本町", "full": "宮崎県延岡市卸本町"}, {"postal_code": "8820073", "postal_hyphen": "882-0073", "pref": "宮崎県", "city": "延岡市", "town": "貝の畑町", "full": "宮崎県延岡市貝の畑町"}, {"postal_code": "8820085", "postal_hyphen": "882-0085", "pref": "宮崎県", "city": "延岡市", "town": "鹿狩瀬町", "full": "宮崎県延岡市鹿狩瀬町"}, {"postal_code": "8820004", "postal_hyphen": "882-0004", "pref": "宮崎県", "city": "延岡市", "town": "樫山町", "full": "宮崎県延岡市樫山町"}, {"postal_code": "8820012", "postal_hyphen": "882-0012", "pref": "宮崎県", "city": "延岡市", "town": "鹿小路", "full": "宮崎県延岡市鹿小路"}, {"postal_code": "8820844", "postal_hyphen": "882-0844", "pref": "宮崎県", "city": "延岡市", "town": "春日町", "full": "宮崎県延岡市春日町"}, {"postal_code": "8820877", "postal_hyphen": "882-0877", "pref": "宮崎県", "city": "延岡市", "town": "片田町", "full": "宮崎県延岡市片田町"}, {"postal_code": "8820867", "postal_hyphen": "882-0867", "pref": "宮崎県", "city": "延岡市", "town": "構口町", "full": "宮崎県延岡市構口町"}, {"postal_code": "8890502", "postal_hyphen": "889-0502", "pref": "宮崎県", "city": "延岡市", "town": "上伊形町", "full": "宮崎県延岡市上伊形町"}, {"postal_code": "8820833", "postal_hyphen": "882-0833", "pref": "宮崎県", "city": "延岡市", "town": "上大瀬町", "full": "宮崎県延岡市上大瀬町"}, {"postal_code": "8820885", "postal_hyphen": "882-0885", "pref": "宮崎県", "city": "延岡市", "town": "上三輪町", "full": "宮崎県延岡市上三輪町"}, {"postal_code": "8820017", "postal_hyphen": "882-0017", "pref": "宮崎県", "city": "延岡市", "town": "川島町", "full": "宮崎県延岡市川島町"}, {"postal_code": "8820033", "postal_hyphen": "882-0033", "pref": "宮崎県", "city": "延岡市", "town": "川原崎町", "full": "宮崎県延岡市川原崎町"}, {"postal_code": "8820043", "postal_hyphen": "882-0043", "pref": "宮崎県", "city": "延岡市", "town": "祗園町", "full": "宮崎県延岡市祗園町"}, {"postal_code": "8890302", "postal_hyphen": "889-0302", "pref": "宮崎県", "city": "延岡市", "town": "北浦町市振", "full": "宮崎県延岡市北浦町市振"}, {"postal_code": "8890301", "postal_hyphen": "889-0301", "pref": "宮崎県", "city": "延岡市", "town": "北浦町古江", "full": "宮崎県延岡市北浦町古江"}, {"postal_code": "8890304", "postal_hyphen": "889-0304", "pref": "宮崎県", "city": "延岡市", "town": "北浦町三川内", "full": "宮崎県延岡市北浦町三川内"}, {"postal_code": "8890303", "postal_hyphen": "889-0303", "pref": "宮崎県", "city": "延岡市", "town": "北浦町宮野浦", "full": "宮崎県延岡市北浦町宮野浦"}, {"postal_code": "8820121", "postal_hyphen": "882-0121", "pref": "宮崎県", "city": "延岡市", "town": "北方町板上", "full": "宮崎県延岡市北方町板上"}, {"postal_code": "8820122", "postal_hyphen": "882-0122", "pref": "宮崎県", "city": "延岡市", "town": "北方町板下", "full": "宮崎県延岡市北方町板下"}, {"postal_code": "8820123", "postal_hyphen": "882-0123", "pref": "宮崎県", "city": "延岡市", "town": "北方町うそ越", "full": "宮崎県延岡市北方町うそ越"}, {"postal_code": "8820106", "postal_hyphen": "882-0106", "pref": "宮崎県", "city": "延岡市", "town": "北方町笠下", "full": "宮崎県延岡市北方町笠下"}, {"postal_code": "8820126", "postal_hyphen": "882-0126", "pref": "宮崎県", "city": "延岡市", "town": "北方町上崎", "full": "宮崎県延岡市北方町上崎"}, {"postal_code": "8820231", "postal_hyphen": "882-0231", "pref": "宮崎県", "city": "延岡市", "town": "北方町上鹿川", "full": "宮崎県延岡市北方町上鹿川"}, {"postal_code": "8820125", "postal_hyphen": "882-0125", "pref": "宮崎県", "city": "延岡市", "town": "北方町川水流", "full": "宮崎県延岡市北方町川水流"}, {"postal_code": "8820129", "postal_hyphen": "882-0129", "pref": "宮崎県", "city": "延岡市", "town": "北方町北久保山", "full": "宮崎県延岡市北方町北久保山"}, {"postal_code": "8820127", "postal_hyphen": "882-0127", "pref": "宮崎県", "city": "延岡市", "town": "北方町蔵田", "full": "宮崎県延岡市北方町蔵田"}, {"postal_code": "8820241", "postal_hyphen": "882-0241", "pref": "宮崎県", "city": "延岡市", "town": "北方町三ケ村", "full": "宮崎県延岡市北方町三ケ村"}, {"postal_code": "8820237", "postal_hyphen": "882-0237", "pref": "宮崎県", "city": "延岡市", "town": "北方町椎畑", "full": "宮崎県延岡市北方町椎畑"}, {"postal_code": "8820232", "postal_hyphen": "882-0232", "pref": "宮崎県", "city": "延岡市", "town": "北方町下鹿川", "full": "宮崎県延岡市北方町下鹿川"}, {"postal_code": "8820233", "postal_hyphen": "882-0233", "pref": "宮崎県", "city": "延岡市", "town": "北方町菅原", "full": "宮崎県延岡市北方町菅原"}, {"postal_code": "8820124", "postal_hyphen": "882-0124", "pref": "宮崎県", "city": "延岡市", "town": "北方町曽木", "full": "宮崎県延岡市北方町曽木"}, {"postal_code": "8820238", "postal_hyphen": "882-0238", "pref": "宮崎県", "city": "延岡市", "town": "北方町滝下", "full": "宮崎県延岡市北方町滝下"}, {"postal_code": "8820104", "postal_hyphen": "882-0104", "pref": "宮崎県", "city": "延岡市", "town": "北方町角田", "full": "宮崎県延岡市北方町角田"}, {"postal_code": "8820245", "postal_hyphen": "882-0245", "pref": "宮崎県", "city": "延岡市", "town": "北方町早上", "full": "宮崎県延岡市北方町早上"}, {"postal_code": "8820244", "postal_hyphen": "882-0244", "pref": "宮崎県", "city": "延岡市", "town": "北方町早中", "full": "宮崎県延岡市北方町早中"}, {"postal_code": "8820243", "postal_hyphen": "882-0243", "pref": "宮崎県", "city": "延岡市", "town": "北方町早日渡", "full": "宮崎県延岡市北方町早日渡"}, {"postal_code": "8820236", "postal_hyphen": "882-0236", "pref": "宮崎県", "city": "延岡市", "town": "北方町日平", "full": "宮崎県延岡市北方町日平"}, {"postal_code": "8820107", "postal_hyphen": "882-0107", "pref": "宮崎県", "city": "延岡市", "town": "北方町藤の木", "full": "宮崎県延岡市北方町藤の木"}, {"postal_code": "8820101", "postal_hyphen": "882-0101", "pref": "宮崎県", "city": "延岡市", "town": "北方町二股", "full": "宮崎県延岡市北方町二股"}, {"postal_code": "8820235", "postal_hyphen": "882-0235", "pref": "宮崎県", "city": "延岡市", "town": "北方町槇峰", "full": "宮崎県延岡市北方町槇峰"}, {"postal_code": "8820128", "postal_hyphen": "882-0128", "pref": "宮崎県", "city": "延岡市", "town": "北方町南久保山", "full": "宮崎県延岡市北方町南久保山"}, {"postal_code": "8820234", "postal_hyphen": "882-0234", "pref": "宮崎県", "city": "延岡市", "town": "北方町美々地", "full": "宮崎県延岡市北方町美々地"}, {"postal_code": "8820242", "postal_hyphen": "882-0242", "pref": "宮崎県", "city": "延岡市", "town": "北方町八峡", "full": "宮崎県延岡市北方町八峡"}, {"postal_code": "8820097", "postal_hyphen": "882-0097", "pref": "宮崎県", "city": "延岡市", "town": "北川町川内名（祝子川）", "full": "宮崎県延岡市北川町川内名（祝子川）"}, {"postal_code": "8890101", "postal_hyphen": "889-0101", "pref": "宮崎県", "city": "延岡市", "town": "北川町川内名（その他）", "full": "宮崎県延岡市北川町川内名（その他）"}, {"postal_code": "8890102", "postal_hyphen": "889-0102", "pref": "宮崎県", "city": "延岡市", "town": "北川町長井", "full": "宮崎県延岡市北川町長井"}, {"postal_code": "8820041", "postal_hyphen": "882-0041", "pref": "宮崎県", "city": "延岡市", "town": "北小路", "full": "宮崎県延岡市北小路"}, {"postal_code": "8820834", "postal_hyphen": "882-0834", "pref": "宮崎県", "city": "延岡市", "town": "北新小路", "full": "宮崎県延岡市北新小路"}, {"postal_code": "8890505", "postal_hyphen": "889-0505", "pref": "宮崎県", "city": "延岡市", "town": "北一ケ岡", "full": "宮崎県延岡市北一ケ岡"}, {"postal_code": "8820814", "postal_hyphen": "882-0814", "pref": "宮崎県", "city": "延岡市", "town": "北町", "full": "宮崎県延岡市北町"}, {"postal_code": "8820873", "postal_hyphen": "882-0873", "pref": "宮崎県", "city": "延岡市", "town": "共栄町", "full": "宮崎県延岡市共栄町"}, {"postal_code": "8890514", "postal_hyphen": "889-0514", "pref": "宮崎県", "city": "延岡市", "town": "櫛津町", "full": "宮崎県延岡市櫛津町"}, {"postal_code": "8890322", "postal_hyphen": "889-0322", "pref": "宮崎県", "city": "延岡市", "town": "熊野江町", "full": "宮崎県延岡市熊野江町"}, {"postal_code": "8820091", "postal_hyphen": "882-0091", "pref": "宮崎県", "city": "延岡市", "town": "桑平町", "full": "宮崎県延岡市桑平町"}, {"postal_code": "8820093", "postal_hyphen": "882-0093", "pref": "宮崎県", "city": "延岡市", "town": "神戸町", "full": "宮崎県延岡市神戸町"}, {"postal_code": "8820076", "postal_hyphen": "882-0076", "pref": "宮崎県", "city": "延岡市", "town": "小川町", "full": "宮崎県延岡市小川町"}, {"postal_code": "8820882", "postal_hyphen": "882-0882", "pref": "宮崎県", "city": "延岡市", "town": "小野町", "full": "宮崎県延岡市小野町"}, {"postal_code": "8820061", "postal_hyphen": "882-0061", "pref": "宮崎県", "city": "延岡市", "town": "小峰町", "full": "宮崎県延岡市小峰町"}, {"postal_code": "8820047", "postal_hyphen": "882-0047", "pref": "宮崎県", "city": "延岡市", "town": "紺屋町", "full": "宮崎県延岡市紺屋町"}, {"postal_code": "8820832", "postal_hyphen": "882-0832", "pref": "宮崎県", "city": "延岡市", "town": "西小路", "full": "宮崎県延岡市西小路"}, {"postal_code": "8820053", "postal_hyphen": "882-0053", "pref": "宮崎県", "city": "延岡市", "town": "幸町", "full": "宮崎県延岡市幸町"}, {"postal_code": "8820054", "postal_hyphen": "882-0054", "pref": "宮崎県", "city": "延岡市", "town": "栄町", "full": "宮崎県延岡市栄町"}, {"postal_code": "8820007", "postal_hyphen": "882-0007", "pref": "宮崎県", "city": "延岡市", "town": "桜ケ丘", "full": "宮崎県延岡市桜ケ丘"}, {"postal_code": "8820816", "postal_hyphen": "882-0816", "pref": "宮崎県", "city": "延岡市", "town": "桜小路", "full": "宮崎県延岡市桜小路"}, {"postal_code": "8820036", "postal_hyphen": "882-0036", "pref": "宮崎県", "city": "延岡市", "town": "桜園町", "full": "宮崎県延岡市桜園町"}, {"postal_code": "8820002", "postal_hyphen": "882-0002", "pref": "宮崎県", "city": "延岡市", "town": "差木野町", "full": "宮崎県延岡市差木野町"}, {"postal_code": "8820081", "postal_hyphen": "882-0081", "pref": "宮崎県", "city": "延岡市", "town": "佐野町", "full": "宮崎県延岡市佐野町"}, {"postal_code": "8820864", "postal_hyphen": "882-0864", "pref": "宮崎県", "city": "延岡市", "town": "塩浜町", "full": "宮崎県延岡市塩浜町"}, {"postal_code": "8820096", "postal_hyphen": "882-0096", "pref": "宮崎県", "city": "延岡市", "town": "島浦町", "full": "宮崎県延岡市島浦町"}, {"postal_code": "8890504", "postal_hyphen": "889-0504", "pref": "宮崎県", "city": "延岡市", "town": "下伊形町", "full": "宮崎県延岡市下伊形町"}, {"postal_code": "8820883", "postal_hyphen": "882-0883", "pref": "宮崎県", "city": "延岡市", "town": "下三輪町", "full": "宮崎県延岡市下三輪町"}, {"postal_code": "8820034", "postal_hyphen": "882-0034", "pref": "宮崎県", "city": "延岡市", "town": "昭和町", "full": "宮崎県延岡市昭和町"}, {"postal_code": "8820014", "postal_hyphen": "882-0014", "pref": "宮崎県", "city": "延岡市", "town": "白石町", "full": "宮崎県延岡市白石町"}, {"postal_code": "8820835", "postal_hyphen": "882-0835", "pref": "宮崎県", "city": "延岡市", "town": "新小路", "full": "宮崎県延岡市新小路"}, {"postal_code": "8890512", "postal_hyphen": "889-0512", "pref": "宮崎県", "city": "延岡市", "town": "新浜町", "full": "宮崎県延岡市新浜町"}, {"postal_code": "8820827", "postal_hyphen": "882-0827", "pref": "宮崎県", "city": "延岡市", "town": "新町", "full": "宮崎県延岡市新町"}, {"postal_code": "8820011", "postal_hyphen": "882-0011", "pref": "宮崎県", "city": "延岡市", "town": "須佐町", "full": "宮崎県延岡市須佐町"}, {"postal_code": "8820825", "postal_hyphen": "882-0825", "pref": "宮崎県", "city": "延岡市", "town": "須崎町", "full": "宮崎県延岡市須崎町"}, {"postal_code": "8890321", "postal_hyphen": "889-0321", "pref": "宮崎県", "city": "延岡市", "town": "須美江町", "full": "宮崎県延岡市須美江町"}, {"postal_code": "8820045", "postal_hyphen": "882-0045", "pref": "宮崎県", "city": "延岡市", "town": "瀬之口町", "full": "宮崎県延岡市瀬之口町"}, {"postal_code": "8820857", "postal_hyphen": "882-0857", "pref": "宮崎県", "city": "延岡市", "town": "惣領町", "full": "宮崎県延岡市惣領町"}, {"postal_code": "8890516", "postal_hyphen": "889-0516", "pref": "宮崎県", "city": "延岡市", "town": "鯛名町", "full": "宮崎県延岡市鯛名町"}, {"postal_code": "8820042", "postal_hyphen": "882-0042", "pref": "宮崎県", "city": "延岡市", "town": "高千穂通", "full": "宮崎県延岡市高千穂通"}, {"postal_code": "8820064", "postal_hyphen": "882-0064", "pref": "宮崎県", "city": "延岡市", "town": "高野町", "full": "宮崎県延岡市高野町"}, {"postal_code": "8820874", "postal_hyphen": "882-0874", "pref": "宮崎県", "city": "延岡市", "town": "伊達町", "full": "宮崎県延岡市伊達町"}, {"postal_code": "8820824", "postal_hyphen": "882-0824", "pref": "宮崎県", "city": "延岡市", "town": "中央通", "full": "宮崎県延岡市中央通"}, {"postal_code": "8820836", "postal_hyphen": "882-0836", "pref": "宮崎県", "city": "延岡市", "town": "恒富町", "full": "宮崎県延岡市恒富町"}, {"postal_code": "8820865", "postal_hyphen": "882-0865", "pref": "宮崎県", "city": "延岡市", "town": "鶴ケ丘", "full": "宮崎県延岡市鶴ケ丘"}, {"postal_code": "8820811", "postal_hyphen": "882-0811", "pref": "宮崎県", "city": "延岡市", "town": "天神小路", "full": "宮崎県延岡市天神小路"}, {"postal_code": "8820016", "postal_hyphen": "882-0016", "pref": "宮崎県", "city": "延岡市", "town": "東海町", "full": "宮崎県延岡市東海町"}, {"postal_code": "8890513", "postal_hyphen": "889-0513", "pref": "宮崎県", "city": "延岡市", "town": "土々呂町", "full": "宮崎県延岡市土々呂町"}, {"postal_code": "8820051", "postal_hyphen": "882-0051", "pref": "宮崎県", "city": "延岡市", "town": "富美山町", "full": "宮崎県延岡市富美山町"}, {"postal_code": "8820031", "postal_hyphen": "882-0031", "pref": "宮崎県", "city": "延岡市", "town": "中川原町", "full": "宮崎県延岡市中川原町"}, {"postal_code": "8820846", "postal_hyphen": "882-0846", "pref": "宮崎県", "city": "延岡市", "town": "中島町", "full": "宮崎県延岡市中島町"}, {"postal_code": "8820032", "postal_hyphen": "882-0032", "pref": "宮崎県", "city": "延岡市", "town": "中の瀬町", "full": "宮崎県延岡市中の瀬町"}, {"postal_code": "8820823", "postal_hyphen": "882-0823", "pref": "宮崎県", "city": "延岡市", "town": "中町", "full": "宮崎県延岡市中町"}, {"postal_code": "8820884", "postal_hyphen": "882-0884", "pref": "宮崎県", "city": "延岡市", "town": "中三輪町", "full": "宮崎県延岡市中三輪町"}, {"postal_code": "8820843", "postal_hyphen": "882-0843", "pref": "宮崎県", "city": "延岡市", "town": "永池町", "full": "宮崎県延岡市永池町"}, {"postal_code": "8820854", "postal_hyphen": "882-0854", "pref": "宮崎県", "city": "延岡市", "town": "長浜町", "full": "宮崎県延岡市長浜町"}, {"postal_code": "8820005", "postal_hyphen": "882-0005", "pref": "宮崎県", "city": "延岡市", "town": "夏田町", "full": "宮崎県延岡市夏田町"}, {"postal_code": "8820804", "postal_hyphen": "882-0804", "pref": "宮崎県", "city": "延岡市", "town": "西階町", "full": "宮崎県延岡市西階町"}, {"postal_code": "8820802", "postal_hyphen": "882-0802", "pref": "宮崎県", "city": "延岡市", "town": "野地町", "full": "宮崎県延岡市野地町"}, {"postal_code": "8820805", "postal_hyphen": "882-0805", "pref": "宮崎県", "city": "延岡市", "town": "野田", "full": "宮崎県延岡市野田"}, {"postal_code": "8820801", "postal_hyphen": "882-0801", "pref": "宮崎県", "city": "延岡市", "town": "野田町", "full": "宮崎県延岡市野田町"}, {"postal_code": "8820052", "postal_hyphen": "882-0052", "pref": "宮崎県", "city": "延岡市", "town": "萩町", "full": "宮崎県延岡市萩町"}, {"postal_code": "8820044", "postal_hyphen": "882-0044", "pref": "宮崎県", "city": "延岡市", "town": "博労町", "full": "宮崎県延岡市博労町"}, {"postal_code": "8820851", "postal_hyphen": "882-0851", "pref": "宮崎県", "city": "延岡市", "town": "浜砂", "full": "宮崎県延岡市浜砂"}, {"postal_code": "8820862", "postal_hyphen": "882-0862", "pref": "宮崎県", "city": "延岡市", "town": "浜町", "full": "宮崎県延岡市浜町"}, {"postal_code": "8820852", "postal_hyphen": "882-0852", "pref": "宮崎県", "city": "延岡市", "town": "東浜砂町", "full": "宮崎県延岡市東浜砂町"}, {"postal_code": "8820813", "postal_hyphen": "882-0813", "pref": "宮崎県", "city": "延岡市", "town": "東本小路", "full": "宮崎県延岡市東本小路"}, {"postal_code": "8820035", "postal_hyphen": "882-0035", "pref": "宮崎県", "city": "延岡市", "town": "日の出町", "full": "宮崎県延岡市日の出町"}, {"postal_code": "8820861", "postal_hyphen": "882-0861", "pref": "宮崎県", "city": "延岡市", "town": "別府町", "full": "宮崎県延岡市別府町"}, {"postal_code": "8820065", "postal_hyphen": "882-0065", "pref": "宮崎県", "city": "延岡市", "town": "平田町", "full": "宮崎県延岡市平田町"}, {"postal_code": "8820866", "postal_hyphen": "882-0866", "pref": "宮崎県", "city": "延岡市", "town": "平原町", "full": "宮崎県延岡市平原町"}, {"postal_code": "8820022", "postal_hyphen": "882-0022", "pref": "宮崎県", "city": "延岡市", "town": "二ツ島町", "full": "宮崎県延岡市二ツ島町"}, {"postal_code": "8820826", "postal_hyphen": "882-0826", "pref": "宮崎県", "city": "延岡市", "town": "船倉町", "full": "宮崎県延岡市船倉町"}, {"postal_code": "8820063", "postal_hyphen": "882-0063", "pref": "宮崎県", "city": "延岡市", "town": "古川町", "full": "宮崎県延岡市古川町"}, {"postal_code": "8820837", "postal_hyphen": "882-0837", "pref": "宮崎県", "city": "延岡市", "town": "古城町", "full": "宮崎県延岡市古城町"}, {"postal_code": "8820853", "postal_hyphen": "882-0853", "pref": "宮崎県", "city": "延岡市", "town": "方財町", "full": "宮崎県延岡市方財町"}, {"postal_code": "8820082", "postal_hyphen": "882-0082", "pref": "宮崎県", "city": "延岡市", "town": "祝子町", "full": "宮崎県延岡市祝子町"}, {"postal_code": "8820074", "postal_hyphen": "882-0074", "pref": "宮崎県", "city": "延岡市", "town": "細見町", "full": "宮崎県延岡市細見町"}, {"postal_code": "8820812", "postal_hyphen": "882-0812", "pref": "宮崎県", "city": "延岡市", "town": "本小路", "full": "宮崎県延岡市本小路"}, {"postal_code": "8820821", "postal_hyphen": "882-0821", "pref": "宮崎県", "city": "延岡市", "town": "本町", "full": "宮崎県延岡市本町"}, {"postal_code": "8820066", "postal_hyphen": "882-0066", "pref": "宮崎県", "city": "延岡市", "town": "舞野町", "full": "宮崎県延岡市舞野町"}, {"postal_code": "8820023", "postal_hyphen": "882-0023", "pref": "宮崎県", "city": "延岡市", "town": "牧町", "full": "宮崎県延岡市牧町"}, {"postal_code": "8890511", "postal_hyphen": "889-0511", "pref": "宮崎県", "city": "延岡市", "town": "松原町", "full": "宮崎県延岡市松原町"}, {"postal_code": "8820062", "postal_hyphen": "882-0062", "pref": "宮崎県", "city": "延岡市", "town": "松山町", "full": "宮崎県延岡市松山町"}, {"postal_code": "8820881", "postal_hyphen": "882-0881", "pref": "宮崎県", "city": "延岡市", "town": "三須町", "full": "宮崎県延岡市三須町"}, {"postal_code": "8820015", "postal_hyphen": "882-0015", "pref": "宮崎県", "city": "延岡市", "town": "水尻町", "full": "宮崎県延岡市水尻町"}, {"postal_code": "8820842", "postal_hyphen": "882-0842", "pref": "宮崎県", "city": "延岡市", "town": "三ツ瀬町", "full": "宮崎県延岡市三ツ瀬町"}, {"postal_code": "8820863", "postal_hyphen": "882-0863", "pref": "宮崎県", "city": "延岡市", "town": "緑ケ丘", "full": "宮崎県延岡市緑ケ丘"}, {"postal_code": "8890506", "postal_hyphen": "889-0506", "pref": "宮崎県", "city": "延岡市", "town": "南一ケ岡", "full": "宮崎県延岡市南一ケ岡"}, {"postal_code": "8820822", "postal_hyphen": "882-0822", "pref": "宮崎県", "city": "延岡市", "town": "南町", "full": "宮崎県延岡市南町"}, {"postal_code": "8820092", "postal_hyphen": "882-0092", "pref": "宮崎県", "city": "延岡市", "town": "宮長町", "full": "宮崎県延岡市宮長町"}, {"postal_code": "8890515", "postal_hyphen": "889-0515", "pref": "宮崎県", "city": "延岡市", "town": "妙見町", "full": "宮崎県延岡市妙見町"}, {"postal_code": "8820087", "postal_hyphen": "882-0087", "pref": "宮崎県", "city": "延岡市", "town": "妙町", "full": "宮崎県延岡市妙町"}, {"postal_code": "8820077", "postal_hyphen": "882-0077", "pref": "宮崎県", "city": "延岡市", "town": "行縢町", "full": "宮崎県延岡市行縢町"}, {"postal_code": "8820021", "postal_hyphen": "882-0021", "pref": "宮崎県", "city": "延岡市", "town": "無鹿町", "full": "宮崎県延岡市無鹿町"}, {"postal_code": "8820094", "postal_hyphen": "882-0094", "pref": "宮崎県", "city": "延岡市", "town": "安井町", "full": "宮崎県延岡市安井町"}, {"postal_code": "8820815", "postal_hyphen": "882-0815", "pref": "宮崎県", "city": "延岡市", "town": "柳沢町", "full": "宮崎県延岡市柳沢町"}, {"postal_code": "8820055", "postal_hyphen": "882-0055", "pref": "宮崎県", "city": "延岡市", "town": "山下町", "full": "宮崎県延岡市山下町"}, {"postal_code": "8820037", "postal_hyphen": "882-0037", "pref": "宮崎県", "city": "延岡市", "town": "山月町", "full": "宮崎県延岡市山月町"}, {"postal_code": "8820083", "postal_hyphen": "882-0083", "pref": "宮崎県", "city": "延岡市", "town": "柚木町", "full": "宮崎県延岡市柚木町"}, {"postal_code": "8820026", "postal_hyphen": "882-0026", "pref": "宮崎県", "city": "延岡市", "town": "柚の木田町", "full": "宮崎県延岡市柚の木田町"}, {"postal_code": "8820072", "postal_hyphen": "882-0072", "pref": "宮崎県", "city": "延岡市", "town": "吉野町", "full": "宮崎県延岡市吉野町"}, {"postal_code": "8820875", "postal_hyphen": "882-0875", "pref": "宮崎県", "city": "延岡市", "town": "若葉町", "full": "宮崎県延岡市若葉町"}, {"postal_code": "8870000", "postal_hyphen": "887-0000", "pref": "宮崎県", "city": "日南市", "town": "", "full": "宮崎県日南市"}, {"postal_code": "8870041", "postal_hyphen": "887-0041", "pref": "宮崎県", "city": "日南市", "town": "吾田東（１〜４丁目）", "full": "宮崎県日南市吾田東（１〜４丁目）"}, {"postal_code": "8892541", "postal_hyphen": "889-2541", "pref": "宮崎県", "city": "日南市", "town": "吾田東（５〜１１丁目）", "full": "宮崎県日南市吾田東（５〜１１丁目）"}, {"postal_code": "8892536", "postal_hyphen": "889-2536", "pref": "宮崎県", "city": "日南市", "town": "吾田西", "full": "宮崎県日南市吾田西"}, {"postal_code": "8870001", "postal_hyphen": "887-0001", "pref": "宮崎県", "city": "日南市", "town": "油津", "full": "宮崎県日南市油津"}, {"postal_code": "8892532", "postal_hyphen": "889-2532", "pref": "宮崎県", "city": "日南市", "town": "板敷", "full": "宮崎県日南市板敷"}, {"postal_code": "8870111", "postal_hyphen": "887-0111", "pref": "宮崎県", "city": "日南市", "town": "伊比井", "full": "宮崎県日南市伊比井"}, {"postal_code": "8892525", "postal_hyphen": "889-2525", "pref": "宮崎県", "city": "日南市", "town": "今町", "full": "宮崎県日南市今町"}, {"postal_code": "8870014", "postal_hyphen": "887-0014", "pref": "宮崎県", "city": "日南市", "town": "岩崎", "full": "宮崎県日南市岩崎"}, {"postal_code": "8870017", "postal_hyphen": "887-0017", "pref": "宮崎県", "city": "日南市", "town": "梅ケ浜", "full": "宮崎県日南市梅ケ浜"}, {"postal_code": "8893156", "postal_hyphen": "889-3156", "pref": "宮崎県", "city": "日南市", "town": "大窪", "full": "宮崎県日南市大窪"}, {"postal_code": "8893141", "postal_hyphen": "889-3141", "pref": "宮崎県", "city": "日南市", "town": "大堂津", "full": "宮崎県日南市大堂津"}, {"postal_code": "8870007", "postal_hyphen": "887-0007", "pref": "宮崎県", "city": "日南市", "town": "乙姫町", "full": "宮崎県日南市乙姫町"}, {"postal_code": "8892535", "postal_hyphen": "889-2535", "pref": "宮崎県", "city": "日南市", "town": "飫肥", "full": "宮崎県日南市飫肥"}, {"postal_code": "8870006", "postal_hyphen": "887-0006", "pref": "宮崎県", "city": "日南市", "town": "春日町", "full": "宮崎県日南市春日町"}, {"postal_code": "8870034", "postal_hyphen": "887-0034", "pref": "宮崎県", "city": "日南市", "town": "風田", "full": "宮崎県日南市風田"}, {"postal_code": "8893151", "postal_hyphen": "889-3151", "pref": "宮崎県", "city": "日南市", "town": "上方", "full": "宮崎県日南市上方"}, {"postal_code": "8870022", "postal_hyphen": "887-0022", "pref": "宮崎県", "city": "日南市", "town": "上平野町", "full": "宮崎県日南市上平野町"}, {"postal_code": "8892401", "postal_hyphen": "889-2401", "pref": "宮崎県", "city": "日南市", "town": "北郷町大藤", "full": "宮崎県日南市北郷町大藤"}, {"postal_code": "8892403", "postal_hyphen": "889-2403", "pref": "宮崎県", "city": "日南市", "town": "北郷町北河内", "full": "宮崎県日南市北郷町北河内"}, {"postal_code": "8892402", "postal_hyphen": "889-2402", "pref": "宮崎県", "city": "日南市", "town": "北郷町郷之原", "full": "宮崎県日南市北郷町郷之原"}, {"postal_code": "8870013", "postal_hyphen": "887-0013", "pref": "宮崎県", "city": "日南市", "town": "木山", "full": "宮崎県日南市木山"}, {"postal_code": "8892514", "postal_hyphen": "889-2514", "pref": "宮崎県", "city": "日南市", "town": "楠原", "full": "宮崎県日南市楠原"}, {"postal_code": "8870023", "postal_hyphen": "887-0023", "pref": "宮崎県", "city": "日南市", "town": "隈谷", "full": "宮崎県日南市隈谷"}, {"postal_code": "8893152", "postal_hyphen": "889-3152", "pref": "宮崎県", "city": "日南市", "town": "毛吉田", "full": "宮崎県日南市毛吉田"}, {"postal_code": "8870005", "postal_hyphen": "887-0005", "pref": "宮崎県", "city": "日南市", "town": "材木町", "full": "宮崎県日南市材木町"}, {"postal_code": "8892512", "postal_hyphen": "889-2512", "pref": "宮崎県", "city": "日南市", "town": "酒谷甲", "full": "宮崎県日南市酒谷甲"}, {"postal_code": "8892511", "postal_hyphen": "889-2511", "pref": "宮崎県", "city": "日南市", "town": "酒谷乙", "full": "宮崎県日南市酒谷乙"}, {"postal_code": "8893142", "postal_hyphen": "889-3142", "pref": "宮崎県", "city": "日南市", "town": "塩鶴", "full": "宮崎県日南市塩鶴"}, {"postal_code": "8893143", "postal_hyphen": "889-3143", "pref": "宮崎県", "city": "日南市", "town": "下方", "full": "宮崎県日南市下方"}, {"postal_code": "8870011", "postal_hyphen": "887-0011", "pref": "宮崎県", "city": "日南市", "town": "瀬貝", "full": "宮崎県日南市瀬貝"}, {"postal_code": "8870003", "postal_hyphen": "887-0003", "pref": "宮崎県", "city": "日南市", "town": "瀬西", "full": "宮崎県日南市瀬西"}, {"postal_code": "8870012", "postal_hyphen": "887-0012", "pref": "宮崎県", "city": "日南市", "town": "園田", "full": "宮崎県日南市園田"}, {"postal_code": "8870021", "postal_hyphen": "887-0021", "pref": "宮崎県", "city": "日南市", "town": "中央通", "full": "宮崎県日南市中央通"}, {"postal_code": "8893154", "postal_hyphen": "889-3154", "pref": "宮崎県", "city": "日南市", "town": "塚田甲", "full": "宮崎県日南市塚田甲"}, {"postal_code": "8893155", "postal_hyphen": "889-3155", "pref": "宮崎県", "city": "日南市", "town": "塚田乙", "full": "宮崎県日南市塚田乙"}, {"postal_code": "8870004", "postal_hyphen": "887-0004", "pref": "宮崎県", "city": "日南市", "town": "天福", "full": "宮崎県日南市天福"}, {"postal_code": "8892534", "postal_hyphen": "889-2534", "pref": "宮崎県", "city": "日南市", "town": "時任町", "full": "宮崎県日南市時任町"}, {"postal_code": "8870031", "postal_hyphen": "887-0031", "pref": "宮崎県", "city": "日南市", "town": "戸高", "full": "宮崎県日南市戸高"}, {"postal_code": "8892524", "postal_hyphen": "889-2524", "pref": "宮崎県", "city": "日南市", "town": "殿所", "full": "宮崎県日南市殿所"}, {"postal_code": "8870016", "postal_hyphen": "887-0016", "pref": "宮崎県", "city": "日南市", "town": "中平野", "full": "宮崎県日南市中平野"}, {"postal_code": "8893213", "postal_hyphen": "889-3213", "pref": "宮崎県", "city": "日南市", "town": "南郷町潟上", "full": "宮崎県日南市南郷町潟上"}, {"postal_code": "8893203", "postal_hyphen": "889-3203", "pref": "宮崎県", "city": "日南市", "town": "南郷町谷之口", "full": "宮崎県日南市南郷町谷之口"}, {"postal_code": "8893201", "postal_hyphen": "889-3201", "pref": "宮崎県", "city": "日南市", "town": "南郷町津屋野", "full": "宮崎県日南市南郷町津屋野"}, {"postal_code": "8893202", "postal_hyphen": "889-3202", "pref": "宮崎県", "city": "日南市", "town": "南郷町中村甲", "full": "宮崎県日南市南郷町中村甲"}, {"postal_code": "8893204", "postal_hyphen": "889-3204", "pref": "宮崎県", "city": "日南市", "town": "南郷町中村乙", "full": "宮崎県日南市南郷町中村乙"}, {"postal_code": "8893211", "postal_hyphen": "889-3211", "pref": "宮崎県", "city": "日南市", "town": "南郷町贄波", "full": "宮崎県日南市南郷町贄波"}, {"postal_code": "8893205", "postal_hyphen": "889-3205", "pref": "宮崎県", "city": "日南市", "town": "南郷町西町", "full": "宮崎県日南市南郷町西町"}, {"postal_code": "8893207", "postal_hyphen": "889-3207", "pref": "宮崎県", "city": "日南市", "town": "南郷町東町", "full": "宮崎県日南市南郷町東町"}, {"postal_code": "8893206", "postal_hyphen": "889-3206", "pref": "宮崎県", "city": "日南市", "town": "南郷町南町", "full": "宮崎県日南市南郷町南町"}, {"postal_code": "8893214", "postal_hyphen": "889-3214", "pref": "宮崎県", "city": "日南市", "town": "南郷町榎原", "full": "宮崎県日南市南郷町榎原"}, {"postal_code": "8893215", "postal_hyphen": "889-3215", "pref": "宮崎県", "city": "日南市", "town": "南郷町榎原甲", "full": "宮崎県日南市南郷町榎原甲"}, {"postal_code": "8893216", "postal_hyphen": "889-3216", "pref": "宮崎県", "city": "日南市", "town": "南郷町榎原乙", "full": "宮崎県日南市南郷町榎原乙"}, {"postal_code": "8893217", "postal_hyphen": "889-3217", "pref": "宮崎県", "city": "日南市", "town": "南郷町榎原丙", "full": "宮崎県日南市南郷町榎原丙"}, {"postal_code": "8893212", "postal_hyphen": "889-3212", "pref": "宮崎県", "city": "日南市", "town": "南郷町脇本", "full": "宮崎県日南市南郷町脇本"}, {"postal_code": "8870024", "postal_hyphen": "887-0024", "pref": "宮崎県", "city": "日南市", "town": "西弁分", "full": "宮崎県日南市西弁分"}, {"postal_code": "8870002", "postal_hyphen": "887-0002", "pref": "宮崎県", "city": "日南市", "town": "西町", "full": "宮崎県日南市西町"}, {"postal_code": "8893153", "postal_hyphen": "889-3153", "pref": "宮崎県", "city": "日南市", "town": "萩之嶺", "full": "宮崎県日南市萩之嶺"}, {"postal_code": "8892521", "postal_hyphen": "889-2521", "pref": "宮崎県", "city": "日南市", "town": "東弁分乙", "full": "宮崎県日南市東弁分乙"}, {"postal_code": "8892522", "postal_hyphen": "889-2522", "pref": "宮崎県", "city": "日南市", "town": "東弁分甲", "full": "宮崎県日南市東弁分甲"}, {"postal_code": "8870015", "postal_hyphen": "887-0015", "pref": "宮崎県", "city": "日南市", "town": "平野", "full": "宮崎県日南市平野"}, {"postal_code": "8870033", "postal_hyphen": "887-0033", "pref": "宮崎県", "city": "日南市", "town": "平山", "full": "宮崎県日南市平山"}, {"postal_code": "8870102", "postal_hyphen": "887-0102", "pref": "宮崎県", "city": "日南市", "town": "富土", "full": "宮崎県日南市富土"}, {"postal_code": "8892533", "postal_hyphen": "889-2533", "pref": "宮崎県", "city": "日南市", "town": "星倉", "full": "宮崎県日南市星倉"}, {"postal_code": "8892531", "postal_hyphen": "889-2531", "pref": "宮崎県", "city": "日南市", "town": "本町", "full": "宮崎県日南市本町"}, {"postal_code": "8870032", "postal_hyphen": "887-0032", "pref": "宮崎県", "city": "日南市", "town": "益安", "full": "宮崎県日南市益安"}, {"postal_code": "8892523", "postal_hyphen": "889-2523", "pref": "宮崎県", "city": "日南市", "town": "松永", "full": "宮崎県日南市松永"}, {"postal_code": "8870101", "postal_hyphen": "887-0101", "pref": "宮崎県", "city": "日南市", "town": "宮浦", "full": "宮崎県日南市宮浦"}, {"postal_code": "8892513", "postal_hyphen": "889-2513", "pref": "宮崎県", "city": "日南市", "town": "吉野方", "full": "宮崎県日南市吉野方"}, {"postal_code": "8860000", "postal_hyphen": "886-0000", "pref": "宮崎県", "city": "小林市", "town": "", "full": "宮崎県小林市"}, {"postal_code": "8860009", "postal_hyphen": "886-0009", "pref": "宮崎県", "city": "小林市", "town": "駅南", "full": "宮崎県小林市駅南"}, {"postal_code": "8860006", "postal_hyphen": "886-0006", "pref": "宮崎県", "city": "小林市", "town": "北西方", "full": "宮崎県小林市北西方"}, {"postal_code": "8860115", "postal_hyphen": "886-0115", "pref": "宮崎県", "city": "小林市", "town": "須木内山", "full": "宮崎県小林市須木内山"}, {"postal_code": "8860112", "postal_hyphen": "886-0112", "pref": "宮崎県", "city": "小林市", "town": "須木下田", "full": "宮崎県小林市須木下田"}, {"postal_code": "8860113", "postal_hyphen": "886-0113", "pref": "宮崎県", "city": "小林市", "town": "須木鳥田町", "full": "宮崎県小林市須木鳥田町"}, {"postal_code": "8860111", "postal_hyphen": "886-0111", "pref": "宮崎県", "city": "小林市", "town": "須木中原", "full": "宮崎県小林市須木中原"}, {"postal_code": "8860114", "postal_hyphen": "886-0114", "pref": "宮崎県", "city": "小林市", "town": "須木奈佐木", "full": "宮崎県小林市須木奈佐木"}, {"postal_code": "8860003", "postal_hyphen": "886-0003", "pref": "宮崎県", "city": "小林市", "town": "堤", "full": "宮崎県小林市堤"}, {"postal_code": "8860002", "postal_hyphen": "886-0002", "pref": "宮崎県", "city": "小林市", "town": "水流迫", "full": "宮崎県小林市水流迫"}, {"postal_code": "8860211", "postal_hyphen": "886-0211", "pref": "宮崎県", "city": "小林市", "town": "野尻町紙屋", "full": "宮崎県小林市野尻町紙屋"}, {"postal_code": "8860212", "postal_hyphen": "886-0212", "pref": "宮崎県", "city": "小林市", "town": "野尻町東麓", "full": "宮崎県小林市野尻町東麓"}, {"postal_code": "8860213", "postal_hyphen": "886-0213", "pref": "宮崎県", "city": "小林市", "town": "野尻町三ケ野山", "full": "宮崎県小林市野尻町三ケ野山"}, {"postal_code": "8860101", "postal_hyphen": "886-0101", "pref": "宮崎県", "city": "小林市", "town": "東方（５７４１、５８７１番地）", "full": "宮崎県小林市東方（５７４１、５８７１番地）"}, {"postal_code": "8860001", "postal_hyphen": "886-0001", "pref": "宮崎県", "city": "小林市", "town": "東方（その他）", "full": "宮崎県小林市東方（その他）"}, {"postal_code": "8860004", "postal_hyphen": "886-0004", "pref": "宮崎県", "city": "小林市", "town": "細野", "full": "宮崎県小林市細野"}, {"postal_code": "8860008", "postal_hyphen": "886-0008", "pref": "宮崎県", "city": "小林市", "town": "本町", "full": "宮崎県小林市本町"}, {"postal_code": "8860007", "postal_hyphen": "886-0007", "pref": "宮崎県", "city": "小林市", "town": "真方", "full": "宮崎県小林市真方"}, {"postal_code": "8860005", "postal_hyphen": "886-0005", "pref": "宮崎県", "city": "小林市", "town": "南西方", "full": "宮崎県小林市南西方"}, {"postal_code": "8830000", "postal_hyphen": "883-0000", "pref": "宮崎県", "city": "日向市", "town": "", "full": "宮崎県日向市"}, {"postal_code": "8830003", "postal_hyphen": "883-0003", "pref": "宮崎県", "city": "日向市", "town": "伊勢ケ浜", "full": "宮崎県日向市伊勢ケ浜"}, {"postal_code": "8830044", "postal_hyphen": "883-0044", "pref": "宮崎県", "city": "日向市", "town": "上町", "full": "宮崎県日向市上町"}, {"postal_code": "8830012", "postal_hyphen": "883-0012", "pref": "宮崎県", "city": "日向市", "town": "江良町", "full": "宮崎県日向市江良町"}, {"postal_code": "8830053", "postal_hyphen": "883-0053", "pref": "宮崎県", "city": "日向市", "town": "梶木町", "full": "宮崎県日向市梶木町"}, {"postal_code": "8830066", "postal_hyphen": "883-0066", "pref": "宮崎県", "city": "日向市", "town": "亀崎", "full": "宮崎県日向市亀崎"}, {"postal_code": "8830068", "postal_hyphen": "883-0068", "pref": "宮崎県", "city": "日向市", "town": "亀崎西", "full": "宮崎県日向市亀崎西"}, {"postal_code": "8830067", "postal_hyphen": "883-0067", "pref": "宮崎県", "city": "日向市", "town": "亀崎東", "full": "宮崎県日向市亀崎東"}, {"postal_code": "8830041", "postal_hyphen": "883-0041", "pref": "宮崎県", "city": "日向市", "town": "北町", "full": "宮崎県日向市北町"}, {"postal_code": "8830038", "postal_hyphen": "883-0038", "pref": "宮崎県", "city": "日向市", "town": "迎洋園", "full": "宮崎県日向市迎洋園"}, {"postal_code": "8830021", "postal_hyphen": "883-0021", "pref": "宮崎県", "city": "日向市", "town": "財光寺", "full": "宮崎県日向市財光寺"}, {"postal_code": "8830024", "postal_hyphen": "883-0024", "pref": "宮崎県", "city": "日向市", "town": "財光寺往還町", "full": "宮崎県日向市財光寺往還町"}, {"postal_code": "8830023", "postal_hyphen": "883-0023", "pref": "宮崎県", "city": "日向市", "town": "財光寺沖町", "full": "宮崎県日向市財光寺沖町"}, {"postal_code": "8891112", "postal_hyphen": "889-1112", "pref": "宮崎県", "city": "日向市", "town": "幸脇", "full": "宮崎県日向市幸脇"}, {"postal_code": "8830033", "postal_hyphen": "883-0033", "pref": "宮崎県", "city": "日向市", "town": "塩見", "full": "宮崎県日向市塩見"}, {"postal_code": "8830013", "postal_hyphen": "883-0013", "pref": "宮崎県", "city": "日向市", "town": "新生町", "full": "宮崎県日向市新生町"}, {"postal_code": "8830011", "postal_hyphen": "883-0011", "pref": "宮崎県", "city": "日向市", "town": "曽根町", "full": "宮崎県日向市曽根町"}, {"postal_code": "8830061", "postal_hyphen": "883-0061", "pref": "宮崎県", "city": "日向市", "town": "大王町", "full": "宮崎県日向市大王町"}, {"postal_code": "8830042", "postal_hyphen": "883-0042", "pref": "宮崎県", "city": "日向市", "town": "高砂町", "full": "宮崎県日向市高砂町"}, {"postal_code": "8830063", "postal_hyphen": "883-0063", "pref": "宮崎県", "city": "日向市", "town": "竹島町", "full": "宮崎県日向市竹島町"}, {"postal_code": "8830052", "postal_hyphen": "883-0052", "pref": "宮崎県", "city": "日向市", "town": "鶴町", "full": "宮崎県日向市鶴町"}, {"postal_code": "8830111", "postal_hyphen": "883-0111", "pref": "宮崎県", "city": "日向市", "town": "東郷町迫野内", "full": "宮崎県日向市東郷町迫野内"}, {"postal_code": "8830213", "postal_hyphen": "883-0213", "pref": "宮崎県", "city": "日向市", "town": "東郷町下三ケ", "full": "宮崎県日向市東郷町下三ケ"}, {"postal_code": "8830211", "postal_hyphen": "883-0211", "pref": "宮崎県", "city": "日向市", "town": "東郷町坪谷", "full": "宮崎県日向市東郷町坪谷"}, {"postal_code": "8830108", "postal_hyphen": "883-0108", "pref": "宮崎県", "city": "日向市", "town": "東郷町八重原", "full": "宮崎県日向市東郷町八重原"}, {"postal_code": "8830109", "postal_hyphen": "883-0109", "pref": "宮崎県", "city": "日向市", "town": "東郷町山陰", "full": "宮崎県日向市東郷町山陰"}, {"postal_code": "8891101", "postal_hyphen": "889-1101", "pref": "宮崎県", "city": "日向市", "town": "東郷町山陰乙（鳥川）", "full": "宮崎県日向市東郷町山陰乙（鳥川）"}, {"postal_code": "8830101", "postal_hyphen": "883-0101", "pref": "宮崎県", "city": "日向市", "town": "東郷町山陰乙（その他）", "full": "宮崎県日向市東郷町山陰乙（その他）"}, {"postal_code": "8830105", "postal_hyphen": "883-0105", "pref": "宮崎県", "city": "日向市", "town": "東郷町山陰己", "full": "宮崎県日向市東郷町山陰己"}, {"postal_code": "8891121", "postal_hyphen": "889-1121", "pref": "宮崎県", "city": "日向市", "town": "東郷町山陰甲", "full": "宮崎県日向市東郷町山陰甲"}, {"postal_code": "8830107", "postal_hyphen": "883-0107", "pref": "宮崎県", "city": "日向市", "town": "東郷町山陰庚", "full": "宮崎県日向市東郷町山陰庚"}, {"postal_code": "8830106", "postal_hyphen": "883-0106", "pref": "宮崎県", "city": "日向市", "town": "東郷町山陰辛", "full": "宮崎県日向市東郷町山陰辛"}, {"postal_code": "8830103", "postal_hyphen": "883-0103", "pref": "宮崎県", "city": "日向市", "town": "東郷町山陰丁", "full": "宮崎県日向市東郷町山陰丁"}, {"postal_code": "8830102", "postal_hyphen": "883-0102", "pref": "宮崎県", "city": "日向市", "town": "東郷町山陰丙", "full": "宮崎県日向市東郷町山陰丙"}, {"postal_code": "8830104", "postal_hyphen": "883-0104", "pref": "宮崎県", "city": "日向市", "town": "東郷町山陰戊（５１３の１以内）", "full": "宮崎県日向市東郷町山陰戊（５１３の１以内）"}, {"postal_code": "8830212", "postal_hyphen": "883-0212", "pref": "宮崎県", "city": "日向市", "town": "東郷町山陰戊（その他）", "full": "宮崎県日向市東郷町山陰戊（その他）"}, {"postal_code": "8830034", "postal_hyphen": "883-0034", "pref": "宮崎県", "city": "日向市", "town": "富高", "full": "宮崎県日向市富高"}, {"postal_code": "8830005", "postal_hyphen": "883-0005", "pref": "宮崎県", "city": "日向市", "town": "中堀町", "full": "宮崎県日向市中堀町"}, {"postal_code": "8830046", "postal_hyphen": "883-0046", "pref": "宮崎県", "city": "日向市", "town": "中町", "full": "宮崎県日向市中町"}, {"postal_code": "8830015", "postal_hyphen": "883-0015", "pref": "宮崎県", "city": "日向市", "town": "永江町", "full": "宮崎県日向市永江町"}, {"postal_code": "8830004", "postal_hyphen": "883-0004", "pref": "宮崎県", "city": "日向市", "town": "浜町", "full": "宮崎県日向市浜町"}, {"postal_code": "8830014", "postal_hyphen": "883-0014", "pref": "宮崎県", "city": "日向市", "town": "原町", "full": "宮崎県日向市原町"}, {"postal_code": "8830035", "postal_hyphen": "883-0035", "pref": "宮崎県", "city": "日向市", "town": "春原町", "full": "宮崎県日向市春原町"}, {"postal_code": "8830062", "postal_hyphen": "883-0062", "pref": "宮崎県", "city": "日向市", "town": "日知屋", "full": "宮崎県日向市日知屋"}, {"postal_code": "8830064", "postal_hyphen": "883-0064", "pref": "宮崎県", "city": "日向市", "town": "日知屋古田町", "full": "宮崎県日向市日知屋古田町"}, {"postal_code": "8830022", "postal_hyphen": "883-0022", "pref": "宮崎県", "city": "日向市", "town": "平岩", "full": "宮崎県日向市平岩"}, {"postal_code": "8830031", "postal_hyphen": "883-0031", "pref": "宮崎県", "city": "日向市", "town": "比良町", "full": "宮崎県日向市比良町"}, {"postal_code": "8830002", "postal_hyphen": "883-0002", "pref": "宮崎県", "city": "日向市", "town": "平野町", "full": "宮崎県日向市平野町"}, {"postal_code": "8830037", "postal_hyphen": "883-0037", "pref": "宮崎県", "city": "日向市", "town": "不動寺", "full": "宮崎県日向市不動寺"}, {"postal_code": "8830065", "postal_hyphen": "883-0065", "pref": "宮崎県", "city": "日向市", "town": "船場町", "full": "宮崎県日向市船場町"}, {"postal_code": "8830001", "postal_hyphen": "883-0001", "pref": "宮崎県", "city": "日向市", "town": "細島", "full": "宮崎県日向市細島"}, {"postal_code": "8830045", "postal_hyphen": "883-0045", "pref": "宮崎県", "city": "日向市", "town": "本町", "full": "宮崎県日向市本町"}, {"postal_code": "8830036", "postal_hyphen": "883-0036", "pref": "宮崎県", "city": "日向市", "town": "南町", "full": "宮崎県日向市南町"}, {"postal_code": "8891111", "postal_hyphen": "889-1111", "pref": "宮崎県", "city": "日向市", "town": "美々津町", "full": "宮崎県日向市美々津町"}, {"postal_code": "8830043", "postal_hyphen": "883-0043", "pref": "宮崎県", "city": "日向市", "town": "都町", "full": "宮崎県日向市都町"}, {"postal_code": "8830051", "postal_hyphen": "883-0051", "pref": "宮崎県", "city": "日向市", "town": "向江町", "full": "宮崎県日向市向江町"}, {"postal_code": "8830032", "postal_hyphen": "883-0032", "pref": "宮崎県", "city": "日向市", "town": "山下町", "full": "宮崎県日向市山下町"}, {"postal_code": "8830006", "postal_hyphen": "883-0006", "pref": "宮崎県", "city": "日向市", "town": "山手町", "full": "宮崎県日向市山手町"}, {"postal_code": "8880000", "postal_hyphen": "888-0000", "pref": "宮崎県", "city": "串間市", "town": "", "full": "宮崎県串間市"}, {"postal_code": "8880006", "postal_hyphen": "888-0006", "pref": "宮崎県", "city": "串間市", "town": "秋山", "full": "宮崎県串間市秋山"}, {"postal_code": "8893533", "postal_hyphen": "889-3533", "pref": "宮崎県", "city": "串間市", "town": "一氏", "full": "宮崎県串間市一氏"}, {"postal_code": "8893311", "postal_hyphen": "889-3311", "pref": "宮崎県", "city": "串間市", "town": "市木", "full": "宮崎県串間市市木"}, {"postal_code": "8880221", "postal_hyphen": "888-0221", "pref": "宮崎県", "city": "串間市", "town": "大納", "full": "宮崎県串間市大納"}, {"postal_code": "8893532", "postal_hyphen": "889-3532", "pref": "宮崎県", "city": "串間市", "town": "大平", "full": "宮崎県串間市大平"}, {"postal_code": "8893534", "postal_hyphen": "889-3534", "pref": "宮崎県", "city": "串間市", "town": "大矢取", "full": "宮崎県串間市大矢取"}, {"postal_code": "8880005", "postal_hyphen": "888-0005", "pref": "宮崎県", "city": "串間市", "town": "北方", "full": "宮崎県串間市北方"}, {"postal_code": "8880004", "postal_hyphen": "888-0004", "pref": "宮崎県", "city": "串間市", "town": "串間", "full": "宮崎県串間市串間"}, {"postal_code": "8880009", "postal_hyphen": "888-0009", "pref": "宮崎県", "city": "串間市", "town": "崎田", "full": "宮崎県串間市崎田"}, {"postal_code": "8880002", "postal_hyphen": "888-0002", "pref": "宮崎県", "city": "串間市", "town": "高松", "full": "宮崎県串間市高松"}, {"postal_code": "8880011", "postal_hyphen": "888-0011", "pref": "宮崎県", "city": "串間市", "town": "寺里", "full": "宮崎県串間市寺里"}, {"postal_code": "8880222", "postal_hyphen": "888-0222", "pref": "宮崎県", "city": "串間市", "town": "都井", "full": "宮崎県串間市都井"}, {"postal_code": "8893531", "postal_hyphen": "889-3531", "pref": "宮崎県", "city": "串間市", "town": "奈留", "full": "宮崎県串間市奈留"}, {"postal_code": "8880001", "postal_hyphen": "888-0001", "pref": "宮崎県", "city": "串間市", "town": "西方", "full": "宮崎県串間市西方"}, {"postal_code": "8880012", "postal_hyphen": "888-0012", "pref": "宮崎県", "city": "串間市", "town": "西浜", "full": "宮崎県串間市西浜"}, {"postal_code": "8880003", "postal_hyphen": "888-0003", "pref": "宮崎県", "city": "串間市", "town": "奴久見", "full": "宮崎県串間市奴久見"}, {"postal_code": "8880013", "postal_hyphen": "888-0013", "pref": "宮崎県", "city": "串間市", "town": "東町", "full": "宮崎県串間市東町"}, {"postal_code": "8880008", "postal_hyphen": "888-0008", "pref": "宮崎県", "city": "串間市", "town": "本城", "full": "宮崎県串間市本城"}, {"postal_code": "8880007", "postal_hyphen": "888-0007", "pref": "宮崎県", "city": "串間市", "town": "南方", "full": "宮崎県串間市南方"}, {"postal_code": "8810000", "postal_hyphen": "881-0000", "pref": "宮崎県", "city": "西都市", "town": "", "full": "宮崎県西都市"}, {"postal_code": "8810031", "postal_hyphen": "881-0031", "pref": "宮崎県", "city": "西都市", "town": "旭", "full": "宮崎県西都市旭"}, {"postal_code": "8810111", "postal_hyphen": "881-0111", "pref": "宮崎県", "city": "西都市", "town": "荒武", "full": "宮崎県西都市荒武"}, {"postal_code": "8810011", "postal_hyphen": "881-0011", "pref": "宮崎県", "city": "西都市", "town": "有吉町", "full": "宮崎県西都市有吉町"}, {"postal_code": "8810106", "postal_hyphen": "881-0106", "pref": "宮崎県", "city": "西都市", "town": "岩爪", "full": "宮崎県西都市岩爪"}, {"postal_code": "8810001", "postal_hyphen": "881-0001", "pref": "宮崎県", "city": "西都市", "town": "岡富", "full": "宮崎県西都市岡富"}, {"postal_code": "8810012", "postal_hyphen": "881-0012", "pref": "宮崎県", "city": "西都市", "town": "小野崎", "full": "宮崎県西都市小野崎"}, {"postal_code": "8810013", "postal_hyphen": "881-0013", "pref": "宮崎県", "city": "西都市", "town": "小野崎町", "full": "宮崎県西都市小野崎町"}, {"postal_code": "8811121", "postal_hyphen": "881-1121", "pref": "宮崎県", "city": "西都市", "town": "尾八重", "full": "宮崎県西都市尾八重"}, {"postal_code": "8810103", "postal_hyphen": "881-0103", "pref": "宮崎県", "city": "西都市", "town": "加勢", "full": "宮崎県西都市加勢"}, {"postal_code": "8811122", "postal_hyphen": "881-1122", "pref": "宮崎県", "city": "西都市", "town": "片内", "full": "宮崎県西都市片内"}, {"postal_code": "8810104", "postal_hyphen": "881-0104", "pref": "宮崎県", "city": "西都市", "town": "鹿野田", "full": "宮崎県西都市鹿野田"}, {"postal_code": "8811231", "postal_hyphen": "881-1231", "pref": "宮崎県", "city": "西都市", "town": "上揚", "full": "宮崎県西都市上揚"}, {"postal_code": "8810115", "postal_hyphen": "881-0115", "pref": "宮崎県", "city": "西都市", "town": "上三財", "full": "宮崎県西都市上三財"}, {"postal_code": "8810021", "postal_hyphen": "881-0021", "pref": "宮崎県", "city": "西都市", "town": "上町", "full": "宮崎県西都市上町"}, {"postal_code": "8810004", "postal_hyphen": "881-0004", "pref": "宮崎県", "city": "西都市", "town": "清水", "full": "宮崎県西都市清水"}, {"postal_code": "8810002", "postal_hyphen": "881-0002", "pref": "宮崎県", "city": "西都市", "town": "黒生野", "full": "宮崎県西都市黒生野"}, {"postal_code": "8800341", "postal_hyphen": "880-0341", "pref": "宮崎県", "city": "西都市", "town": "現王島", "full": "宮崎県西都市現王島"}, {"postal_code": "8810022", "postal_hyphen": "881-0022", "pref": "宮崎県", "city": "西都市", "town": "桜川町", "full": "宮崎県西都市桜川町"}, {"postal_code": "8810116", "postal_hyphen": "881-0116", "pref": "宮崎県", "city": "西都市", "town": "寒川", "full": "宮崎県西都市寒川"}, {"postal_code": "8810113", "postal_hyphen": "881-0113", "pref": "宮崎県", "city": "西都市", "town": "下三財", "full": "宮崎県西都市下三財"}, {"postal_code": "8810014", "postal_hyphen": "881-0014", "pref": "宮崎県", "city": "西都市", "town": "下妻", "full": "宮崎県西都市下妻"}, {"postal_code": "8810032", "postal_hyphen": "881-0032", "pref": "宮崎県", "city": "西都市", "town": "白馬町", "full": "宮崎県西都市白馬町"}, {"postal_code": "8811232", "postal_hyphen": "881-1232", "pref": "宮崎県", "city": "西都市", "town": "銀鏡", "full": "宮崎県西都市銀鏡"}, {"postal_code": "8810006", "postal_hyphen": "881-0006", "pref": "宮崎県", "city": "西都市", "town": "新町", "full": "宮崎県西都市新町"}, {"postal_code": "8810015", "postal_hyphen": "881-0015", "pref": "宮崎県", "city": "西都市", "town": "聖陵町", "full": "宮崎県西都市聖陵町"}, {"postal_code": "8810037", "postal_hyphen": "881-0037", "pref": "宮崎県", "city": "西都市", "town": "茶臼原", "full": "宮崎県西都市茶臼原"}, {"postal_code": "8810035", "postal_hyphen": "881-0035", "pref": "宮崎県", "city": "西都市", "town": "中央町", "full": "宮崎県西都市中央町"}, {"postal_code": "8810023", "postal_hyphen": "881-0023", "pref": "宮崎県", "city": "西都市", "town": "調殿", "full": "宮崎県西都市調殿"}, {"postal_code": "8810033", "postal_hyphen": "881-0033", "pref": "宮崎県", "city": "西都市", "town": "妻", "full": "宮崎県西都市妻"}, {"postal_code": "8810034", "postal_hyphen": "881-0034", "pref": "宮崎県", "city": "西都市", "town": "妻町", "full": "宮崎県西都市妻町"}, {"postal_code": "8810036", "postal_hyphen": "881-0036", "pref": "宮崎県", "city": "西都市", "town": "水流崎町", "full": "宮崎県西都市水流崎町"}, {"postal_code": "8810025", "postal_hyphen": "881-0025", "pref": "宮崎県", "city": "西都市", "town": "童子丸", "full": "宮崎県西都市童子丸"}, {"postal_code": "8810114", "postal_hyphen": "881-0114", "pref": "宮崎県", "city": "西都市", "town": "藤田", "full": "宮崎県西都市藤田"}, {"postal_code": "8810105", "postal_hyphen": "881-0105", "pref": "宮崎県", "city": "西都市", "town": "都於郡町", "full": "宮崎県西都市都於郡町"}, {"postal_code": "8811123", "postal_hyphen": "881-1123", "pref": "宮崎県", "city": "西都市", "town": "中尾", "full": "宮崎県西都市中尾"}, {"postal_code": "8810024", "postal_hyphen": "881-0024", "pref": "宮崎県", "city": "西都市", "town": "中妻", "full": "宮崎県西都市中妻"}, {"postal_code": "8811233", "postal_hyphen": "881-1233", "pref": "宮崎県", "city": "西都市", "town": "八重", "full": "宮崎県西都市八重"}, {"postal_code": "8810102", "postal_hyphen": "881-0102", "pref": "宮崎県", "city": "西都市", "town": "平郡", "full": "宮崎県西都市平郡"}, {"postal_code": "8810026", "postal_hyphen": "881-0026", "pref": "宮崎県", "city": "西都市", "town": "穂北", "full": "宮崎県西都市穂北"}, {"postal_code": "8810003", "postal_hyphen": "881-0003", "pref": "宮崎県", "city": "西都市", "town": "右松", "full": "宮崎県西都市右松"}, {"postal_code": "8810027", "postal_hyphen": "881-0027", "pref": "宮崎県", "city": "西都市", "town": "南方", "full": "宮崎県西都市南方"}, {"postal_code": "8810101", "postal_hyphen": "881-0101", "pref": "宮崎県", "city": "西都市", "town": "三納", "full": "宮崎県西都市三納"}, {"postal_code": "8810016", "postal_hyphen": "881-0016", "pref": "宮崎県", "city": "西都市", "town": "御舟町", "full": "宮崎県西都市御舟町"}, {"postal_code": "8810005", "postal_hyphen": "881-0005", "pref": "宮崎県", "city": "西都市", "town": "三宅", "full": "宮崎県西都市三宅"}, {"postal_code": "8810112", "postal_hyphen": "881-0112", "pref": "宮崎県", "city": "西都市", "town": "山田", "full": "宮崎県西都市山田"}, {"postal_code": "8894300", "postal_hyphen": "889-4300", "pref": "宮崎県", "city": "えびの市", "town": "", "full": "宮崎県えびの市"}, {"postal_code": "8894303", "postal_hyphen": "889-4303", "pref": "宮崎県", "city": "えびの市", "town": "池島", "full": "宮崎県えびの市池島"}, {"postal_code": "8894306", "postal_hyphen": "889-4306", "pref": "宮崎県", "city": "えびの市", "town": "今西", "full": "宮崎県えびの市今西"}, {"postal_code": "8894162", "postal_hyphen": "889-4162", "pref": "宮崎県", "city": "えびの市", "town": "内竪", "full": "宮崎県えびの市内竪"}, {"postal_code": "8894153", "postal_hyphen": "889-4153", "pref": "宮崎県", "city": "えびの市", "town": "浦", "full": "宮崎県えびの市浦"}, {"postal_code": "8894304", "postal_hyphen": "889-4304", "pref": "宮崎県", "city": "えびの市", "town": "上江", "full": "宮崎県えびの市上江"}, {"postal_code": "8894243", "postal_hyphen": "889-4243", "pref": "宮崎県", "city": "えびの市", "town": "榎田", "full": "宮崎県えびの市榎田"}, {"postal_code": "8894314", "postal_hyphen": "889-4314", "pref": "宮崎県", "city": "えびの市", "town": "大河平", "full": "宮崎県えびの市大河平"}, {"postal_code": "8894161", "postal_hyphen": "889-4161", "pref": "宮崎県", "city": "えびの市", "town": "岡松", "full": "宮崎県えびの市岡松"}, {"postal_code": "8894222", "postal_hyphen": "889-4222", "pref": "宮崎県", "city": "えびの市", "town": "小田", "full": "宮崎県えびの市小田"}, {"postal_code": "8894155", "postal_hyphen": "889-4155", "pref": "宮崎県", "city": "えびの市", "town": "亀沢", "full": "宮崎県えびの市亀沢"}, {"postal_code": "8894221", "postal_hyphen": "889-4221", "pref": "宮崎県", "city": "えびの市", "town": "栗下", "full": "宮崎県えびの市栗下"}, {"postal_code": "8894241", "postal_hyphen": "889-4241", "pref": "宮崎県", "city": "えびの市", "town": "西郷", "full": "宮崎県えびの市西郷"}, {"postal_code": "8894312", "postal_hyphen": "889-4312", "pref": "宮崎県", "city": "えびの市", "town": "坂元", "full": "宮崎県えびの市坂元"}, {"postal_code": "8894152", "postal_hyphen": "889-4152", "pref": "宮崎県", "city": "えびの市", "town": "島内", "full": "宮崎県えびの市島内"}, {"postal_code": "8894164", "postal_hyphen": "889-4164", "pref": "宮崎県", "city": "えびの市", "town": "昌明寺", "full": "宮崎県えびの市昌明寺"}, {"postal_code": "8894302", "postal_hyphen": "889-4302", "pref": "宮崎県", "city": "えびの市", "town": "末永", "full": "宮崎県えびの市末永"}, {"postal_code": "8894313", "postal_hyphen": "889-4313", "pref": "宮崎県", "city": "えびの市", "town": "杉水流", "full": "宮崎県えびの市杉水流"}, {"postal_code": "8894311", "postal_hyphen": "889-4311", "pref": "宮崎県", "city": "えびの市", "town": "大明司", "full": "宮崎県えびの市大明司"}, {"postal_code": "8894163", "postal_hyphen": "889-4163", "pref": "宮崎県", "city": "えびの市", "town": "水流", "full": "宮崎県えびの市水流"}, {"postal_code": "8894234", "postal_hyphen": "889-4234", "pref": "宮崎県", "city": "えびの市", "town": "永山", "full": "宮崎県えびの市永山"}, {"postal_code": "8894165", "postal_hyphen": "889-4165", "pref": "宮崎県", "city": "えびの市", "town": "西川北", "full": "宮崎県えびの市西川北"}, {"postal_code": "8894232", "postal_hyphen": "889-4232", "pref": "宮崎県", "city": "えびの市", "town": "西長江浦", "full": "宮崎県えびの市西長江浦"}, {"postal_code": "8894233", "postal_hyphen": "889-4233", "pref": "宮崎県", "city": "えびの市", "town": "灰塚", "full": "宮崎県えびの市灰塚"}, {"postal_code": "8894301", "postal_hyphen": "889-4301", "pref": "宮崎県", "city": "えびの市", "town": "原田", "full": "宮崎県えびの市原田"}, {"postal_code": "8894244", "postal_hyphen": "889-4244", "pref": "宮崎県", "city": "えびの市", "town": "東川北", "full": "宮崎県えびの市東川北"}, {"postal_code": "8894231", "postal_hyphen": "889-4231", "pref": "宮崎県", "city": "えびの市", "town": "東長江浦", "full": "宮崎県えびの市東長江浦"}, {"postal_code": "8894305", "postal_hyphen": "889-4305", "pref": "宮崎県", "city": "えびの市", "town": "前田", "full": "宮崎県えびの市前田"}, {"postal_code": "8894151", "postal_hyphen": "889-4151", "pref": "宮崎県", "city": "えびの市", "town": "向江", "full": "宮崎県えびの市向江"}, {"postal_code": "8894154", "postal_hyphen": "889-4154", "pref": "宮崎県", "city": "えびの市", "town": "柳水流", "full": "宮崎県えびの市柳水流"}, {"postal_code": "8894242", "postal_hyphen": "889-4242", "pref": "宮崎県", "city": "えびの市", "town": "湯田", "full": "宮崎県えびの市湯田"}, {"postal_code": "8891900", "postal_hyphen": "889-1900", "pref": "宮崎県", "city": "北諸県郡三股町", "town": "", "full": "宮崎県北諸県郡三股町"}, {"postal_code": "8891905", "postal_hyphen": "889-1905", "pref": "宮崎県", "city": "北諸県郡三股町", "town": "今市", "full": "宮崎県北諸県郡三股町今市"}, {"postal_code": "8891901", "postal_hyphen": "889-1901", "pref": "宮崎県", "city": "北諸県郡三股町", "town": "樺山", "full": "宮崎県北諸県郡三股町樺山"}, {"postal_code": "8891902", "postal_hyphen": "889-1902", "pref": "宮崎県", "city": "北諸県郡三股町", "town": "五本松", "full": "宮崎県北諸県郡三股町五本松"}, {"postal_code": "8891904", "postal_hyphen": "889-1904", "pref": "宮崎県", "city": "北諸県郡三股町", "town": "新馬場", "full": "宮崎県北諸県郡三股町新馬場"}, {"postal_code": "8891914", "postal_hyphen": "889-1914", "pref": "宮崎県", "city": "北諸県郡三股町", "town": "蓼池", "full": "宮崎県北諸県郡三股町蓼池"}, {"postal_code": "8891906", "postal_hyphen": "889-1906", "pref": "宮崎県", "city": "北諸県郡三股町", "town": "中原", "full": "宮崎県北諸県郡三股町中原"}, {"postal_code": "8891911", "postal_hyphen": "889-1911", "pref": "宮崎県", "city": "北諸県郡三股町", "town": "長田", "full": "宮崎県北諸県郡三股町長田"}, {"postal_code": "8891907", "postal_hyphen": "889-1907", "pref": "宮崎県", "city": "北諸県郡三股町", "town": "花見原", "full": "宮崎県北諸県郡三股町花見原"}, {"postal_code": "8891903", "postal_hyphen": "889-1903", "pref": "宮崎県", "city": "北諸県郡三股町", "town": "稗田", "full": "宮崎県北諸県郡三股町稗田"}, {"postal_code": "8891912", "postal_hyphen": "889-1912", "pref": "宮崎県", "city": "北諸県郡三股町", "town": "宮村", "full": "宮崎県北諸県郡三股町宮村"}, {"postal_code": "8891913", "postal_hyphen": "889-1913", "pref": "宮崎県", "city": "北諸県郡三股町", "town": "餅原", "full": "宮崎県北諸県郡三股町餅原"}, {"postal_code": "8894400", "postal_hyphen": "889-4400", "pref": "宮崎県", "city": "西諸県郡高原町", "town": "", "full": "宮崎県西諸県郡高原町"}, {"postal_code": "8894413", "postal_hyphen": "889-4413", "pref": "宮崎県", "city": "西諸県郡高原町", "town": "後川内", "full": "宮崎県西諸県郡高原町後川内"}, {"postal_code": "8894414", "postal_hyphen": "889-4414", "pref": "宮崎県", "city": "西諸県郡高原町", "town": "蒲牟田", "full": "宮崎県西諸県郡高原町蒲牟田"}, {"postal_code": "8894412", "postal_hyphen": "889-4412", "pref": "宮崎県", "city": "西諸県郡高原町", "town": "西麓", "full": "宮崎県西諸県郡高原町西麓"}, {"postal_code": "8894411", "postal_hyphen": "889-4411", "pref": "宮崎県", "city": "西諸県郡高原町", "town": "広原", "full": "宮崎県西諸県郡高原町広原"}, {"postal_code": "8801100", "postal_hyphen": "880-1100", "pref": "宮崎県", "city": "東諸県郡国富町", "town": "", "full": "宮崎県東諸県郡国富町"}, {"postal_code": "8801103", "postal_hyphen": "880-1103", "pref": "宮崎県", "city": "東諸県郡国富町", "town": "嵐田", "full": "宮崎県東諸県郡国富町嵐田"}, {"postal_code": "8801121", "postal_hyphen": "880-1121", "pref": "宮崎県", "city": "東諸県郡国富町", "town": "伊左生（吹上）", "full": "宮崎県東諸県郡国富町伊左生（吹上）"}, {"postal_code": "8801221", "postal_hyphen": "880-1221", "pref": "宮崎県", "city": "東諸県郡国富町", "town": "伊左生（その他）", "full": "宮崎県東諸県郡国富町伊左生（その他）"}, {"postal_code": "8801111", "postal_hyphen": "880-1111", "pref": "宮崎県", "city": "東諸県郡国富町", "town": "岩知野", "full": "宮崎県東諸県郡国富町岩知野"}, {"postal_code": "8801113", "postal_hyphen": "880-1113", "pref": "宮崎県", "city": "東諸県郡国富町", "town": "木脇", "full": "宮崎県東諸県郡国富町木脇"}, {"postal_code": "8801114", "postal_hyphen": "880-1114", "pref": "宮崎県", "city": "東諸県郡国富町", "town": "三名", "full": "宮崎県東諸県郡国富町三名"}, {"postal_code": "8801108", "postal_hyphen": "880-1108", "pref": "宮崎県", "city": "東諸県郡国富町", "town": "須志田", "full": "宮崎県東諸県郡国富町須志田"}, {"postal_code": "8801107", "postal_hyphen": "880-1107", "pref": "宮崎県", "city": "東諸県郡国富町", "town": "竹田", "full": "宮崎県東諸県郡国富町竹田"}, {"postal_code": "8801104", "postal_hyphen": "880-1104", "pref": "宮崎県", "city": "東諸県郡国富町", "town": "田尻", "full": "宮崎県東諸県郡国富町田尻"}, {"postal_code": "8801112", "postal_hyphen": "880-1112", "pref": "宮崎県", "city": "東諸県郡国富町", "town": "塚原", "full": "宮崎県東諸県郡国富町塚原"}, {"postal_code": "8801224", "postal_hyphen": "880-1224", "pref": "宮崎県", "city": "東諸県郡国富町", "town": "深年", "full": "宮崎県東諸県郡国富町深年"}, {"postal_code": "8801101", "postal_hyphen": "880-1101", "pref": "宮崎県", "city": "東諸県郡国富町", "town": "本庄", "full": "宮崎県東諸県郡国富町本庄"}, {"postal_code": "8801102", "postal_hyphen": "880-1102", "pref": "宮崎県", "city": "東諸県郡国富町", "town": "宮王丸", "full": "宮崎県東諸県郡国富町宮王丸"}, {"postal_code": "8801105", "postal_hyphen": "880-1105", "pref": "宮崎県", "city": "東諸県郡国富町", "town": "向高", "full": "宮崎県東諸県郡国富町向高"}, {"postal_code": "8801106", "postal_hyphen": "880-1106", "pref": "宮崎県", "city": "東諸県郡国富町", "town": "森永", "full": "宮崎県東諸県郡国富町森永"}, {"postal_code": "8801222", "postal_hyphen": "880-1222", "pref": "宮崎県", "city": "東諸県郡国富町", "town": "八代北俣", "full": "宮崎県東諸県郡国富町八代北俣"}, {"postal_code": "8801223", "postal_hyphen": "880-1223", "pref": "宮崎県", "city": "東諸県郡国富町", "town": "八代南俣", "full": "宮崎県東諸県郡国富町八代南俣"}, {"postal_code": "8801300", "postal_hyphen": "880-1300", "pref": "宮崎県", "city": "東諸県郡綾町", "town": "", "full": "宮崎県東諸県郡綾町"}, {"postal_code": "8801301", "postal_hyphen": "880-1301", "pref": "宮崎県", "city": "東諸県郡綾町", "town": "入野", "full": "宮崎県東諸県郡綾町入野"}, {"postal_code": "8801302", "postal_hyphen": "880-1302", "pref": "宮崎県", "city": "東諸県郡綾町", "town": "北俣", "full": "宮崎県東諸県郡綾町北俣"}, {"postal_code": "8801303", "postal_hyphen": "880-1303", "pref": "宮崎県", "city": "東諸県郡綾町", "town": "南俣", "full": "宮崎県東諸県郡綾町南俣"}, {"postal_code": "8840000", "postal_hyphen": "884-0000", "pref": "宮崎県", "city": "児湯郡高鍋町", "town": "", "full": "宮崎県児湯郡高鍋町"}, {"postal_code": "8840006", "postal_hyphen": "884-0006", "pref": "宮崎県", "city": "児湯郡高鍋町", "town": "上江", "full": "宮崎県児湯郡高鍋町上江"}, {"postal_code": "8840004", "postal_hyphen": "884-0004", "pref": "宮崎県", "city": "児湯郡高鍋町", "town": "蚊口浦", "full": "宮崎県児湯郡高鍋町蚊口浦"}, {"postal_code": "8840002", "postal_hyphen": "884-0002", "pref": "宮崎県", "city": "児湯郡高鍋町", "town": "北高鍋", "full": "宮崎県児湯郡高鍋町北高鍋"}, {"postal_code": "8840001", "postal_hyphen": "884-0001", "pref": "宮崎県", "city": "児湯郡高鍋町", "town": "高鍋町", "full": "宮崎県児湯郡高鍋町高鍋町"}, {"postal_code": "8840003", "postal_hyphen": "884-0003", "pref": "宮崎県", "city": "児湯郡高鍋町", "town": "南高鍋", "full": "宮崎県児湯郡高鍋町南高鍋"}, {"postal_code": "8840005", "postal_hyphen": "884-0005", "pref": "宮崎県", "city": "児湯郡高鍋町", "town": "持田", "full": "宮崎県児湯郡高鍋町持田"}, {"postal_code": "8891400", "postal_hyphen": "889-1400", "pref": "宮崎県", "city": "児湯郡新富町", "town": "", "full": "宮崎県児湯郡新富町"}, {"postal_code": "8891405", "postal_hyphen": "889-1405", "pref": "宮崎県", "city": "児湯郡新富町", "town": "伊倉", "full": "宮崎県児湯郡新富町伊倉"}, {"postal_code": "8891403", "postal_hyphen": "889-1403", "pref": "宮崎県", "city": "児湯郡新富町", "town": "上富田", "full": "宮崎県児湯郡新富町上富田"}, {"postal_code": "8891404", "postal_hyphen": "889-1404", "pref": "宮崎県", "city": "児湯郡新富町", "town": "下富田", "full": "宮崎県児湯郡新富町下富田"}, {"postal_code": "8891411", "postal_hyphen": "889-1411", "pref": "宮崎県", "city": "児湯郡新富町", "town": "富田", "full": "宮崎県児湯郡新富町富田"}, {"postal_code": "8891415", "postal_hyphen": "889-1415", "pref": "宮崎県", "city": "児湯郡新富町", "town": "富田北", "full": "宮崎県児湯郡新富町富田北"}, {"postal_code": "8891412", "postal_hyphen": "889-1412", "pref": "宮崎県", "city": "児湯郡新富町", "town": "富田東", "full": "宮崎県児湯郡新富町富田東"}, {"postal_code": "8891413", "postal_hyphen": "889-1413", "pref": "宮崎県", "city": "児湯郡新富町", "town": "富田西", "full": "宮崎県児湯郡新富町富田西"}, {"postal_code": "8891414", "postal_hyphen": "889-1414", "pref": "宮崎県", "city": "児湯郡新富町", "town": "富田南", "full": "宮崎県児湯郡新富町富田南"}, {"postal_code": "8891406", "postal_hyphen": "889-1406", "pref": "宮崎県", "city": "児湯郡新富町", "town": "新田", "full": "宮崎県児湯郡新富町新田"}, {"postal_code": "8891401", "postal_hyphen": "889-1401", "pref": "宮崎県", "city": "児湯郡新富町", "town": "日置", "full": "宮崎県児湯郡新富町日置"}, {"postal_code": "8891402", "postal_hyphen": "889-1402", "pref": "宮崎県", "city": "児湯郡新富町", "town": "三納代", "full": "宮崎県児湯郡新富町三納代"}, {"postal_code": "8811400", "postal_hyphen": "881-1400", "pref": "宮崎県", "city": "児湯郡西米良村", "town": "", "full": "宮崎県児湯郡西米良村"}, {"postal_code": "8811412", "postal_hyphen": "881-1412", "pref": "宮崎県", "city": "児湯郡西米良村", "town": "板谷", "full": "宮崎県児湯郡西米良村板谷"}, {"postal_code": "8811302", "postal_hyphen": "881-1302", "pref": "宮崎県", "city": "児湯郡西米良村", "town": "小川", "full": "宮崎県児湯郡西米良村小川"}, {"postal_code": "8811413", "postal_hyphen": "881-1413", "pref": "宮崎県", "city": "児湯郡西米良村", "town": "上米良", "full": "宮崎県児湯郡西米良村上米良"}, {"postal_code": "8811301", "postal_hyphen": "881-1301", "pref": "宮崎県", "city": "児湯郡西米良村", "town": "越野尾", "full": "宮崎県児湯郡西米良村越野尾"}, {"postal_code": "8811414", "postal_hyphen": "881-1414", "pref": "宮崎県", "city": "児湯郡西米良村", "town": "竹原", "full": "宮崎県児湯郡西米良村竹原"}, {"postal_code": "8811411", "postal_hyphen": "881-1411", "pref": "宮崎県", "city": "児湯郡西米良村", "town": "村所", "full": "宮崎県児湯郡西米良村村所"}, {"postal_code": "8811303", "postal_hyphen": "881-1303", "pref": "宮崎県", "city": "児湯郡西米良村", "town": "横野", "full": "宮崎県児湯郡西米良村横野"}, {"postal_code": "8840100", "postal_hyphen": "884-0100", "pref": "宮崎県", "city": "児湯郡木城町", "town": "", "full": "宮崎県児湯郡木城町"}, {"postal_code": "8840104", "postal_hyphen": "884-0104", "pref": "宮崎県", "city": "児湯郡木城町", "town": "石河内", "full": "宮崎県児湯郡木城町石河内"}, {"postal_code": "8840103", "postal_hyphen": "884-0103", "pref": "宮崎県", "city": "児湯郡木城町", "town": "川原", "full": "宮崎県児湯郡木城町川原"}, {"postal_code": "8840102", "postal_hyphen": "884-0102", "pref": "宮崎県", "city": "児湯郡木城町", "town": "椎木", "full": "宮崎県児湯郡木城町椎木"}, {"postal_code": "8840101", "postal_hyphen": "884-0101", "pref": "宮崎県", "city": "児湯郡木城町", "town": "高城", "full": "宮崎県児湯郡木城町高城"}, {"postal_code": "8840105", "postal_hyphen": "884-0105", "pref": "宮崎県", "city": "児湯郡木城町", "town": "中之又", "full": "宮崎県児湯郡木城町中之又"}, {"postal_code": "8891300", "postal_hyphen": "889-1300", "pref": "宮崎県", "city": "児湯郡川南町", "town": "", "full": "宮崎県児湯郡川南町"}, {"postal_code": "8891301", "postal_hyphen": "889-1301", "pref": "宮崎県", "city": "児湯郡川南町", "town": "川南", "full": "宮崎県児湯郡川南町川南"}, {"postal_code": "8891302", "postal_hyphen": "889-1302", "pref": "宮崎県", "city": "児湯郡川南町", "town": "平田", "full": "宮崎県児湯郡川南町平田"}, {"postal_code": "8891200", "postal_hyphen": "889-1200", "pref": "宮崎県", "city": "児湯郡都農町", "town": "", "full": "宮崎県児湯郡都農町"}, {"postal_code": "8891201", "postal_hyphen": "889-1201", "pref": "宮崎県", "city": "児湯郡都農町", "town": "川北", "full": "宮崎県児湯郡都農町川北"}, {"postal_code": "8890600", "postal_hyphen": "889-0600", "pref": "宮崎県", "city": "東臼杵郡門川町", "town": "", "full": "宮崎県東臼杵郡門川町"}, {"postal_code": "8890602", "postal_hyphen": "889-0602", "pref": "宮崎県", "city": "東臼杵郡門川町", "town": "庵川", "full": "宮崎県東臼杵郡門川町庵川"}, {"postal_code": "8890605", "postal_hyphen": "889-0605", "pref": "宮崎県", "city": "東臼杵郡門川町", "town": "庵川西", "full": "宮崎県東臼杵郡門川町庵川西"}, {"postal_code": "8890603", "postal_hyphen": "889-0603", "pref": "宮崎県", "city": "東臼杵郡門川町", "town": "加草", "full": "宮崎県東臼杵郡門川町加草"}, {"postal_code": "8890611", "postal_hyphen": "889-0611", "pref": "宮崎県", "city": "東臼杵郡門川町", "town": "門川尾末", "full": "宮崎県東臼杵郡門川町門川尾末"}, {"postal_code": "8890614", "postal_hyphen": "889-0614", "pref": "宮崎県", "city": "東臼杵郡門川町", "town": "上町", "full": "宮崎県東臼杵郡門川町上町"}, {"postal_code": "8890604", "postal_hyphen": "889-0604", "pref": "宮崎県", "city": "東臼杵郡門川町", "town": "川内", "full": "宮崎県東臼杵郡門川町川内"}, {"postal_code": "8890615", "postal_hyphen": "889-0615", "pref": "宮崎県", "city": "東臼杵郡門川町", "town": "栄ケ丘", "full": "宮崎県東臼杵郡門川町栄ケ丘"}, {"postal_code": "8890624", "postal_hyphen": "889-0624", "pref": "宮崎県", "city": "東臼杵郡門川町", "town": "城ケ丘", "full": "宮崎県東臼杵郡門川町城ケ丘"}, {"postal_code": "8890601", "postal_hyphen": "889-0601", "pref": "宮崎県", "city": "東臼杵郡門川町", "town": "須賀崎", "full": "宮崎県東臼杵郡門川町須賀崎"}, {"postal_code": "8890612", "postal_hyphen": "889-0612", "pref": "宮崎県", "city": "東臼杵郡門川町", "town": "中須", "full": "宮崎県東臼杵郡門川町中須"}, {"postal_code": "8890622", "postal_hyphen": "889-0622", "pref": "宮崎県", "city": "東臼杵郡門川町", "town": "西栄町", "full": "宮崎県東臼杵郡門川町西栄町"}, {"postal_code": "8890621", "postal_hyphen": "889-0621", "pref": "宮崎県", "city": "東臼杵郡門川町", "town": "東栄町", "full": "宮崎県東臼杵郡門川町東栄町"}, {"postal_code": "8890626", "postal_hyphen": "889-0626", "pref": "宮崎県", "city": "東臼杵郡門川町", "town": "平城西", "full": "宮崎県東臼杵郡門川町平城西"}, {"postal_code": "8890625", "postal_hyphen": "889-0625", "pref": "宮崎県", "city": "東臼杵郡門川町", "town": "平城東", "full": "宮崎県東臼杵郡門川町平城東"}, {"postal_code": "8890613", "postal_hyphen": "889-0613", "pref": "宮崎県", "city": "東臼杵郡門川町", "town": "本町", "full": "宮崎県東臼杵郡門川町本町"}, {"postal_code": "8890617", "postal_hyphen": "889-0617", "pref": "宮崎県", "city": "東臼杵郡門川町", "town": "南ケ丘", "full": "宮崎県東臼杵郡門川町南ケ丘"}, {"postal_code": "8890616", "postal_hyphen": "889-0616", "pref": "宮崎県", "city": "東臼杵郡門川町", "town": "南町", "full": "宮崎県東臼杵郡門川町南町"}, {"postal_code": "8890623", "postal_hyphen": "889-0623", "pref": "宮崎県", "city": "東臼杵郡門川町", "town": "宮ケ原", "full": "宮崎県東臼杵郡門川町宮ケ原"}, {"postal_code": "8831300", "postal_hyphen": "883-1300", "pref": "宮崎県", "city": "東臼杵郡諸塚村", "town": "", "full": "宮崎県東臼杵郡諸塚村"}, {"postal_code": "8831301", "postal_hyphen": "883-1301", "pref": "宮崎県", "city": "東臼杵郡諸塚村", "town": "家代", "full": "宮崎県東臼杵郡諸塚村家代"}, {"postal_code": "8831402", "postal_hyphen": "883-1402", "pref": "宮崎県", "city": "東臼杵郡諸塚村", "town": "七ツ山（飯干、小原井、川内、立岩、八重の平、本村）", "full": "宮崎県東臼杵郡諸塚村七ツ山（飯干、小原井、川内、立岩、八重の平、本村）"}, {"postal_code": "8831302", "postal_hyphen": "883-1302", "pref": "宮崎県", "city": "東臼杵郡諸塚村", "town": "七ツ山（その他）", "full": "宮崎県東臼杵郡諸塚村七ツ山（その他）"}, {"postal_code": "8831600", "postal_hyphen": "883-1600", "pref": "宮崎県", "city": "東臼杵郡椎葉村", "town": "", "full": "宮崎県東臼杵郡椎葉村"}, {"postal_code": "8830402", "postal_hyphen": "883-0402", "pref": "宮崎県", "city": "東臼杵郡椎葉村", "town": "大河内（１〜１３０２番地）", "full": "宮崎県東臼杵郡椎葉村大河内（１〜１３０２番地）"}, {"postal_code": "8831602", "postal_hyphen": "883-1602", "pref": "宮崎県", "city": "東臼杵郡椎葉村", "town": "大河内（その他）", "full": "宮崎県東臼杵郡椎葉村大河内（その他）"}, {"postal_code": "8831601", "postal_hyphen": "883-1601", "pref": "宮崎県", "city": "東臼杵郡椎葉村", "town": "下福良", "full": "宮崎県東臼杵郡椎葉村下福良"}, {"postal_code": "8831603", "postal_hyphen": "883-1603", "pref": "宮崎県", "city": "東臼杵郡椎葉村", "town": "不土野", "full": "宮崎県東臼杵郡椎葉村不土野"}, {"postal_code": "8831604", "postal_hyphen": "883-1604", "pref": "宮崎県", "city": "東臼杵郡椎葉村", "town": "松尾", "full": "宮崎県東臼杵郡椎葉村松尾"}, {"postal_code": "8831100", "postal_hyphen": "883-1100", "pref": "宮崎県", "city": "東臼杵郡美郷町", "town": "", "full": "宮崎県東臼杵郡美郷町"}, {"postal_code": "8890901", "postal_hyphen": "889-0901", "pref": "宮崎県", "city": "東臼杵郡美郷町", "town": "北郷宇納間", "full": "宮崎県東臼杵郡美郷町北郷宇納間"}, {"postal_code": "8890903", "postal_hyphen": "889-0903", "pref": "宮崎県", "city": "東臼杵郡美郷町", "town": "北郷黒木", "full": "宮崎県東臼杵郡美郷町北郷黒木"}, {"postal_code": "8890902", "postal_hyphen": "889-0902", "pref": "宮崎県", "city": "東臼杵郡美郷町", "town": "北郷入下", "full": "宮崎県東臼杵郡美郷町北郷入下"}, {"postal_code": "8831212", "postal_hyphen": "883-1212", "pref": "宮崎県", "city": "東臼杵郡美郷町", "town": "西郷小原", "full": "宮崎県東臼杵郡美郷町西郷小原"}, {"postal_code": "8831101", "postal_hyphen": "883-1101", "pref": "宮崎県", "city": "東臼杵郡美郷町", "town": "西郷田代", "full": "宮崎県東臼杵郡美郷町西郷田代"}, {"postal_code": "8831102", "postal_hyphen": "883-1102", "pref": "宮崎県", "city": "東臼杵郡美郷町", "town": "西郷立石", "full": "宮崎県東臼杵郡美郷町西郷立石"}, {"postal_code": "8831211", "postal_hyphen": "883-1211", "pref": "宮崎県", "city": "東臼杵郡美郷町", "town": "西郷山三ヶ", "full": "宮崎県東臼杵郡美郷町西郷山三ヶ"}, {"postal_code": "8830303", "postal_hyphen": "883-0303", "pref": "宮崎県", "city": "東臼杵郡美郷町", "town": "南郷上渡川", "full": "宮崎県東臼杵郡美郷町南郷上渡川"}, {"postal_code": "8830304", "postal_hyphen": "883-0304", "pref": "宮崎県", "city": "東臼杵郡美郷町", "town": "南郷鬼神野", "full": "宮崎県東臼杵郡美郷町南郷鬼神野"}, {"postal_code": "8830302", "postal_hyphen": "883-0302", "pref": "宮崎県", "city": "東臼杵郡美郷町", "town": "南郷中渡川", "full": "宮崎県東臼杵郡美郷町南郷中渡川"}, {"postal_code": "8830306", "postal_hyphen": "883-0306", "pref": "宮崎県", "city": "東臼杵郡美郷町", "town": "南郷神門", "full": "宮崎県東臼杵郡美郷町南郷神門"}, {"postal_code": "8830301", "postal_hyphen": "883-0301", "pref": "宮崎県", "city": "東臼杵郡美郷町", "town": "南郷水清谷", "full": "宮崎県東臼杵郡美郷町南郷水清谷"}, {"postal_code": "8830305", "postal_hyphen": "883-0305", "pref": "宮崎県", "city": "東臼杵郡美郷町", "town": "南郷山三ヶ", "full": "宮崎県東臼杵郡美郷町南郷山三ヶ"}, {"postal_code": "8821100", "postal_hyphen": "882-1100", "pref": "宮崎県", "city": "西臼杵郡高千穂町", "town": "", "full": "宮崎県西臼杵郡高千穂町"}, {"postal_code": "8821621", "postal_hyphen": "882-1621", "pref": "宮崎県", "city": "西臼杵郡高千穂町", "town": "岩戸", "full": "宮崎県西臼杵郡高千穂町岩戸"}, {"postal_code": "8821102", "postal_hyphen": "882-1102", "pref": "宮崎県", "city": "西臼杵郡高千穂町", "town": "押方", "full": "宮崎県西臼杵郡高千穂町押方"}, {"postal_code": "8821622", "postal_hyphen": "882-1622", "pref": "宮崎県", "city": "西臼杵郡高千穂町", "town": "上岩戸", "full": "宮崎県西臼杵郡高千穂町上岩戸"}, {"postal_code": "8821411", "postal_hyphen": "882-1411", "pref": "宮崎県", "city": "西臼杵郡高千穂町", "town": "上野", "full": "宮崎県西臼杵郡高千穂町上野"}, {"postal_code": "8821414", "postal_hyphen": "882-1414", "pref": "宮崎県", "city": "西臼杵郡高千穂町", "town": "河内", "full": "宮崎県西臼杵郡高千穂町河内"}, {"postal_code": "8821415", "postal_hyphen": "882-1415", "pref": "宮崎県", "city": "西臼杵郡高千穂町", "town": "五ケ所", "full": "宮崎県西臼杵郡高千穂町五ケ所"}, {"postal_code": "8821412", "postal_hyphen": "882-1412", "pref": "宮崎県", "city": "西臼杵郡高千穂町", "town": "下野", "full": "宮崎県西臼杵郡高千穂町下野"}, {"postal_code": "8821413", "postal_hyphen": "882-1413", "pref": "宮崎県", "city": "西臼杵郡高千穂町", "town": "田原", "full": "宮崎県西臼杵郡高千穂町田原"}, {"postal_code": "8821101", "postal_hyphen": "882-1101", "pref": "宮崎県", "city": "西臼杵郡高千穂町", "town": "三田井", "full": "宮崎県西臼杵郡高千穂町三田井"}, {"postal_code": "8821103", "postal_hyphen": "882-1103", "pref": "宮崎県", "city": "西臼杵郡高千穂町", "town": "向山", "full": "宮崎県西臼杵郡高千穂町向山"}, {"postal_code": "8820400", "postal_hyphen": "882-0400", "pref": "宮崎県", "city": "西臼杵郡日之影町", "town": "", "full": "宮崎県西臼杵郡日之影町"}, {"postal_code": "8820302", "postal_hyphen": "882-0302", "pref": "宮崎県", "city": "西臼杵郡日之影町", "town": "岩井川（境野）", "full": "宮崎県西臼杵郡日之影町岩井川（境野）"}, {"postal_code": "8820402", "postal_hyphen": "882-0402", "pref": "宮崎県", "city": "西臼杵郡日之影町", "town": "岩井川（その他）", "full": "宮崎県西臼杵郡日之影町岩井川（その他）"}, {"postal_code": "8820301", "postal_hyphen": "882-0301", "pref": "宮崎県", "city": "西臼杵郡日之影町", "town": "七折（阿下、笠戸、椛木、鹿川、新町、滝ノ内、中川、", "full": "宮崎県西臼杵郡日之影町七折（阿下、笠戸、椛木、鹿川、新町、滝ノ内、中川、"}, {"postal_code": "8820301", "postal_hyphen": "882-0301", "pref": "宮崎県", "city": "西臼杵郡日之影町", "town": "西ノ内、舟ノ尾、八戸、簗崎）", "full": "宮崎県西臼杵郡日之影町西ノ内、舟ノ尾、八戸、簗崎）"}, {"postal_code": "8820401", "postal_hyphen": "882-0401", "pref": "宮崎県", "city": "西臼杵郡日之影町", "town": "七折（その他）", "full": "宮崎県西臼杵郡日之影町七折（その他）"}, {"postal_code": "8820403", "postal_hyphen": "882-0403", "pref": "宮崎県", "city": "西臼杵郡日之影町", "town": "見立", "full": "宮崎県西臼杵郡日之影町見立"}, {"postal_code": "8820304", "postal_hyphen": "882-0304", "pref": "宮崎県", "city": "西臼杵郡日之影町", "town": "分城", "full": "宮崎県西臼杵郡日之影町分城"}, {"postal_code": "8821200", "postal_hyphen": "882-1200", "pref": "宮崎県", "city": "西臼杵郡五ヶ瀬町", "town": "", "full": "宮崎県西臼杵郡五ヶ瀬町"}, {"postal_code": "8821201", "postal_hyphen": "882-1201", "pref": "宮崎県", "city": "西臼杵郡五ヶ瀬町", "town": "鞍岡", "full": "宮崎県西臼杵郡五ヶ瀬町鞍岡"}, {"postal_code": "8821202", "postal_hyphen": "882-1202", "pref": "宮崎県", "city": "西臼杵郡五ヶ瀬町", "town": "桑野内", "full": "宮崎県西臼杵郡五ヶ瀬町桑野内"}, {"postal_code": "8821203", "postal_hyphen": "882-1203", "pref": "宮崎県", "city": "西臼杵郡五ヶ瀬町", "town": "三ヶ所", "full": "宮崎県西臼杵郡五ヶ瀬町三ヶ所"}]