[{"postal_code": "4000000", "postal_hyphen": "400-0000", "pref": "山梨県", "city": "甲府市", "town": "", "full": "山梨県甲府市"}, {"postal_code": "4000858", "postal_hyphen": "400-0858", "pref": "山梨県", "city": "甲府市", "town": "相生", "full": "山梨県甲府市相生"}, {"postal_code": "4000867", "postal_hyphen": "400-0867", "pref": "山梨県", "city": "甲府市", "town": "青沼", "full": "山梨県甲府市青沼"}, {"postal_code": "4000828", "postal_hyphen": "400-0828", "pref": "山梨県", "city": "甲府市", "town": "青葉町", "full": "山梨県甲府市青葉町"}, {"postal_code": "4000862", "postal_hyphen": "400-0862", "pref": "山梨県", "city": "甲府市", "town": "朝気", "full": "山梨県甲府市朝気"}, {"postal_code": "4000025", "postal_hyphen": "400-0025", "pref": "山梨県", "city": "甲府市", "town": "朝日", "full": "山梨県甲府市朝日"}, {"postal_code": "4000023", "postal_hyphen": "400-0023", "pref": "山梨県", "city": "甲府市", "town": "愛宕町", "full": "山梨県甲府市愛宕町"}, {"postal_code": "4000061", "postal_hyphen": "400-0061", "pref": "山梨県", "city": "甲府市", "town": "荒川", "full": "山梨県甲府市荒川"}, {"postal_code": "4000035", "postal_hyphen": "400-0035", "pref": "山梨県", "city": "甲府市", "town": "飯田", "full": "山梨県甲府市飯田"}, {"postal_code": "4001217", "postal_hyphen": "400-1217", "pref": "山梨県", "city": "甲府市", "town": "猪狩町", "full": "山梨県甲府市猪狩町"}, {"postal_code": "4000062", "postal_hyphen": "400-0062", "pref": "山梨県", "city": "甲府市", "town": "池田", "full": "山梨県甲府市池田"}, {"postal_code": "4000856", "postal_hyphen": "400-0856", "pref": "山梨県", "city": "甲府市", "town": "伊勢", "full": "山梨県甲府市伊勢"}, {"postal_code": "4000013", "postal_hyphen": "400-0013", "pref": "山梨県", "city": "甲府市", "town": "岩窪町", "full": "山梨県甲府市岩窪町"}, {"postal_code": "4000045", "postal_hyphen": "400-0045", "pref": "山梨県", "city": "甲府市", "town": "後屋町", "full": "山梨県甲府市後屋町"}, {"postal_code": "4001504", "postal_hyphen": "400-1504", "pref": "山梨県", "city": "甲府市", "town": "右左口町", "full": "山梨県甲府市右左口町"}, {"postal_code": "4000053", "postal_hyphen": "400-0053", "pref": "山梨県", "city": "甲府市", "town": "大里町", "full": "山梨県甲府市大里町"}, {"postal_code": "4000865", "postal_hyphen": "400-0865", "pref": "山梨県", "city": "甲府市", "town": "太田町", "full": "山梨県甲府市太田町"}, {"postal_code": "4000055", "postal_hyphen": "400-0055", "pref": "山梨県", "city": "甲府市", "town": "大津町", "full": "山梨県甲府市大津町"}, {"postal_code": "4000015", "postal_hyphen": "400-0015", "pref": "山梨県", "city": "甲府市", "town": "大手", "full": "山梨県甲府市大手"}, {"postal_code": "4000834", "postal_hyphen": "400-0834", "pref": "山梨県", "city": "甲府市", "town": "落合町", "full": "山梨県甲府市落合町"}, {"postal_code": "4000028", "postal_hyphen": "400-0028", "pref": "山梨県", "city": "甲府市", "town": "音羽町", "full": "山梨県甲府市音羽町"}, {"postal_code": "4000841", "postal_hyphen": "400-0841", "pref": "山梨県", "city": "甲府市", "town": "小曲町", "full": "山梨県甲府市小曲町"}, {"postal_code": "4093711", "postal_hyphen": "409-3711", "pref": "山梨県", "city": "甲府市", "town": "梯町", "full": "山梨県甲府市梯町"}, {"postal_code": "4000063", "postal_hyphen": "400-0063", "pref": "山梨県", "city": "甲府市", "town": "金竹町", "full": "山梨県甲府市金竹町"}, {"postal_code": "4000814", "postal_hyphen": "400-0814", "pref": "山梨県", "city": "甲府市", "town": "上阿原町", "full": "山梨県甲府市上阿原町"}, {"postal_code": "4000041", "postal_hyphen": "400-0041", "pref": "山梨県", "city": "甲府市", "town": "上石田", "full": "山梨県甲府市上石田"}, {"postal_code": "4000845", "postal_hyphen": "400-0845", "pref": "山梨県", "city": "甲府市", "town": "上今井町", "full": "山梨県甲府市上今井町"}, {"postal_code": "4000081", "postal_hyphen": "400-0081", "pref": "山梨県", "city": "甲府市", "town": "上帯那町", "full": "山梨県甲府市上帯那町"}, {"postal_code": "4000044", "postal_hyphen": "400-0044", "pref": "山梨県", "city": "甲府市", "town": "上小河原町", "full": "山梨県甲府市上小河原町"}, {"postal_code": "4000052", "postal_hyphen": "400-0052", "pref": "山梨県", "city": "甲府市", "town": "上条新居町", "full": "山梨県甲府市上条新居町"}, {"postal_code": "4000011", "postal_hyphen": "400-0011", "pref": "山梨県", "city": "甲府市", "town": "上積翠寺町", "full": "山梨県甲府市上積翠寺町"}, {"postal_code": "4001501", "postal_hyphen": "400-1501", "pref": "山梨県", "city": "甲府市", "town": "上曽根町", "full": "山梨県甲府市上曽根町"}, {"postal_code": "4000831", "postal_hyphen": "400-0831", "pref": "山梨県", "city": "甲府市", "town": "上町", "full": "山梨県甲府市上町"}, {"postal_code": "4001506", "postal_hyphen": "400-1506", "pref": "山梨県", "city": "甲府市", "town": "上向山町", "full": "山梨県甲府市上向山町"}, {"postal_code": "4001213", "postal_hyphen": "400-1213", "pref": "山梨県", "city": "甲府市", "town": "川窪町", "full": "山梨県甲府市川窪町"}, {"postal_code": "4000811", "postal_hyphen": "400-0811", "pref": "山梨県", "city": "甲府市", "town": "川田町", "full": "山梨県甲府市川田町"}, {"postal_code": "4000024", "postal_hyphen": "400-0024", "pref": "山梨県", "city": "甲府市", "town": "北口", "full": "山梨県甲府市北口"}, {"postal_code": "4000005", "postal_hyphen": "400-0005", "pref": "山梨県", "city": "甲府市", "town": "北新", "full": "山梨県甲府市北新"}, {"postal_code": "4000065", "postal_hyphen": "400-0065", "pref": "山梨県", "city": "甲府市", "town": "貢川", "full": "山梨県甲府市貢川"}, {"postal_code": "4000048", "postal_hyphen": "400-0048", "pref": "山梨県", "city": "甲府市", "town": "貢川本町", "full": "山梨県甲府市貢川本町"}, {"postal_code": "4000815", "postal_hyphen": "400-0815", "pref": "山梨県", "city": "甲府市", "town": "国玉町", "full": "山梨県甲府市国玉町"}, {"postal_code": "4001211", "postal_hyphen": "400-1211", "pref": "山梨県", "city": "甲府市", "town": "黒平町", "full": "山梨県甲府市黒平町"}, {"postal_code": "4000043", "postal_hyphen": "400-0043", "pref": "山梨県", "city": "甲府市", "town": "国母", "full": "山梨県甲府市国母"}, {"postal_code": "4000836", "postal_hyphen": "400-0836", "pref": "山梨県", "city": "甲府市", "town": "小瀬町", "full": "山梨県甲府市小瀬町"}, {"postal_code": "4000033", "postal_hyphen": "400-0033", "pref": "山梨県", "city": "甲府市", "town": "寿町", "full": "山梨県甲府市寿町"}, {"postal_code": "4000014", "postal_hyphen": "400-0014", "pref": "山梨県", "city": "甲府市", "town": "古府中町", "full": "山梨県甲府市古府中町"}, {"postal_code": "4000002", "postal_hyphen": "400-0002", "pref": "山梨県", "city": "甲府市", "town": "小松町", "full": "山梨県甲府市小松町"}, {"postal_code": "4000857", "postal_hyphen": "400-0857", "pref": "山梨県", "city": "甲府市", "town": "幸町", "full": "山梨県甲府市幸町"}, {"postal_code": "4000805", "postal_hyphen": "400-0805", "pref": "山梨県", "city": "甲府市", "town": "酒折", "full": "山梨県甲府市酒折"}, {"postal_code": "4000804", "postal_hyphen": "400-0804", "pref": "山梨県", "city": "甲府市", "town": "酒折町", "full": "山梨県甲府市酒折町"}, {"postal_code": "4000803", "postal_hyphen": "400-0803", "pref": "山梨県", "city": "甲府市", "town": "桜井町", "full": "山梨県甲府市桜井町"}, {"postal_code": "4000822", "postal_hyphen": "400-0822", "pref": "山梨県", "city": "甲府市", "town": "里吉", "full": "山梨県甲府市里吉"}, {"postal_code": "4000823", "postal_hyphen": "400-0823", "pref": "山梨県", "city": "甲府市", "town": "里吉町", "full": "山梨県甲府市里吉町"}, {"postal_code": "4000026", "postal_hyphen": "400-0026", "pref": "山梨県", "city": "甲府市", "town": "塩部", "full": "山梨県甲府市塩部"}, {"postal_code": "4000064", "postal_hyphen": "400-0064", "pref": "山梨県", "city": "甲府市", "town": "下飯田", "full": "山梨県甲府市下飯田"}, {"postal_code": "4000046", "postal_hyphen": "400-0046", "pref": "山梨県", "city": "甲府市", "town": "下石田", "full": "山梨県甲府市下石田"}, {"postal_code": "4000842", "postal_hyphen": "400-0842", "pref": "山梨県", "city": "甲府市", "town": "下今井町", "full": "山梨県甲府市下今井町"}, {"postal_code": "4000082", "postal_hyphen": "400-0082", "pref": "山梨県", "city": "甲府市", "town": "下帯那町", "full": "山梨県甲府市下帯那町"}, {"postal_code": "4000835", "postal_hyphen": "400-0835", "pref": "山梨県", "city": "甲府市", "town": "下鍛冶屋町", "full": "山梨県甲府市下鍛冶屋町"}, {"postal_code": "4000068", "postal_hyphen": "400-0068", "pref": "山梨県", "city": "甲府市", "town": "下河原町", "full": "山梨県甲府市下河原町"}, {"postal_code": "4000853", "postal_hyphen": "400-0853", "pref": "山梨県", "city": "甲府市", "town": "下小河原町", "full": "山梨県甲府市下小河原町"}, {"postal_code": "4000012", "postal_hyphen": "400-0012", "pref": "山梨県", "city": "甲府市", "town": "下積翠寺町", "full": "山梨県甲府市下積翠寺町"}, {"postal_code": "4001508", "postal_hyphen": "400-1508", "pref": "山梨県", "city": "甲府市", "town": "下曽根町", "full": "山梨県甲府市下曽根町"}, {"postal_code": "4001507", "postal_hyphen": "400-1507", "pref": "山梨県", "city": "甲府市", "town": "下向山町", "full": "山梨県甲府市下向山町"}, {"postal_code": "4000861", "postal_hyphen": "400-0861", "pref": "山梨県", "city": "甲府市", "town": "城東", "full": "山梨県甲府市城東"}, {"postal_code": "4001502", "postal_hyphen": "400-1502", "pref": "山梨県", "city": "甲府市", "town": "白井町", "full": "山梨県甲府市白井町"}, {"postal_code": "4001503", "postal_hyphen": "400-1503", "pref": "山梨県", "city": "甲府市", "town": "心経寺町", "full": "山梨県甲府市心経寺町"}, {"postal_code": "4000066", "postal_hyphen": "400-0066", "pref": "山梨県", "city": "甲府市", "town": "新田町", "full": "山梨県甲府市新田町"}, {"postal_code": "4000821", "postal_hyphen": "400-0821", "pref": "山梨県", "city": "甲府市", "town": "砂田町", "full": "山梨県甲府市砂田町"}, {"postal_code": "4000851", "postal_hyphen": "400-0851", "pref": "山梨県", "city": "甲府市", "town": "住吉", "full": "山梨県甲府市住吉"}, {"postal_code": "4000852", "postal_hyphen": "400-0852", "pref": "山梨県", "city": "甲府市", "town": "住吉本町", "full": "山梨県甲府市住吉本町"}, {"postal_code": "4000806", "postal_hyphen": "400-0806", "pref": "山梨県", "city": "甲府市", "town": "善光寺", "full": "山梨県甲府市善光寺"}, {"postal_code": "4000801", "postal_hyphen": "400-0801", "pref": "山梨県", "city": "甲府市", "town": "善光寺町", "full": "山梨県甲府市善光寺町"}, {"postal_code": "4001219", "postal_hyphen": "400-1219", "pref": "山梨県", "city": "甲府市", "town": "草鹿沢町", "full": "山梨県甲府市草鹿沢町"}, {"postal_code": "4000072", "postal_hyphen": "400-0072", "pref": "山梨県", "city": "甲府市", "town": "大和町", "full": "山梨県甲府市大和町"}, {"postal_code": "4001214", "postal_hyphen": "400-1214", "pref": "山梨県", "city": "甲府市", "town": "高成町", "full": "山梨県甲府市高成町"}, {"postal_code": "4000042", "postal_hyphen": "400-0042", "pref": "山梨県", "city": "甲府市", "town": "高畑", "full": "山梨県甲府市高畑"}, {"postal_code": "4001212", "postal_hyphen": "400-1212", "pref": "山梨県", "city": "甲府市", "town": "高町", "full": "山梨県甲府市高町"}, {"postal_code": "4000057", "postal_hyphen": "400-0057", "pref": "山梨県", "city": "甲府市", "town": "高室町", "full": "山梨県甲府市高室町"}, {"postal_code": "4000034", "postal_hyphen": "400-0034", "pref": "山梨県", "city": "甲府市", "town": "宝", "full": "山梨県甲府市宝"}, {"postal_code": "4000016", "postal_hyphen": "400-0016", "pref": "山梨県", "city": "甲府市", "town": "武田", "full": "山梨県甲府市武田"}, {"postal_code": "4001215", "postal_hyphen": "400-1215", "pref": "山梨県", "city": "甲府市", "town": "竹日向町", "full": "山梨県甲府市竹日向町"}, {"postal_code": "4000074", "postal_hyphen": "400-0074", "pref": "山梨県", "city": "甲府市", "town": "千塚", "full": "山梨県甲府市千塚"}, {"postal_code": "4000032", "postal_hyphen": "400-0032", "pref": "山梨県", "city": "甲府市", "town": "中央", "full": "山梨県甲府市中央"}, {"postal_code": "4000067", "postal_hyphen": "400-0067", "pref": "山梨県", "city": "甲府市", "town": "長松寺町", "full": "山梨県甲府市長松寺町"}, {"postal_code": "4000003", "postal_hyphen": "400-0003", "pref": "山梨県", "city": "甲府市", "town": "塚原町", "full": "山梨県甲府市塚原町"}, {"postal_code": "4000006", "postal_hyphen": "400-0006", "pref": "山梨県", "city": "甲府市", "town": "天神町", "full": "山梨県甲府市天神町"}, {"postal_code": "4001216", "postal_hyphen": "400-1216", "pref": "山梨県", "city": "甲府市", "town": "塔岩町", "full": "山梨県甲府市塔岩町"}, {"postal_code": "4000807", "postal_hyphen": "400-0807", "pref": "山梨県", "city": "甲府市", "town": "東光寺", "full": "山梨県甲府市東光寺"}, {"postal_code": "4000808", "postal_hyphen": "400-0808", "pref": "山梨県", "city": "甲府市", "town": "東光寺町", "full": "山梨県甲府市東光寺町"}, {"postal_code": "4000047", "postal_hyphen": "400-0047", "pref": "山梨県", "city": "甲府市", "town": "徳行", "full": "山梨県甲府市徳行"}, {"postal_code": "4000049", "postal_hyphen": "400-0049", "pref": "山梨県", "city": "甲府市", "town": "富竹", "full": "山梨県甲府市富竹"}, {"postal_code": "4000855", "postal_hyphen": "400-0855", "pref": "山梨県", "city": "甲府市", "town": "中小河原", "full": "山梨県甲府市中小河原"}, {"postal_code": "4000854", "postal_hyphen": "400-0854", "pref": "山梨県", "city": "甲府市", "town": "中小河原町", "full": "山梨県甲府市中小河原町"}, {"postal_code": "4000844", "postal_hyphen": "400-0844", "pref": "山梨県", "city": "甲府市", "town": "中町", "full": "山梨県甲府市中町"}, {"postal_code": "4001505", "postal_hyphen": "400-1505", "pref": "山梨県", "city": "甲府市", "town": "中畑町", "full": "山梨県甲府市中畑町"}, {"postal_code": "4000069", "postal_hyphen": "400-0069", "pref": "山梨県", "city": "甲府市", "town": "中村町", "full": "山梨県甲府市中村町"}, {"postal_code": "4000825", "postal_hyphen": "400-0825", "pref": "山梨県", "city": "甲府市", "town": "七沢町", "full": "山梨県甲府市七沢町"}, {"postal_code": "4000833", "postal_hyphen": "400-0833", "pref": "山梨県", "city": "甲府市", "town": "西油川町", "full": "山梨県甲府市西油川町"}, {"postal_code": "4000054", "postal_hyphen": "400-0054", "pref": "山梨県", "city": "甲府市", "town": "西下条町", "full": "山梨県甲府市西下条町"}, {"postal_code": "4000826", "postal_hyphen": "400-0826", "pref": "山梨県", "city": "甲府市", "town": "西高橋町", "full": "山梨県甲府市西高橋町"}, {"postal_code": "4000004", "postal_hyphen": "400-0004", "pref": "山梨県", "city": "甲府市", "town": "西田町", "full": "山梨県甲府市西田町"}, {"postal_code": "4000071", "postal_hyphen": "400-0071", "pref": "山梨県", "city": "甲府市", "town": "羽黒町", "full": "山梨県甲府市羽黒町"}, {"postal_code": "4000843", "postal_hyphen": "400-0843", "pref": "山梨県", "city": "甲府市", "town": "東下条町", "full": "山梨県甲府市東下条町"}, {"postal_code": "4000083", "postal_hyphen": "400-0083", "pref": "山梨県", "city": "甲府市", "town": "平瀬町", "full": "山梨県甲府市平瀬町"}, {"postal_code": "4000027", "postal_hyphen": "400-0027", "pref": "山梨県", "city": "甲府市", "town": "富士見", "full": "山梨県甲府市富士見"}, {"postal_code": "4000051", "postal_hyphen": "400-0051", "pref": "山梨県", "city": "甲府市", "town": "古上条町", "full": "山梨県甲府市古上条町"}, {"postal_code": "4093712", "postal_hyphen": "409-3712", "pref": "山梨県", "city": "甲府市", "town": "古関町", "full": "山梨県甲府市古関町"}, {"postal_code": "4000056", "postal_hyphen": "400-0056", "pref": "山梨県", "city": "甲府市", "town": "堀之内町", "full": "山梨県甲府市堀之内町"}, {"postal_code": "4000832", "postal_hyphen": "400-0832", "pref": "山梨県", "city": "甲府市", "town": "増坪町", "full": "山梨県甲府市増坪町"}, {"postal_code": "4000031", "postal_hyphen": "400-0031", "pref": "山梨県", "city": "甲府市", "town": "丸の内", "full": "山梨県甲府市丸の内"}, {"postal_code": "4000007", "postal_hyphen": "400-0007", "pref": "山梨県", "city": "甲府市", "town": "美咲", "full": "山梨県甲府市美咲"}, {"postal_code": "4001218", "postal_hyphen": "400-1218", "pref": "山梨県", "city": "甲府市", "town": "御岳町", "full": "山梨県甲府市御岳町"}, {"postal_code": "4000008", "postal_hyphen": "400-0008", "pref": "山梨県", "city": "甲府市", "town": "緑が丘", "full": "山梨県甲府市緑が丘"}, {"postal_code": "4000863", "postal_hyphen": "400-0863", "pref": "山梨県", "city": "甲府市", "town": "南口町", "full": "山梨県甲府市南口町"}, {"postal_code": "4000058", "postal_hyphen": "400-0058", "pref": "山梨県", "city": "甲府市", "town": "宮原町", "full": "山梨県甲府市宮原町"}, {"postal_code": "4000021", "postal_hyphen": "400-0021", "pref": "山梨県", "city": "甲府市", "town": "宮前町", "full": "山梨県甲府市宮前町"}, {"postal_code": "4000813", "postal_hyphen": "400-0813", "pref": "山梨県", "city": "甲府市", "town": "向町", "full": "山梨県甲府市向町"}, {"postal_code": "4000022", "postal_hyphen": "400-0022", "pref": "山梨県", "city": "甲府市", "town": "元紺屋町", "full": "山梨県甲府市元紺屋町"}, {"postal_code": "4000017", "postal_hyphen": "400-0017", "pref": "山梨県", "city": "甲府市", "town": "屋形", "full": "山梨県甲府市屋形"}, {"postal_code": "4000075", "postal_hyphen": "400-0075", "pref": "山梨県", "city": "甲府市", "town": "山宮町", "full": "山梨県甲府市山宮町"}, {"postal_code": "4000864", "postal_hyphen": "400-0864", "pref": "山梨県", "city": "甲府市", "town": "湯田", "full": "山梨県甲府市湯田"}, {"postal_code": "4000073", "postal_hyphen": "400-0073", "pref": "山梨県", "city": "甲府市", "town": "湯村", "full": "山梨県甲府市湯村"}, {"postal_code": "4000802", "postal_hyphen": "400-0802", "pref": "山梨県", "city": "甲府市", "town": "横根町", "full": "山梨県甲府市横根町"}, {"postal_code": "4000827", "postal_hyphen": "400-0827", "pref": "山梨県", "city": "甲府市", "town": "蓬沢", "full": "山梨県甲府市蓬沢"}, {"postal_code": "4000824", "postal_hyphen": "400-0824", "pref": "山梨県", "city": "甲府市", "town": "蓬沢町", "full": "山梨県甲府市蓬沢町"}, {"postal_code": "4000866", "postal_hyphen": "400-0866", "pref": "山梨県", "city": "甲府市", "town": "若松町", "full": "山梨県甲府市若松町"}, {"postal_code": "4000001", "postal_hyphen": "400-0001", "pref": "山梨県", "city": "甲府市", "town": "和田町", "full": "山梨県甲府市和田町"}, {"postal_code": "4000812", "postal_hyphen": "400-0812", "pref": "山梨県", "city": "甲府市", "town": "和戸町", "full": "山梨県甲府市和戸町"}, {"postal_code": "4030000", "postal_hyphen": "403-0000", "pref": "山梨県", "city": "富士吉田市", "town": "", "full": "山梨県富士吉田市"}, {"postal_code": "4030012", "postal_hyphen": "403-0012", "pref": "山梨県", "city": "富士吉田市", "town": "旭", "full": "山梨県富士吉田市旭"}, {"postal_code": "4030031", "postal_hyphen": "403-0031", "pref": "山梨県", "city": "富士吉田市", "town": "浅間", "full": "山梨県富士吉田市浅間"}, {"postal_code": "4030011", "postal_hyphen": "403-0011", "pref": "山梨県", "city": "富士吉田市", "town": "新倉", "full": "山梨県富士吉田市新倉"}, {"postal_code": "4030006", "postal_hyphen": "403-0006", "pref": "山梨県", "city": "富士吉田市", "town": "新屋", "full": "山梨県富士吉田市新屋"}, {"postal_code": "4030003", "postal_hyphen": "403-0003", "pref": "山梨県", "city": "富士吉田市", "town": "大明見", "full": "山梨県富士吉田市大明見"}, {"postal_code": "4030001", "postal_hyphen": "403-0001", "pref": "山梨県", "city": "富士吉田市", "town": "上暮地", "full": "山梨県富士吉田市上暮地"}, {"postal_code": "4030005", "postal_hyphen": "403-0005", "pref": "山梨県", "city": "富士吉田市", "town": "上吉田", "full": "山梨県富士吉田市上吉田"}, {"postal_code": "4030032", "postal_hyphen": "403-0032", "pref": "山梨県", "city": "富士吉田市", "town": "上吉田東", "full": "山梨県富士吉田市上吉田東"}, {"postal_code": "4030002", "postal_hyphen": "403-0002", "pref": "山梨県", "city": "富士吉田市", "town": "小明見", "full": "山梨県富士吉田市小明見"}, {"postal_code": "4030004", "postal_hyphen": "403-0004", "pref": "山梨県", "city": "富士吉田市", "town": "下吉田", "full": "山梨県富士吉田市下吉田"}, {"postal_code": "4030008", "postal_hyphen": "403-0008", "pref": "山梨県", "city": "富士吉田市", "town": "下吉田東", "full": "山梨県富士吉田市下吉田東"}, {"postal_code": "4030017", "postal_hyphen": "403-0017", "pref": "山梨県", "city": "富士吉田市", "town": "新西原", "full": "山梨県富士吉田市新西原"}, {"postal_code": "4030019", "postal_hyphen": "403-0019", "pref": "山梨県", "city": "富士吉田市", "town": "新町", "full": "山梨県富士吉田市新町"}, {"postal_code": "4030014", "postal_hyphen": "403-0014", "pref": "山梨県", "city": "富士吉田市", "town": "竜ケ丘", "full": "山梨県富士吉田市竜ケ丘"}, {"postal_code": "4030015", "postal_hyphen": "403-0015", "pref": "山梨県", "city": "富士吉田市", "town": "ときわ台", "full": "山梨県富士吉田市ときわ台"}, {"postal_code": "4030007", "postal_hyphen": "403-0007", "pref": "山梨県", "city": "富士吉田市", "town": "中曽根", "full": "山梨県富士吉田市中曽根"}, {"postal_code": "4030009", "postal_hyphen": "403-0009", "pref": "山梨県", "city": "富士吉田市", "town": "富士見", "full": "山梨県富士吉田市富士見"}, {"postal_code": "4030016", "postal_hyphen": "403-0016", "pref": "山梨県", "city": "富士吉田市", "town": "松山", "full": "山梨県富士吉田市松山"}, {"postal_code": "4030013", "postal_hyphen": "403-0013", "pref": "山梨県", "city": "富士吉田市", "town": "緑ケ丘", "full": "山梨県富士吉田市緑ケ丘"}, {"postal_code": "4030018", "postal_hyphen": "403-0018", "pref": "山梨県", "city": "富士吉田市", "town": "向原", "full": "山梨県富士吉田市向原"}, {"postal_code": "4020000", "postal_hyphen": "402-0000", "pref": "山梨県", "city": "都留市", "town": "", "full": "山梨県都留市"}, {"postal_code": "4020015", "postal_hyphen": "402-0015", "pref": "山梨県", "city": "都留市", "town": "朝日曽雌", "full": "山梨県都留市朝日曽雌"}, {"postal_code": "4020014", "postal_hyphen": "402-0014", "pref": "山梨県", "city": "都留市", "town": "朝日馬場", "full": "山梨県都留市朝日馬場"}, {"postal_code": "4020042", "postal_hyphen": "402-0042", "pref": "山梨県", "city": "都留市", "town": "厚原", "full": "山梨県都留市厚原"}, {"postal_code": "4020011", "postal_hyphen": "402-0011", "pref": "山梨県", "city": "都留市", "town": "井倉", "full": "山梨県都留市井倉"}, {"postal_code": "4020023", "postal_hyphen": "402-0023", "pref": "山梨県", "city": "都留市", "town": "大野", "full": "山梨県都留市大野"}, {"postal_code": "4020045", "postal_hyphen": "402-0045", "pref": "山梨県", "city": "都留市", "town": "大幡", "full": "山梨県都留市大幡"}, {"postal_code": "4020002", "postal_hyphen": "402-0002", "pref": "山梨県", "city": "都留市", "town": "大原", "full": "山梨県都留市大原"}, {"postal_code": "4020006", "postal_hyphen": "402-0006", "pref": "山梨県", "city": "都留市", "town": "小形山", "full": "山梨県都留市小形山"}, {"postal_code": "4020024", "postal_hyphen": "402-0024", "pref": "山梨県", "city": "都留市", "town": "小野", "full": "山梨県都留市小野"}, {"postal_code": "4020034", "postal_hyphen": "402-0034", "pref": "山梨県", "city": "都留市", "town": "桂町", "full": "山梨県都留市桂町"}, {"postal_code": "4020041", "postal_hyphen": "402-0041", "pref": "山梨県", "city": "都留市", "town": "金井", "full": "山梨県都留市金井"}, {"postal_code": "4020044", "postal_hyphen": "402-0044", "pref": "山梨県", "city": "都留市", "town": "加畑", "full": "山梨県都留市加畑"}, {"postal_code": "4020053", "postal_hyphen": "402-0053", "pref": "山梨県", "city": "都留市", "town": "上谷", "full": "山梨県都留市上谷"}, {"postal_code": "4020055", "postal_hyphen": "402-0055", "pref": "山梨県", "city": "都留市", "town": "川棚", "full": "山梨県都留市川棚"}, {"postal_code": "4020003", "postal_hyphen": "402-0003", "pref": "山梨県", "city": "都留市", "town": "川茂", "full": "山梨県都留市川茂"}, {"postal_code": "4020033", "postal_hyphen": "402-0033", "pref": "山梨県", "city": "都留市", "town": "境", "full": "山梨県都留市境"}, {"postal_code": "4020032", "postal_hyphen": "402-0032", "pref": "山梨県", "city": "都留市", "town": "鹿留", "full": "山梨県都留市鹿留"}, {"postal_code": "4020051", "postal_hyphen": "402-0051", "pref": "山梨県", "city": "都留市", "town": "下谷", "full": "山梨県都留市下谷"}, {"postal_code": "4020001", "postal_hyphen": "402-0001", "pref": "山梨県", "city": "都留市", "town": "田野倉", "full": "山梨県都留市田野倉"}, {"postal_code": "4020054", "postal_hyphen": "402-0054", "pref": "山梨県", "city": "都留市", "town": "田原", "full": "山梨県都留市田原"}, {"postal_code": "4020021", "postal_hyphen": "402-0021", "pref": "山梨県", "city": "都留市", "town": "玉川", "full": "山梨県都留市玉川"}, {"postal_code": "4020052", "postal_hyphen": "402-0052", "pref": "山梨県", "city": "都留市", "town": "中央", "full": "山梨県都留市中央"}, {"postal_code": "4020056", "postal_hyphen": "402-0056", "pref": "山梨県", "city": "都留市", "town": "つる", "full": "山梨県都留市つる"}, {"postal_code": "4020031", "postal_hyphen": "402-0031", "pref": "山梨県", "city": "都留市", "town": "十日市場", "full": "山梨県都留市十日市場"}, {"postal_code": "4020022", "postal_hyphen": "402-0022", "pref": "山梨県", "city": "都留市", "town": "戸沢", "full": "山梨県都留市戸沢"}, {"postal_code": "4020046", "postal_hyphen": "402-0046", "pref": "山梨県", "city": "都留市", "town": "中津森", "full": "山梨県都留市中津森"}, {"postal_code": "4020035", "postal_hyphen": "402-0035", "pref": "山梨県", "city": "都留市", "town": "夏狩", "full": "山梨県都留市夏狩"}, {"postal_code": "4020043", "postal_hyphen": "402-0043", "pref": "山梨県", "city": "都留市", "town": "平栗", "full": "山梨県都留市平栗"}, {"postal_code": "4020004", "postal_hyphen": "402-0004", "pref": "山梨県", "city": "都留市", "town": "古川渡", "full": "山梨県都留市古川渡"}, {"postal_code": "4020025", "postal_hyphen": "402-0025", "pref": "山梨県", "city": "都留市", "town": "法能", "full": "山梨県都留市法能"}, {"postal_code": "4020013", "postal_hyphen": "402-0013", "pref": "山梨県", "city": "都留市", "town": "盛里", "full": "山梨県都留市盛里"}, {"postal_code": "4020005", "postal_hyphen": "402-0005", "pref": "山梨県", "city": "都留市", "town": "四日市場", "full": "山梨県都留市四日市場"}, {"postal_code": "4020012", "postal_hyphen": "402-0012", "pref": "山梨県", "city": "都留市", "town": "与縄", "full": "山梨県都留市与縄"}, {"postal_code": "4050000", "postal_hyphen": "405-0000", "pref": "山梨県", "city": "山梨市", "town": "", "full": "山梨県山梨市"}, {"postal_code": "4050044", "postal_hyphen": "405-0044", "pref": "山梨県", "city": "山梨市", "town": "市川", "full": "山梨県山梨市市川"}, {"postal_code": "4050025", "postal_hyphen": "405-0025", "pref": "山梨県", "city": "山梨市", "town": "一町田中", "full": "山梨県山梨市一町田中"}, {"postal_code": "4050024", "postal_hyphen": "405-0024", "pref": "山梨県", "city": "山梨市", "town": "歌田", "full": "山梨県山梨市歌田"}, {"postal_code": "4050043", "postal_hyphen": "405-0043", "pref": "山梨県", "city": "山梨市", "town": "江曽原", "full": "山梨県山梨市江曽原"}, {"postal_code": "4050016", "postal_hyphen": "405-0016", "pref": "山梨県", "city": "山梨市", "town": "大野", "full": "山梨県山梨市大野"}, {"postal_code": "4050033", "postal_hyphen": "405-0033", "pref": "山梨県", "city": "山梨市", "town": "落合", "full": "山梨県山梨市落合"}, {"postal_code": "4050014", "postal_hyphen": "405-0014", "pref": "山梨県", "city": "山梨市", "town": "上石森", "full": "山梨県山梨市上石森"}, {"postal_code": "4050034", "postal_hyphen": "405-0034", "pref": "山梨県", "city": "山梨市", "town": "上岩下", "full": "山梨県山梨市上岩下"}, {"postal_code": "4050018", "postal_hyphen": "405-0018", "pref": "山梨県", "city": "山梨市", "town": "上神内川", "full": "山梨県山梨市上神内川"}, {"postal_code": "4050022", "postal_hyphen": "405-0022", "pref": "山梨県", "city": "山梨市", "town": "上栗原", "full": "山梨県山梨市上栗原"}, {"postal_code": "4050004", "postal_hyphen": "405-0004", "pref": "山梨県", "city": "山梨市", "town": "上之割", "full": "山梨県山梨市上之割"}, {"postal_code": "4050013", "postal_hyphen": "405-0013", "pref": "山梨県", "city": "山梨市", "town": "鴨居寺", "full": "山梨県山梨市鴨居寺"}, {"postal_code": "4050041", "postal_hyphen": "405-0041", "pref": "山梨県", "city": "山梨市", "town": "北", "full": "山梨県山梨市北"}, {"postal_code": "4050048", "postal_hyphen": "405-0048", "pref": "山梨県", "city": "山梨市", "town": "切差", "full": "山梨県山梨市切差"}, {"postal_code": "4050005", "postal_hyphen": "405-0005", "pref": "山梨県", "city": "山梨市", "town": "小原東", "full": "山梨県山梨市小原東"}, {"postal_code": "4050006", "postal_hyphen": "405-0006", "pref": "山梨県", "city": "山梨市", "town": "小原西", "full": "山梨県山梨市小原西"}, {"postal_code": "4050011", "postal_hyphen": "405-0011", "pref": "山梨県", "city": "山梨市", "town": "三ケ所", "full": "山梨県山梨市三ケ所"}, {"postal_code": "4050015", "postal_hyphen": "405-0015", "pref": "山梨県", "city": "山梨市", "town": "下石森", "full": "山梨県山梨市下石森"}, {"postal_code": "4050003", "postal_hyphen": "405-0003", "pref": "山梨県", "city": "山梨市", "town": "下井尻", "full": "山梨県山梨市下井尻"}, {"postal_code": "4050017", "postal_hyphen": "405-0017", "pref": "山梨県", "city": "山梨市", "town": "下神内川", "full": "山梨県山梨市下神内川"}, {"postal_code": "4050023", "postal_hyphen": "405-0023", "pref": "山梨県", "city": "山梨市", "town": "下栗原", "full": "山梨県山梨市下栗原"}, {"postal_code": "4050032", "postal_hyphen": "405-0032", "pref": "山梨県", "city": "山梨市", "town": "正徳寺", "full": "山梨県山梨市正徳寺"}, {"postal_code": "4050045", "postal_hyphen": "405-0045", "pref": "山梨県", "city": "山梨市", "town": "大工", "full": "山梨県山梨市大工"}, {"postal_code": "4050021", "postal_hyphen": "405-0021", "pref": "山梨県", "city": "山梨市", "town": "中村", "full": "山梨県山梨市中村"}, {"postal_code": "4050007", "postal_hyphen": "405-0007", "pref": "山梨県", "city": "山梨市", "town": "七日市場", "full": "山梨県山梨市七日市場"}, {"postal_code": "4050001", "postal_hyphen": "405-0001", "pref": "山梨県", "city": "山梨市", "town": "西", "full": "山梨県山梨市西"}, {"postal_code": "4050002", "postal_hyphen": "405-0002", "pref": "山梨県", "city": "山梨市", "town": "東", "full": "山梨県山梨市東"}, {"postal_code": "4050012", "postal_hyphen": "405-0012", "pref": "山梨県", "city": "山梨市", "town": "東後屋敷", "full": "山梨県山梨市東後屋敷"}, {"postal_code": "4050046", "postal_hyphen": "405-0046", "pref": "山梨県", "city": "山梨市", "town": "堀内", "full": "山梨県山梨市堀内"}, {"postal_code": "4040007", "postal_hyphen": "404-0007", "pref": "山梨県", "city": "山梨市", "town": "牧丘町北原", "full": "山梨県山梨市牧丘町北原"}, {"postal_code": "4040013", "postal_hyphen": "404-0013", "pref": "山梨県", "city": "山梨市", "town": "牧丘町窪平", "full": "山梨県山梨市牧丘町窪平"}, {"postal_code": "4040003", "postal_hyphen": "404-0003", "pref": "山梨県", "city": "山梨市", "town": "牧丘町倉科", "full": "山梨県山梨市牧丘町倉科"}, {"postal_code": "4040015", "postal_hyphen": "404-0015", "pref": "山梨県", "city": "山梨市", "town": "牧丘町城古寺", "full": "山梨県山梨市牧丘町城古寺"}, {"postal_code": "4040002", "postal_hyphen": "404-0002", "pref": "山梨県", "city": "山梨市", "town": "牧丘町杣口", "full": "山梨県山梨市牧丘町杣口"}, {"postal_code": "4040016", "postal_hyphen": "404-0016", "pref": "山梨県", "city": "山梨市", "town": "牧丘町千野々宮", "full": "山梨県山梨市牧丘町千野々宮"}, {"postal_code": "4040011", "postal_hyphen": "404-0011", "pref": "山梨県", "city": "山梨市", "town": "牧丘町成沢", "full": "山梨県山梨市牧丘町成沢"}, {"postal_code": "4040004", "postal_hyphen": "404-0004", "pref": "山梨県", "city": "山梨市", "town": "牧丘町西保下", "full": "山梨県山梨市牧丘町西保下"}, {"postal_code": "4040005", "postal_hyphen": "404-0005", "pref": "山梨県", "city": "山梨市", "town": "牧丘町西保中", "full": "山梨県山梨市牧丘町西保中"}, {"postal_code": "4040014", "postal_hyphen": "404-0014", "pref": "山梨県", "city": "山梨市", "town": "牧丘町隼", "full": "山梨県山梨市牧丘町隼"}, {"postal_code": "4040006", "postal_hyphen": "404-0006", "pref": "山梨県", "city": "山梨市", "town": "牧丘町牧平", "full": "山梨県山梨市牧丘町牧平"}, {"postal_code": "4040012", "postal_hyphen": "404-0012", "pref": "山梨県", "city": "山梨市", "town": "牧丘町室伏", "full": "山梨県山梨市牧丘町室伏"}, {"postal_code": "4040001", "postal_hyphen": "404-0001", "pref": "山梨県", "city": "山梨市", "town": "牧丘町柳平", "full": "山梨県山梨市牧丘町柳平"}, {"postal_code": "4050031", "postal_hyphen": "405-0031", "pref": "山梨県", "city": "山梨市", "town": "万力", "full": "山梨県山梨市万力"}, {"postal_code": "4050047", "postal_hyphen": "405-0047", "pref": "山梨県", "city": "山梨市", "town": "水口", "full": "山梨県山梨市水口"}, {"postal_code": "4040206", "postal_hyphen": "404-0206", "pref": "山梨県", "city": "山梨市", "town": "三富上釜口", "full": "山梨県山梨市三富上釜口"}, {"postal_code": "4040202", "postal_hyphen": "404-0202", "pref": "山梨県", "city": "山梨市", "town": "三富上柚木", "full": "山梨県山梨市三富上柚木"}, {"postal_code": "4040201", "postal_hyphen": "404-0201", "pref": "山梨県", "city": "山梨市", "town": "三富川浦", "full": "山梨県山梨市三富川浦"}, {"postal_code": "4040203", "postal_hyphen": "404-0203", "pref": "山梨県", "city": "山梨市", "town": "三富下荻原", "full": "山梨県山梨市三富下荻原"}, {"postal_code": "4040204", "postal_hyphen": "404-0204", "pref": "山梨県", "city": "山梨市", "town": "三富下釜口", "full": "山梨県山梨市三富下釜口"}, {"postal_code": "4040205", "postal_hyphen": "404-0205", "pref": "山梨県", "city": "山梨市", "town": "三富徳和", "full": "山梨県山梨市三富徳和"}, {"postal_code": "4050042", "postal_hyphen": "405-0042", "pref": "山梨県", "city": "山梨市", "town": "南", "full": "山梨県山梨市南"}, {"postal_code": "4050036", "postal_hyphen": "405-0036", "pref": "山梨県", "city": "山梨市", "town": "矢坪", "full": "山梨県山梨市矢坪"}, {"postal_code": "4050035", "postal_hyphen": "405-0035", "pref": "山梨県", "city": "山梨市", "town": "山根", "full": "山梨県山梨市山根"}, {"postal_code": "4010000", "postal_hyphen": "401-0000", "pref": "山梨県", "city": "大月市", "town": "", "full": "山梨県大月市"}, {"postal_code": "4010013", "postal_hyphen": "401-0013", "pref": "山梨県", "city": "大月市", "town": "大月（１〜３丁目）", "full": "山梨県大月市大月（１〜３丁目）"}, {"postal_code": "4010014", "postal_hyphen": "401-0014", "pref": "山梨県", "city": "大月市", "town": "大月町大月", "full": "山梨県大月市大月町大月"}, {"postal_code": "4010015", "postal_hyphen": "401-0015", "pref": "山梨県", "city": "大月市", "town": "大月町花咲", "full": "山梨県大月市大月町花咲"}, {"postal_code": "4010016", "postal_hyphen": "401-0016", "pref": "山梨県", "city": "大月市", "town": "大月町真木", "full": "山梨県大月市大月町真木"}, {"postal_code": "4010011", "postal_hyphen": "401-0011", "pref": "山梨県", "city": "大月市", "town": "駒橋", "full": "山梨県大月市駒橋"}, {"postal_code": "4010025", "postal_hyphen": "401-0025", "pref": "山梨県", "city": "大月市", "town": "笹子町黒野田", "full": "山梨県大月市笹子町黒野田"}, {"postal_code": "4010023", "postal_hyphen": "401-0023", "pref": "山梨県", "city": "大月市", "town": "笹子町白野", "full": "山梨県大月市笹子町白野"}, {"postal_code": "4010024", "postal_hyphen": "401-0024", "pref": "山梨県", "city": "大月市", "town": "笹子町吉久保", "full": "山梨県大月市笹子町吉久保"}, {"postal_code": "4090615", "postal_hyphen": "409-0615", "pref": "山梨県", "city": "大月市", "town": "猿橋町朝日小沢", "full": "山梨県大月市猿橋町朝日小沢"}, {"postal_code": "4090613", "postal_hyphen": "409-0613", "pref": "山梨県", "city": "大月市", "town": "猿橋町伊良原", "full": "山梨県大月市猿橋町伊良原"}, {"postal_code": "4090616", "postal_hyphen": "409-0616", "pref": "山梨県", "city": "大月市", "town": "猿橋町小沢", "full": "山梨県大月市猿橋町小沢"}, {"postal_code": "4090611", "postal_hyphen": "409-0611", "pref": "山梨県", "city": "大月市", "town": "猿橋町小篠", "full": "山梨県大月市猿橋町小篠"}, {"postal_code": "4090618", "postal_hyphen": "409-0618", "pref": "山梨県", "city": "大月市", "town": "猿橋町桂台", "full": "山梨県大月市猿橋町桂台"}, {"postal_code": "4090614", "postal_hyphen": "409-0614", "pref": "山梨県", "city": "大月市", "town": "猿橋町猿橋", "full": "山梨県大月市猿橋町猿橋"}, {"postal_code": "4090617", "postal_hyphen": "409-0617", "pref": "山梨県", "city": "大月市", "town": "猿橋町殿上", "full": "山梨県大月市猿橋町殿上"}, {"postal_code": "4090612", "postal_hyphen": "409-0612", "pref": "山梨県", "city": "大月市", "town": "猿橋町藤崎", "full": "山梨県大月市猿橋町藤崎"}, {"postal_code": "4090502", "postal_hyphen": "409-0502", "pref": "山梨県", "city": "大月市", "town": "富浜町鳥沢", "full": "山梨県大月市富浜町鳥沢"}, {"postal_code": "4090501", "postal_hyphen": "409-0501", "pref": "山梨県", "city": "大月市", "town": "富浜町宮谷", "full": "山梨県大月市富浜町宮谷"}, {"postal_code": "4090621", "postal_hyphen": "409-0621", "pref": "山梨県", "city": "大月市", "town": "七保町浅川", "full": "山梨県大月市七保町浅川"}, {"postal_code": "4090623", "postal_hyphen": "409-0623", "pref": "山梨県", "city": "大月市", "town": "七保町葛野", "full": "山梨県大月市七保町葛野"}, {"postal_code": "4090627", "postal_hyphen": "409-0627", "pref": "山梨県", "city": "大月市", "town": "七保町駒宮", "full": "山梨県大月市七保町駒宮"}, {"postal_code": "4090622", "postal_hyphen": "409-0622", "pref": "山梨県", "city": "大月市", "town": "七保町下和田", "full": "山梨県大月市七保町下和田"}, {"postal_code": "4090626", "postal_hyphen": "409-0626", "pref": "山梨県", "city": "大月市", "town": "七保町瀬戸", "full": "山梨県大月市七保町瀬戸"}, {"postal_code": "4090625", "postal_hyphen": "409-0625", "pref": "山梨県", "city": "大月市", "town": "七保町奈良子", "full": "山梨県大月市七保町奈良子"}, {"postal_code": "4090624", "postal_hyphen": "409-0624", "pref": "山梨県", "city": "大月市", "town": "七保町林", "full": "山梨県大月市七保町林"}, {"postal_code": "4010005", "postal_hyphen": "401-0005", "pref": "山梨県", "city": "大月市", "town": "賑岡町浅利", "full": "山梨県大月市賑岡町浅利"}, {"postal_code": "4010002", "postal_hyphen": "401-0002", "pref": "山梨県", "city": "大月市", "town": "賑岡町岩殿", "full": "山梨県大月市賑岡町岩殿"}, {"postal_code": "4010006", "postal_hyphen": "401-0006", "pref": "山梨県", "city": "大月市", "town": "賑岡町奥山", "full": "山梨県大月市賑岡町奥山"}, {"postal_code": "4010004", "postal_hyphen": "401-0004", "pref": "山梨県", "city": "大月市", "town": "賑岡町強瀬", "full": "山梨県大月市賑岡町強瀬"}, {"postal_code": "4010001", "postal_hyphen": "401-0001", "pref": "山梨県", "city": "大月市", "town": "賑岡町畑倉", "full": "山梨県大月市賑岡町畑倉"}, {"postal_code": "4010003", "postal_hyphen": "401-0003", "pref": "山梨県", "city": "大月市", "town": "賑岡町ゆりケ丘", "full": "山梨県大月市賑岡町ゆりケ丘"}, {"postal_code": "4010021", "postal_hyphen": "401-0021", "pref": "山梨県", "city": "大月市", "town": "初狩町下初狩", "full": "山梨県大月市初狩町下初狩"}, {"postal_code": "4010022", "postal_hyphen": "401-0022", "pref": "山梨県", "city": "大月市", "town": "初狩町中初狩", "full": "山梨県大月市初狩町中初狩"}, {"postal_code": "4010012", "postal_hyphen": "401-0012", "pref": "山梨県", "city": "大月市", "town": "御太刀", "full": "山梨県大月市御太刀"}, {"postal_code": "4090504", "postal_hyphen": "409-0504", "pref": "山梨県", "city": "大月市", "town": "梁川町新倉", "full": "山梨県大月市梁川町新倉"}, {"postal_code": "4090505", "postal_hyphen": "409-0505", "pref": "山梨県", "city": "大月市", "town": "梁川町塩瀬", "full": "山梨県大月市梁川町塩瀬"}, {"postal_code": "4090506", "postal_hyphen": "409-0506", "pref": "山梨県", "city": "大月市", "town": "梁川町立野", "full": "山梨県大月市梁川町立野"}, {"postal_code": "4090503", "postal_hyphen": "409-0503", "pref": "山梨県", "city": "大月市", "town": "梁川町綱の上", "full": "山梨県大月市梁川町綱の上"}, {"postal_code": "4070000", "postal_hyphen": "407-0000", "pref": "山梨県", "city": "韮崎市", "town": "", "full": "山梨県韮崎市"}, {"postal_code": "4070045", "postal_hyphen": "407-0045", "pref": "山梨県", "city": "韮崎市", "town": "旭町上條中割", "full": "山梨県韮崎市旭町上條中割"}, {"postal_code": "4070046", "postal_hyphen": "407-0046", "pref": "山梨県", "city": "韮崎市", "town": "旭町上條南割", "full": "山梨県韮崎市旭町上條南割"}, {"postal_code": "4070044", "postal_hyphen": "407-0044", "pref": "山梨県", "city": "韮崎市", "town": "旭町上條北割", "full": "山梨県韮崎市旭町上條北割"}, {"postal_code": "4070263", "postal_hyphen": "407-0263", "pref": "山梨県", "city": "韮崎市", "town": "穴山町", "full": "山梨県韮崎市穴山町"}, {"postal_code": "4070012", "postal_hyphen": "407-0012", "pref": "山梨県", "city": "韮崎市", "town": "岩下", "full": "山梨県韮崎市岩下"}, {"postal_code": "4070011", "postal_hyphen": "407-0011", "pref": "山梨県", "city": "韮崎市", "town": "上ノ山", "full": "山梨県韮崎市上ノ山"}, {"postal_code": "4070036", "postal_hyphen": "407-0036", "pref": "山梨県", "city": "韮崎市", "town": "大草町上條東割", "full": "山梨県韮崎市大草町上條東割"}, {"postal_code": "4070035", "postal_hyphen": "407-0035", "pref": "山梨県", "city": "韮崎市", "town": "大草町下條西割", "full": "山梨県韮崎市大草町下條西割"}, {"postal_code": "4070034", "postal_hyphen": "407-0034", "pref": "山梨県", "city": "韮崎市", "town": "大草町下條中割", "full": "山梨県韮崎市大草町下條中割"}, {"postal_code": "4070037", "postal_hyphen": "407-0037", "pref": "山梨県", "city": "韮崎市", "town": "大草町若尾", "full": "山梨県韮崎市大草町若尾"}, {"postal_code": "4070007", "postal_hyphen": "407-0007", "pref": "山梨県", "city": "韮崎市", "town": "上祖母石", "full": "山梨県韮崎市上祖母石"}, {"postal_code": "4070042", "postal_hyphen": "407-0042", "pref": "山梨県", "city": "韮崎市", "town": "神山町北宮地", "full": "山梨県韮崎市神山町北宮地"}, {"postal_code": "4070041", "postal_hyphen": "407-0041", "pref": "山梨県", "city": "韮崎市", "town": "神山町武田", "full": "山梨県韮崎市神山町武田"}, {"postal_code": "4070043", "postal_hyphen": "407-0043", "pref": "山梨県", "city": "韮崎市", "town": "神山町鍋山", "full": "山梨県韮崎市神山町鍋山"}, {"postal_code": "4070025", "postal_hyphen": "407-0025", "pref": "山梨県", "city": "韮崎市", "town": "栄", "full": "山梨県韮崎市栄"}, {"postal_code": "4070006", "postal_hyphen": "407-0006", "pref": "山梨県", "city": "韮崎市", "town": "下祖母石", "full": "山梨県韮崎市下祖母石"}, {"postal_code": "4070022", "postal_hyphen": "407-0022", "pref": "山梨県", "city": "韮崎市", "town": "水神", "full": "山梨県韮崎市水神"}, {"postal_code": "4070055", "postal_hyphen": "407-0055", "pref": "山梨県", "city": "韮崎市", "town": "清哲町青木", "full": "山梨県韮崎市清哲町青木"}, {"postal_code": "4070054", "postal_hyphen": "407-0054", "pref": "山梨県", "city": "韮崎市", "town": "清哲町折居", "full": "山梨県韮崎市清哲町折居"}, {"postal_code": "4070057", "postal_hyphen": "407-0057", "pref": "山梨県", "city": "韮崎市", "town": "清哲町樋口", "full": "山梨県韮崎市清哲町樋口"}, {"postal_code": "4070058", "postal_hyphen": "407-0058", "pref": "山梨県", "city": "韮崎市", "town": "清哲町水上", "full": "山梨県韮崎市清哲町水上"}, {"postal_code": "4070032", "postal_hyphen": "407-0032", "pref": "山梨県", "city": "韮崎市", "town": "龍岡町下條東割", "full": "山梨県韮崎市龍岡町下條東割"}, {"postal_code": "4070033", "postal_hyphen": "407-0033", "pref": "山梨県", "city": "韮崎市", "town": "龍岡町下條南割", "full": "山梨県韮崎市龍岡町下條南割"}, {"postal_code": "4070031", "postal_hyphen": "407-0031", "pref": "山梨県", "city": "韮崎市", "town": "龍岡町若尾新田", "full": "山梨県韮崎市龍岡町若尾新田"}, {"postal_code": "4070023", "postal_hyphen": "407-0023", "pref": "山梨県", "city": "韮崎市", "town": "中央町", "full": "山梨県韮崎市中央町"}, {"postal_code": "4070013", "postal_hyphen": "407-0013", "pref": "山梨県", "city": "韮崎市", "town": "中島", "full": "山梨県韮崎市中島"}, {"postal_code": "4070261", "postal_hyphen": "407-0261", "pref": "山梨県", "city": "韮崎市", "town": "中田町小田川", "full": "山梨県韮崎市中田町小田川"}, {"postal_code": "4070262", "postal_hyphen": "407-0262", "pref": "山梨県", "city": "韮崎市", "town": "中田町中條", "full": "山梨県韮崎市中田町中條"}, {"postal_code": "4070005", "postal_hyphen": "407-0005", "pref": "山梨県", "city": "韮崎市", "town": "一ツ谷", "full": "山梨県韮崎市一ツ谷"}, {"postal_code": "4070001", "postal_hyphen": "407-0001", "pref": "山梨県", "city": "韮崎市", "town": "藤井町駒井", "full": "山梨県韮崎市藤井町駒井"}, {"postal_code": "4070002", "postal_hyphen": "407-0002", "pref": "山梨県", "city": "韮崎市", "town": "藤井町坂井", "full": "山梨県韮崎市藤井町坂井"}, {"postal_code": "4070004", "postal_hyphen": "407-0004", "pref": "山梨県", "city": "韮崎市", "town": "藤井町南下條", "full": "山梨県韮崎市藤井町南下條"}, {"postal_code": "4070003", "postal_hyphen": "407-0003", "pref": "山梨県", "city": "韮崎市", "town": "藤井町北下條", "full": "山梨県韮崎市藤井町北下條"}, {"postal_code": "4070014", "postal_hyphen": "407-0014", "pref": "山梨県", "city": "韮崎市", "town": "富士見", "full": "山梨県韮崎市富士見"}, {"postal_code": "4070021", "postal_hyphen": "407-0021", "pref": "山梨県", "city": "韮崎市", "town": "富士見ケ丘", "full": "山梨県韮崎市富士見ケ丘"}, {"postal_code": "4070172", "postal_hyphen": "407-0172", "pref": "山梨県", "city": "韮崎市", "town": "穂坂町上今井", "full": "山梨県韮崎市穂坂町上今井"}, {"postal_code": "4070176", "postal_hyphen": "407-0176", "pref": "山梨県", "city": "韮崎市", "town": "穂坂町三之蔵", "full": "山梨県韮崎市穂坂町三之蔵"}, {"postal_code": "4070173", "postal_hyphen": "407-0173", "pref": "山梨県", "city": "韮崎市", "town": "穂坂町長久保", "full": "山梨県韮崎市穂坂町長久保"}, {"postal_code": "4070174", "postal_hyphen": "407-0174", "pref": "山梨県", "city": "韮崎市", "town": "穂坂町三ツ沢", "full": "山梨県韮崎市穂坂町三ツ沢"}, {"postal_code": "4070175", "postal_hyphen": "407-0175", "pref": "山梨県", "city": "韮崎市", "town": "穂坂町宮久保", "full": "山梨県韮崎市穂坂町宮久保"}, {"postal_code": "4070171", "postal_hyphen": "407-0171", "pref": "山梨県", "city": "韮崎市", "town": "穂坂町柳平", "full": "山梨県韮崎市穂坂町柳平"}, {"postal_code": "4070024", "postal_hyphen": "407-0024", "pref": "山梨県", "city": "韮崎市", "town": "本町", "full": "山梨県韮崎市本町"}, {"postal_code": "4070051", "postal_hyphen": "407-0051", "pref": "山梨県", "city": "韮崎市", "town": "円野町上円井", "full": "山梨県韮崎市円野町上円井"}, {"postal_code": "4070052", "postal_hyphen": "407-0052", "pref": "山梨県", "city": "韮崎市", "town": "円野町下円井", "full": "山梨県韮崎市円野町下円井"}, {"postal_code": "4070053", "postal_hyphen": "407-0053", "pref": "山梨県", "city": "韮崎市", "town": "円野町入戸野", "full": "山梨県韮崎市円野町入戸野"}, {"postal_code": "4070015", "postal_hyphen": "407-0015", "pref": "山梨県", "city": "韮崎市", "town": "若宮", "full": "山梨県韮崎市若宮"}, {"postal_code": "4000400", "postal_hyphen": "400-0400", "pref": "山梨県", "city": "南アルプス市", "town": "", "full": "山梨県南アルプス市"}, {"postal_code": "4000424", "postal_hyphen": "400-0424", "pref": "山梨県", "city": "南アルプス市", "town": "秋山", "full": "山梨県南アルプス市秋山"}, {"postal_code": "4000333", "postal_hyphen": "400-0333", "pref": "山梨県", "city": "南アルプス市", "town": "浅原", "full": "山梨県南アルプス市浅原"}, {"postal_code": "4000241", "postal_hyphen": "400-0241", "pref": "山梨県", "city": "南アルプス市", "town": "芦安芦倉", "full": "山梨県南アルプス市芦安芦倉"}, {"postal_code": "4000242", "postal_hyphen": "400-0242", "pref": "山梨県", "city": "南アルプス市", "town": "芦安安通", "full": "山梨県南アルプス市芦安安通"}, {"postal_code": "4000319", "postal_hyphen": "400-0319", "pref": "山梨県", "city": "南アルプス市", "town": "あやめが丘", "full": "山梨県南アルプス市あやめが丘"}, {"postal_code": "4000403", "postal_hyphen": "400-0403", "pref": "山梨県", "city": "南アルプス市", "town": "鮎沢", "full": "山梨県南アルプス市鮎沢"}, {"postal_code": "4000226", "postal_hyphen": "400-0226", "pref": "山梨県", "city": "南アルプス市", "town": "有野", "full": "山梨県南アルプス市有野"}, {"postal_code": "4000222", "postal_hyphen": "400-0222", "pref": "山梨県", "city": "南アルプス市", "town": "飯野", "full": "山梨県南アルプス市飯野"}, {"postal_code": "4000224", "postal_hyphen": "400-0224", "pref": "山梨県", "city": "南アルプス市", "town": "飯野新田", "full": "山梨県南アルプス市飯野新田"}, {"postal_code": "4000413", "postal_hyphen": "400-0413", "pref": "山梨県", "city": "南アルプス市", "town": "和泉", "full": "山梨県南アルプス市和泉"}, {"postal_code": "4000315", "postal_hyphen": "400-0315", "pref": "山梨県", "city": "南アルプス市", "town": "上野", "full": "山梨県南アルプス市上野"}, {"postal_code": "4000215", "postal_hyphen": "400-0215", "pref": "山梨県", "city": "南アルプス市", "town": "上八田", "full": "山梨県南アルプス市上八田"}, {"postal_code": "4000204", "postal_hyphen": "400-0204", "pref": "山梨県", "city": "南アルプス市", "town": "榎原", "full": "山梨県南アルプス市榎原"}, {"postal_code": "4000401", "postal_hyphen": "400-0401", "pref": "山梨県", "city": "南アルプス市", "town": "江原", "full": "山梨県南アルプス市江原"}, {"postal_code": "4000234", "postal_hyphen": "400-0234", "pref": "山梨県", "city": "南アルプス市", "town": "大嵐", "full": "山梨県南アルプス市大嵐"}, {"postal_code": "4000306", "postal_hyphen": "400-0306", "pref": "山梨県", "city": "南アルプス市", "town": "小笠原", "full": "山梨県南アルプス市小笠原"}, {"postal_code": "4000423", "postal_hyphen": "400-0423", "pref": "山梨県", "city": "南アルプス市", "town": "落合", "full": "山梨県南アルプス市落合"}, {"postal_code": "4000335", "postal_hyphen": "400-0335", "pref": "山梨県", "city": "南アルプス市", "town": "加賀美", "full": "山梨県南アルプス市加賀美"}, {"postal_code": "4000332", "postal_hyphen": "400-0332", "pref": "山梨県", "city": "南アルプス市", "town": "鏡中條", "full": "山梨県南アルプス市鏡中條"}, {"postal_code": "4000317", "postal_hyphen": "400-0317", "pref": "山梨県", "city": "南アルプス市", "town": "上市之瀬", "full": "山梨県南アルプス市上市之瀬"}, {"postal_code": "4000303", "postal_hyphen": "400-0303", "pref": "山梨県", "city": "南アルプス市", "town": "上今井", "full": "山梨県南アルプス市上今井"}, {"postal_code": "4000211", "postal_hyphen": "400-0211", "pref": "山梨県", "city": "南アルプス市", "town": "上今諏訪", "full": "山梨県南アルプス市上今諏訪"}, {"postal_code": "4000201", "postal_hyphen": "400-0201", "pref": "山梨県", "city": "南アルプス市", "town": "上高砂", "full": "山梨県南アルプス市上高砂"}, {"postal_code": "4000312", "postal_hyphen": "400-0312", "pref": "山梨県", "city": "南アルプス市", "town": "上宮地", "full": "山梨県南アルプス市上宮地"}, {"postal_code": "4000421", "postal_hyphen": "400-0421", "pref": "山梨県", "city": "南アルプス市", "town": "川上", "full": "山梨県南アルプス市川上"}, {"postal_code": "4000311", "postal_hyphen": "400-0311", "pref": "山梨県", "city": "南アルプス市", "town": "曲輪田", "full": "山梨県南アルプス市曲輪田"}, {"postal_code": "4000223", "postal_hyphen": "400-0223", "pref": "山梨県", "city": "南アルプス市", "town": "曲輪田新田", "full": "山梨県南アルプス市曲輪田新田"}, {"postal_code": "4000232", "postal_hyphen": "400-0232", "pref": "山梨県", "city": "南アルプス市", "town": "駒場", "full": "山梨県南アルプス市駒場"}, {"postal_code": "4000221", "postal_hyphen": "400-0221", "pref": "山梨県", "city": "南アルプス市", "town": "在家塚", "full": "山梨県南アルプス市在家塚"}, {"postal_code": "4000302", "postal_hyphen": "400-0302", "pref": "山梨県", "city": "南アルプス市", "town": "沢登", "full": "山梨県南アルプス市沢登"}, {"postal_code": "4000231", "postal_hyphen": "400-0231", "pref": "山梨県", "city": "南アルプス市", "town": "塩前", "full": "山梨県南アルプス市塩前"}, {"postal_code": "4000417", "postal_hyphen": "400-0417", "pref": "山梨県", "city": "南アルプス市", "town": "清水", "full": "山梨県南アルプス市清水"}, {"postal_code": "4000314", "postal_hyphen": "400-0314", "pref": "山梨県", "city": "南アルプス市", "town": "下市之瀬", "full": "山梨県南アルプス市下市之瀬"}, {"postal_code": "4000331", "postal_hyphen": "400-0331", "pref": "山梨県", "city": "南アルプス市", "town": "下今井", "full": "山梨県南アルプス市下今井"}, {"postal_code": "4000212", "postal_hyphen": "400-0212", "pref": "山梨県", "city": "南アルプス市", "town": "下今諏訪", "full": "山梨県南アルプス市下今諏訪"}, {"postal_code": "4000202", "postal_hyphen": "400-0202", "pref": "山梨県", "city": "南アルプス市", "town": "下高砂", "full": "山梨県南アルプス市下高砂"}, {"postal_code": "4000405", "postal_hyphen": "400-0405", "pref": "山梨県", "city": "南アルプス市", "town": "下宮地", "full": "山梨県南アルプス市下宮地"}, {"postal_code": "4000305", "postal_hyphen": "400-0305", "pref": "山梨県", "city": "南アルプス市", "town": "十五所", "full": "山梨県南アルプス市十五所"}, {"postal_code": "4000233", "postal_hyphen": "400-0233", "pref": "山梨県", "city": "南アルプス市", "town": "須沢", "full": "山梨県南アルプス市須沢"}, {"postal_code": "4000416", "postal_hyphen": "400-0416", "pref": "山梨県", "city": "南アルプス市", "town": "大師", "full": "山梨県南アルプス市大師"}, {"postal_code": "4000318", "postal_hyphen": "400-0318", "pref": "山梨県", "city": "南アルプス市", "town": "高尾", "full": "山梨県南アルプス市高尾"}, {"postal_code": "4000402", "postal_hyphen": "400-0402", "pref": "山梨県", "city": "南アルプス市", "town": "田島", "full": "山梨県南アルプス市田島"}, {"postal_code": "4000426", "postal_hyphen": "400-0426", "pref": "山梨県", "city": "南アルプス市", "town": "塚原", "full": "山梨県南アルプス市塚原"}, {"postal_code": "4000225", "postal_hyphen": "400-0225", "pref": "山梨県", "city": "南アルプス市", "town": "築山", "full": "山梨県南アルプス市築山"}, {"postal_code": "4000337", "postal_hyphen": "400-0337", "pref": "山梨県", "city": "南アルプス市", "town": "寺部", "full": "山梨県南アルプス市寺部"}, {"postal_code": "4000334", "postal_hyphen": "400-0334", "pref": "山梨県", "city": "南アルプス市", "town": "藤田", "full": "山梨県南アルプス市藤田"}, {"postal_code": "4000214", "postal_hyphen": "400-0214", "pref": "山梨県", "city": "南アルプス市", "town": "百々", "full": "山梨県南アルプス市百々"}, {"postal_code": "4000336", "postal_hyphen": "400-0336", "pref": "山梨県", "city": "南アルプス市", "town": "十日市場", "full": "山梨県南アルプス市十日市場"}, {"postal_code": "4000203", "postal_hyphen": "400-0203", "pref": "山梨県", "city": "南アルプス市", "town": "徳永", "full": "山梨県南アルプス市徳永"}, {"postal_code": "4000414", "postal_hyphen": "400-0414", "pref": "山梨県", "city": "南アルプス市", "town": "戸田", "full": "山梨県南アルプス市戸田"}, {"postal_code": "4000316", "postal_hyphen": "400-0316", "pref": "山梨県", "city": "南アルプス市", "town": "中野", "full": "山梨県南アルプス市中野"}, {"postal_code": "4000411", "postal_hyphen": "400-0411", "pref": "山梨県", "city": "南アルプス市", "town": "西南湖", "full": "山梨県南アルプス市西南湖"}, {"postal_code": "4000213", "postal_hyphen": "400-0213", "pref": "山梨県", "city": "南アルプス市", "town": "西野", "full": "山梨県南アルプス市西野"}, {"postal_code": "4000422", "postal_hyphen": "400-0422", "pref": "山梨県", "city": "南アルプス市", "town": "荊沢", "full": "山梨県南アルプス市荊沢"}, {"postal_code": "4000412", "postal_hyphen": "400-0412", "pref": "山梨県", "city": "南アルプス市", "town": "東南湖", "full": "山梨県南アルプス市東南湖"}, {"postal_code": "4000313", "postal_hyphen": "400-0313", "pref": "山梨県", "city": "南アルプス市", "town": "平岡", "full": "山梨県南アルプス市平岡"}, {"postal_code": "4000404", "postal_hyphen": "400-0404", "pref": "山梨県", "city": "南アルプス市", "town": "古市場", "full": "山梨県南アルプス市古市場"}, {"postal_code": "4000415", "postal_hyphen": "400-0415", "pref": "山梨県", "city": "南アルプス市", "town": "宮沢", "full": "山梨県南アルプス市宮沢"}, {"postal_code": "4000206", "postal_hyphen": "400-0206", "pref": "山梨県", "city": "南アルプス市", "town": "六科", "full": "山梨県南アルプス市六科"}, {"postal_code": "4000301", "postal_hyphen": "400-0301", "pref": "山梨県", "city": "南アルプス市", "town": "桃園", "full": "山梨県南アルプス市桃園"}, {"postal_code": "4000205", "postal_hyphen": "400-0205", "pref": "山梨県", "city": "南アルプス市", "town": "野牛島", "full": "山梨県南アルプス市野牛島"}, {"postal_code": "4000308", "postal_hyphen": "400-0308", "pref": "山梨県", "city": "南アルプス市", "town": "山寺", "full": "山梨県南アルプス市山寺"}, {"postal_code": "4000425", "postal_hyphen": "400-0425", "pref": "山梨県", "city": "南アルプス市", "town": "湯沢", "full": "山梨県南アルプス市湯沢"}, {"postal_code": "4000304", "postal_hyphen": "400-0304", "pref": "山梨県", "city": "南アルプス市", "town": "吉田", "full": "山梨県南アルプス市吉田"}, {"postal_code": "4080000", "postal_hyphen": "408-0000", "pref": "山梨県", "city": "北杜市", "town": "", "full": "山梨県北杜市"}, {"postal_code": "4080201", "postal_hyphen": "408-0201", "pref": "山梨県", "city": "北杜市", "town": "明野町浅尾", "full": "山梨県北杜市明野町浅尾"}, {"postal_code": "4080205", "postal_hyphen": "408-0205", "pref": "山梨県", "city": "北杜市", "town": "明野町浅尾新田", "full": "山梨県北杜市明野町浅尾新田"}, {"postal_code": "4080204", "postal_hyphen": "408-0204", "pref": "山梨県", "city": "北杜市", "town": "明野町上手", "full": "山梨県北杜市明野町上手"}, {"postal_code": "4080202", "postal_hyphen": "408-0202", "pref": "山梨県", "city": "北杜市", "town": "明野町小笠原", "full": "山梨県北杜市明野町小笠原"}, {"postal_code": "4080207", "postal_hyphen": "408-0207", "pref": "山梨県", "city": "北杜市", "town": "明野町上神取", "full": "山梨県北杜市明野町上神取"}, {"postal_code": "4080203", "postal_hyphen": "408-0203", "pref": "山梨県", "city": "北杜市", "town": "明野町三之蔵", "full": "山梨県北杜市明野町三之蔵"}, {"postal_code": "4080206", "postal_hyphen": "408-0206", "pref": "山梨県", "city": "北杜市", "town": "明野町下神取", "full": "山梨県北杜市明野町下神取"}, {"postal_code": "4070311", "postal_hyphen": "407-0311", "pref": "山梨県", "city": "北杜市", "town": "大泉町西井出８２４０−１（美森、たかね荘、清泉寮、サンメドウズスキー場）", "full": "山梨県北杜市大泉町西井出８２４０−１（美森、たかね荘、清泉寮、サンメドウズスキー場）"}, {"postal_code": "4091501", "postal_hyphen": "409-1501", "pref": "山梨県", "city": "北杜市", "town": "大泉町西井出（その他）", "full": "山梨県北杜市大泉町西井出（その他）"}, {"postal_code": "4091502", "postal_hyphen": "409-1502", "pref": "山梨県", "city": "北杜市", "town": "大泉町谷戸", "full": "山梨県北杜市大泉町谷戸"}, {"postal_code": "4080044", "postal_hyphen": "408-0044", "pref": "山梨県", "city": "北杜市", "town": "小淵沢町", "full": "山梨県北杜市小淵沢町"}, {"postal_code": "4080041", "postal_hyphen": "408-0041", "pref": "山梨県", "city": "北杜市", "town": "小淵沢町上笹尾", "full": "山梨県北杜市小淵沢町上笹尾"}, {"postal_code": "4080043", "postal_hyphen": "408-0043", "pref": "山梨県", "city": "北杜市", "town": "小淵沢町下笹尾", "full": "山梨県北杜市小淵沢町下笹尾"}, {"postal_code": "4080042", "postal_hyphen": "408-0042", "pref": "山梨県", "city": "北杜市", "town": "小淵沢町松向", "full": "山梨県北杜市小淵沢町松向"}, {"postal_code": "4080111", "postal_hyphen": "408-0111", "pref": "山梨県", "city": "北杜市", "town": "須玉町穴平", "full": "山梨県北杜市須玉町穴平"}, {"postal_code": "4080103", "postal_hyphen": "408-0103", "pref": "山梨県", "city": "北杜市", "town": "須玉町江草", "full": "山梨県北杜市須玉町江草"}, {"postal_code": "4080113", "postal_hyphen": "408-0113", "pref": "山梨県", "city": "北杜市", "town": "須玉町大蔵", "full": "山梨県北杜市須玉町大蔵"}, {"postal_code": "4080101", "postal_hyphen": "408-0101", "pref": "山梨県", "city": "北杜市", "town": "須玉町小尾", "full": "山梨県北杜市須玉町小尾"}, {"postal_code": "4070321", "postal_hyphen": "407-0321", "pref": "山梨県", "city": "北杜市", "town": "須玉町上津金", "full": "山梨県北杜市須玉町上津金"}, {"postal_code": "4080104", "postal_hyphen": "408-0104", "pref": "山梨県", "city": "北杜市", "town": "須玉町小倉", "full": "山梨県北杜市須玉町小倉"}, {"postal_code": "4080116", "postal_hyphen": "408-0116", "pref": "山梨県", "city": "北杜市", "town": "須玉町境之澤", "full": "山梨県北杜市須玉町境之澤"}, {"postal_code": "4070322", "postal_hyphen": "407-0322", "pref": "山梨県", "city": "北杜市", "town": "須玉町下津金", "full": "山梨県北杜市須玉町下津金"}, {"postal_code": "4080114", "postal_hyphen": "408-0114", "pref": "山梨県", "city": "北杜市", "town": "須玉町藤田", "full": "山梨県北杜市須玉町藤田"}, {"postal_code": "4080105", "postal_hyphen": "408-0105", "pref": "山梨県", "city": "北杜市", "town": "須玉町東向", "full": "山梨県北杜市須玉町東向"}, {"postal_code": "4080102", "postal_hyphen": "408-0102", "pref": "山梨県", "city": "北杜市", "town": "須玉町比志", "full": "山梨県北杜市須玉町比志"}, {"postal_code": "4080115", "postal_hyphen": "408-0115", "pref": "山梨県", "city": "北杜市", "town": "須玉町大豆生田", "full": "山梨県北杜市須玉町大豆生田"}, {"postal_code": "4080112", "postal_hyphen": "408-0112", "pref": "山梨県", "city": "北杜市", "town": "須玉町若神子", "full": "山梨県北杜市須玉町若神子"}, {"postal_code": "4080117", "postal_hyphen": "408-0117", "pref": "山梨県", "city": "北杜市", "town": "須玉町若神子新町", "full": "山梨県北杜市須玉町若神子新町"}, {"postal_code": "4070302", "postal_hyphen": "407-0302", "pref": "山梨県", "city": "北杜市", "town": "高根町浅川", "full": "山梨県北杜市高根町浅川"}, {"postal_code": "4080016", "postal_hyphen": "408-0016", "pref": "山梨県", "city": "北杜市", "town": "高根町上黒澤", "full": "山梨県北杜市高根町上黒澤"}, {"postal_code": "4070301", "postal_hyphen": "407-0301", "pref": "山梨県", "city": "北杜市", "town": "高根町清里", "full": "山梨県北杜市高根町清里"}, {"postal_code": "4080013", "postal_hyphen": "408-0013", "pref": "山梨県", "city": "北杜市", "town": "高根町蔵原", "full": "山梨県北杜市高根町蔵原"}, {"postal_code": "4080014", "postal_hyphen": "408-0014", "pref": "山梨県", "city": "北杜市", "town": "高根町小池", "full": "山梨県北杜市高根町小池"}, {"postal_code": "4080017", "postal_hyphen": "408-0017", "pref": "山梨県", "city": "北杜市", "town": "高根町五町田", "full": "山梨県北杜市高根町五町田"}, {"postal_code": "4080015", "postal_hyphen": "408-0015", "pref": "山梨県", "city": "北杜市", "town": "高根町下黒澤", "full": "山梨県北杜市高根町下黒澤"}, {"postal_code": "4080004", "postal_hyphen": "408-0004", "pref": "山梨県", "city": "北杜市", "town": "高根町堤", "full": "山梨県北杜市高根町堤"}, {"postal_code": "4080001", "postal_hyphen": "408-0001", "pref": "山梨県", "city": "北杜市", "town": "高根町長沢", "full": "山梨県北杜市高根町長沢"}, {"postal_code": "4080003", "postal_hyphen": "408-0003", "pref": "山梨県", "city": "北杜市", "town": "高根町東井出", "full": "山梨県北杜市高根町東井出"}, {"postal_code": "4080012", "postal_hyphen": "408-0012", "pref": "山梨県", "city": "北杜市", "town": "高根町箕輪", "full": "山梨県北杜市高根町箕輪"}, {"postal_code": "4080011", "postal_hyphen": "408-0011", "pref": "山梨県", "city": "北杜市", "town": "高根町箕輪新町", "full": "山梨県北杜市高根町箕輪新町"}, {"postal_code": "4080002", "postal_hyphen": "408-0002", "pref": "山梨県", "city": "北杜市", "town": "高根町村山北割", "full": "山梨県北杜市高根町村山北割"}, {"postal_code": "4080018", "postal_hyphen": "408-0018", "pref": "山梨県", "city": "北杜市", "town": "高根町村山西割", "full": "山梨県北杜市高根町村山西割"}, {"postal_code": "4080019", "postal_hyphen": "408-0019", "pref": "山梨県", "city": "北杜市", "town": "高根町村山東割", "full": "山梨県北杜市高根町村山東割"}, {"postal_code": "4080032", "postal_hyphen": "408-0032", "pref": "山梨県", "city": "北杜市", "town": "長坂町大井ケ森", "full": "山梨県北杜市長坂町大井ケ森"}, {"postal_code": "4080034", "postal_hyphen": "408-0034", "pref": "山梨県", "city": "北杜市", "town": "長坂町大八田", "full": "山梨県北杜市長坂町大八田"}, {"postal_code": "4080031", "postal_hyphen": "408-0031", "pref": "山梨県", "city": "北杜市", "town": "長坂町小荒間", "full": "山梨県北杜市長坂町小荒間"}, {"postal_code": "4080023", "postal_hyphen": "408-0023", "pref": "山梨県", "city": "北杜市", "town": "長坂町渋沢", "full": "山梨県北杜市長坂町渋沢"}, {"postal_code": "4080033", "postal_hyphen": "408-0033", "pref": "山梨県", "city": "北杜市", "town": "長坂町白井沢", "full": "山梨県北杜市長坂町白井沢"}, {"postal_code": "4080022", "postal_hyphen": "408-0022", "pref": "山梨県", "city": "北杜市", "town": "長坂町塚川", "full": "山梨県北杜市長坂町塚川"}, {"postal_code": "4080024", "postal_hyphen": "408-0024", "pref": "山梨県", "city": "北杜市", "town": "長坂町富岡", "full": "山梨県北杜市長坂町富岡"}, {"postal_code": "4080021", "postal_hyphen": "408-0021", "pref": "山梨県", "city": "北杜市", "town": "長坂町長坂上条", "full": "山梨県北杜市長坂町長坂上条"}, {"postal_code": "4080025", "postal_hyphen": "408-0025", "pref": "山梨県", "city": "北杜市", "town": "長坂町長坂下条", "full": "山梨県北杜市長坂町長坂下条"}, {"postal_code": "4080037", "postal_hyphen": "408-0037", "pref": "山梨県", "city": "北杜市", "town": "長坂町中島", "full": "山梨県北杜市長坂町中島"}, {"postal_code": "4080036", "postal_hyphen": "408-0036", "pref": "山梨県", "city": "北杜市", "town": "長坂町中丸", "full": "山梨県北杜市長坂町中丸"}, {"postal_code": "4080035", "postal_hyphen": "408-0035", "pref": "山梨県", "city": "北杜市", "town": "長坂町夏秋", "full": "山梨県北杜市長坂町夏秋"}, {"postal_code": "4080026", "postal_hyphen": "408-0026", "pref": "山梨県", "city": "北杜市", "town": "長坂町日野", "full": "山梨県北杜市長坂町日野"}, {"postal_code": "4080319", "postal_hyphen": "408-0319", "pref": "山梨県", "city": "北杜市", "town": "白州町大武川", "full": "山梨県北杜市白州町大武川"}, {"postal_code": "4080318", "postal_hyphen": "408-0318", "pref": "山梨県", "city": "北杜市", "town": "白州町上教来石", "full": "山梨県北杜市白州町上教来石"}, {"postal_code": "4080317", "postal_hyphen": "408-0317", "pref": "山梨県", "city": "北杜市", "town": "白州町下教来石", "full": "山梨県北杜市白州町下教来石"}, {"postal_code": "4080315", "postal_hyphen": "408-0315", "pref": "山梨県", "city": "北杜市", "town": "白州町白須", "full": "山梨県北杜市白州町白須"}, {"postal_code": "4080312", "postal_hyphen": "408-0312", "pref": "山梨県", "city": "北杜市", "town": "白州町台ケ原", "full": "山梨県北杜市白州町台ケ原"}, {"postal_code": "4080314", "postal_hyphen": "408-0314", "pref": "山梨県", "city": "北杜市", "town": "白州町大坊", "full": "山梨県北杜市白州町大坊"}, {"postal_code": "4080316", "postal_hyphen": "408-0316", "pref": "山梨県", "city": "北杜市", "town": "白州町鳥原", "full": "山梨県北杜市白州町鳥原"}, {"postal_code": "4080311", "postal_hyphen": "408-0311", "pref": "山梨県", "city": "北杜市", "town": "白州町花水", "full": "山梨県北杜市白州町花水"}, {"postal_code": "4080313", "postal_hyphen": "408-0313", "pref": "山梨県", "city": "北杜市", "town": "白州町横手", "full": "山梨県北杜市白州町横手"}, {"postal_code": "4080305", "postal_hyphen": "408-0305", "pref": "山梨県", "city": "北杜市", "town": "武川町黒澤", "full": "山梨県北杜市武川町黒澤"}, {"postal_code": "4080304", "postal_hyphen": "408-0304", "pref": "山梨県", "city": "北杜市", "town": "武川町新奥", "full": "山梨県北杜市武川町新奥"}, {"postal_code": "4080302", "postal_hyphen": "408-0302", "pref": "山梨県", "city": "北杜市", "town": "武川町牧原", "full": "山梨県北杜市武川町牧原"}, {"postal_code": "4080301", "postal_hyphen": "408-0301", "pref": "山梨県", "city": "北杜市", "town": "武川町三吹", "full": "山梨県北杜市武川町三吹"}, {"postal_code": "4080303", "postal_hyphen": "408-0303", "pref": "山梨県", "city": "北杜市", "town": "武川町宮脇", "full": "山梨県北杜市武川町宮脇"}, {"postal_code": "4080307", "postal_hyphen": "408-0307", "pref": "山梨県", "city": "北杜市", "town": "武川町柳澤", "full": "山梨県北杜市武川町柳澤"}, {"postal_code": "4080306", "postal_hyphen": "408-0306", "pref": "山梨県", "city": "北杜市", "town": "武川町山高", "full": "山梨県北杜市武川町山高"}, {"postal_code": "4000100", "postal_hyphen": "400-0100", "pref": "山梨県", "city": "甲斐市", "town": "", "full": "山梨県甲斐市"}, {"postal_code": "4001126", "postal_hyphen": "400-1126", "pref": "山梨県", "city": "甲斐市", "town": "安寺", "full": "山梨県甲斐市安寺"}, {"postal_code": "4000106", "postal_hyphen": "400-0106", "pref": "山梨県", "city": "甲斐市", "town": "岩森", "full": "山梨県甲斐市岩森"}, {"postal_code": "4000121", "postal_hyphen": "400-0121", "pref": "山梨県", "city": "甲斐市", "town": "牛句", "full": "山梨県甲斐市牛句"}, {"postal_code": "4001114", "postal_hyphen": "400-1114", "pref": "山梨県", "city": "甲斐市", "town": "打返", "full": "山梨県甲斐市打返"}, {"postal_code": "4000108", "postal_hyphen": "400-0108", "pref": "山梨県", "city": "甲斐市", "town": "宇津谷", "full": "山梨県甲斐市宇津谷"}, {"postal_code": "4001115", "postal_hyphen": "400-1115", "pref": "山梨県", "city": "甲斐市", "town": "漆戸", "full": "山梨県甲斐市漆戸"}, {"postal_code": "4000128", "postal_hyphen": "400-0128", "pref": "山梨県", "city": "甲斐市", "town": "大久保", "full": "山梨県甲斐市大久保"}, {"postal_code": "4000126", "postal_hyphen": "400-0126", "pref": "山梨県", "city": "甲斐市", "town": "大下条", "full": "山梨県甲斐市大下条"}, {"postal_code": "4000103", "postal_hyphen": "400-0103", "pref": "山梨県", "city": "甲斐市", "town": "大垈", "full": "山梨県甲斐市大垈"}, {"postal_code": "4001121", "postal_hyphen": "400-1121", "pref": "山梨県", "city": "甲斐市", "town": "上芦沢", "full": "山梨県甲斐市上芦沢"}, {"postal_code": "4001117", "postal_hyphen": "400-1117", "pref": "山梨県", "city": "甲斐市", "town": "上菅口", "full": "山梨県甲斐市上菅口"}, {"postal_code": "4001123", "postal_hyphen": "400-1123", "pref": "山梨県", "city": "甲斐市", "town": "上福沢", "full": "山梨県甲斐市上福沢"}, {"postal_code": "4001113", "postal_hyphen": "400-1113", "pref": "山梨県", "city": "甲斐市", "town": "亀沢（その他）", "full": "山梨県甲斐市亀沢（その他）"}, {"postal_code": "4001131", "postal_hyphen": "400-1131", "pref": "山梨県", "city": "甲斐市", "town": "亀沢（大明神、６９４９番地）", "full": "山梨県甲斐市亀沢（大明神、６９４９番地）"}, {"postal_code": "4001112", "postal_hyphen": "400-1112", "pref": "山梨県", "city": "甲斐市", "town": "吉沢", "full": "山梨県甲斐市吉沢"}, {"postal_code": "4001127", "postal_hyphen": "400-1127", "pref": "山梨県", "city": "甲斐市", "town": "神戸", "full": "山梨県甲斐市神戸"}, {"postal_code": "4000122", "postal_hyphen": "400-0122", "pref": "山梨県", "city": "甲斐市", "town": "境", "full": "山梨県甲斐市境"}, {"postal_code": "4001116", "postal_hyphen": "400-1116", "pref": "山梨県", "city": "甲斐市", "town": "獅子平", "full": "山梨県甲斐市獅子平"}, {"postal_code": "4000107", "postal_hyphen": "400-0107", "pref": "山梨県", "city": "甲斐市", "town": "志田", "full": "山梨県甲斐市志田"}, {"postal_code": "4000115", "postal_hyphen": "400-0115", "pref": "山梨県", "city": "甲斐市", "town": "篠原", "full": "山梨県甲斐市篠原"}, {"postal_code": "4000123", "postal_hyphen": "400-0123", "pref": "山梨県", "city": "甲斐市", "town": "島上条", "full": "山梨県甲斐市島上条"}, {"postal_code": "4001122", "postal_hyphen": "400-1122", "pref": "山梨県", "city": "甲斐市", "town": "下芦沢", "full": "山梨県甲斐市下芦沢"}, {"postal_code": "4000105", "postal_hyphen": "400-0105", "pref": "山梨県", "city": "甲斐市", "town": "下今井", "full": "山梨県甲斐市下今井"}, {"postal_code": "4001125", "postal_hyphen": "400-1125", "pref": "山梨県", "city": "甲斐市", "town": "下菅口", "full": "山梨県甲斐市下菅口"}, {"postal_code": "4001124", "postal_hyphen": "400-1124", "pref": "山梨県", "city": "甲斐市", "town": "下福沢", "full": "山梨県甲斐市下福沢"}, {"postal_code": "4000101", "postal_hyphen": "400-0101", "pref": "山梨県", "city": "甲斐市", "town": "菖蒲沢", "full": "山梨県甲斐市菖蒲沢"}, {"postal_code": "4001111", "postal_hyphen": "400-1111", "pref": "山梨県", "city": "甲斐市", "town": "千田", "full": "山梨県甲斐市千田"}, {"postal_code": "4000116", "postal_hyphen": "400-0116", "pref": "山梨県", "city": "甲斐市", "town": "玉川", "full": "山梨県甲斐市玉川"}, {"postal_code": "4000102", "postal_hyphen": "400-0102", "pref": "山梨県", "city": "甲斐市", "town": "団子新居", "full": "山梨県甲斐市団子新居"}, {"postal_code": "4000127", "postal_hyphen": "400-0127", "pref": "山梨県", "city": "甲斐市", "town": "天狗沢", "full": "山梨県甲斐市天狗沢"}, {"postal_code": "4000113", "postal_hyphen": "400-0113", "pref": "山梨県", "city": "甲斐市", "town": "富竹新田", "full": "山梨県甲斐市富竹新田"}, {"postal_code": "4000124", "postal_hyphen": "400-0124", "pref": "山梨県", "city": "甲斐市", "town": "中下条", "full": "山梨県甲斐市中下条"}, {"postal_code": "4000125", "postal_hyphen": "400-0125", "pref": "山梨県", "city": "甲斐市", "town": "長塚", "full": "山梨県甲斐市長塚"}, {"postal_code": "4000112", "postal_hyphen": "400-0112", "pref": "山梨県", "city": "甲斐市", "town": "名取", "full": "山梨県甲斐市名取"}, {"postal_code": "4000117", "postal_hyphen": "400-0117", "pref": "山梨県", "city": "甲斐市", "town": "西八幡", "full": "山梨県甲斐市西八幡"}, {"postal_code": "4000114", "postal_hyphen": "400-0114", "pref": "山梨県", "city": "甲斐市", "town": "万才", "full": "山梨県甲斐市万才"}, {"postal_code": "4000118", "postal_hyphen": "400-0118", "pref": "山梨県", "city": "甲斐市", "town": "竜王", "full": "山梨県甲斐市竜王"}, {"postal_code": "4000111", "postal_hyphen": "400-0111", "pref": "山梨県", "city": "甲斐市", "town": "竜王新町", "full": "山梨県甲斐市竜王新町"}, {"postal_code": "4000104", "postal_hyphen": "400-0104", "pref": "山梨県", "city": "甲斐市", "town": "龍地", "full": "山梨県甲斐市龍地"}, {"postal_code": "4060000", "postal_hyphen": "406-0000", "pref": "山梨県", "city": "笛吹市", "town": "", "full": "山梨県笛吹市"}, {"postal_code": "4093702", "postal_hyphen": "409-3702", "pref": "山梨県", "city": "笛吹市", "town": "芦川町新井原", "full": "山梨県笛吹市芦川町新井原"}, {"postal_code": "4093704", "postal_hyphen": "409-3704", "pref": "山梨県", "city": "笛吹市", "town": "芦川町鶯宿", "full": "山梨県笛吹市芦川町鶯宿"}, {"postal_code": "4093701", "postal_hyphen": "409-3701", "pref": "山梨県", "city": "笛吹市", "town": "芦川町上芦川", "full": "山梨県笛吹市芦川町上芦川"}, {"postal_code": "4093703", "postal_hyphen": "409-3703", "pref": "山梨県", "city": "笛吹市", "town": "芦川町中芦川", "full": "山梨県笛吹市芦川町中芦川"}, {"postal_code": "4060031", "postal_hyphen": "406-0031", "pref": "山梨県", "city": "笛吹市", "town": "石和町市部", "full": "山梨県笛吹市石和町市部"}, {"postal_code": "4060045", "postal_hyphen": "406-0045", "pref": "山梨県", "city": "笛吹市", "town": "石和町井戸", "full": "山梨県笛吹市石和町井戸"}, {"postal_code": "4060042", "postal_hyphen": "406-0042", "pref": "山梨県", "city": "笛吹市", "town": "石和町今井", "full": "山梨県笛吹市石和町今井"}, {"postal_code": "4060028", "postal_hyphen": "406-0028", "pref": "山梨県", "city": "笛吹市", "town": "石和町駅前", "full": "山梨県笛吹市石和町駅前"}, {"postal_code": "4060025", "postal_hyphen": "406-0025", "pref": "山梨県", "city": "笛吹市", "town": "石和町上平井", "full": "山梨県笛吹市石和町上平井"}, {"postal_code": "4060034", "postal_hyphen": "406-0034", "pref": "山梨県", "city": "笛吹市", "town": "石和町唐柏", "full": "山梨県笛吹市石和町唐柏"}, {"postal_code": "4060024", "postal_hyphen": "406-0024", "pref": "山梨県", "city": "笛吹市", "town": "石和町川中島", "full": "山梨県笛吹市石和町川中島"}, {"postal_code": "4060036", "postal_hyphen": "406-0036", "pref": "山梨県", "city": "笛吹市", "town": "石和町窪中島", "full": "山梨県笛吹市石和町窪中島"}, {"postal_code": "4060033", "postal_hyphen": "406-0033", "pref": "山梨県", "city": "笛吹市", "town": "石和町小石和", "full": "山梨県笛吹市石和町小石和"}, {"postal_code": "4060043", "postal_hyphen": "406-0043", "pref": "山梨県", "city": "笛吹市", "town": "石和町河内", "full": "山梨県笛吹市石和町河内"}, {"postal_code": "4060027", "postal_hyphen": "406-0027", "pref": "山梨県", "city": "笛吹市", "town": "石和町下平井", "full": "山梨県笛吹市石和町下平井"}, {"postal_code": "4060044", "postal_hyphen": "406-0044", "pref": "山梨県", "city": "笛吹市", "town": "石和町砂原", "full": "山梨県笛吹市石和町砂原"}, {"postal_code": "4060026", "postal_hyphen": "406-0026", "pref": "山梨県", "city": "笛吹市", "town": "石和町中川", "full": "山梨県笛吹市石和町中川"}, {"postal_code": "4060023", "postal_hyphen": "406-0023", "pref": "山梨県", "city": "笛吹市", "town": "石和町八田", "full": "山梨県笛吹市石和町八田"}, {"postal_code": "4060046", "postal_hyphen": "406-0046", "pref": "山梨県", "city": "笛吹市", "town": "石和町東油川", "full": "山梨県笛吹市石和町東油川"}, {"postal_code": "4060041", "postal_hyphen": "406-0041", "pref": "山梨県", "city": "笛吹市", "town": "石和町東高橋", "full": "山梨県笛吹市石和町東高橋"}, {"postal_code": "4060035", "postal_hyphen": "406-0035", "pref": "山梨県", "city": "笛吹市", "town": "石和町広瀬", "full": "山梨県笛吹市石和町広瀬"}, {"postal_code": "4060021", "postal_hyphen": "406-0021", "pref": "山梨県", "city": "笛吹市", "town": "石和町松本", "full": "山梨県笛吹市石和町松本"}, {"postal_code": "4060022", "postal_hyphen": "406-0022", "pref": "山梨県", "city": "笛吹市", "town": "石和町山崎", "full": "山梨県笛吹市石和町山崎"}, {"postal_code": "4060032", "postal_hyphen": "406-0032", "pref": "山梨県", "city": "笛吹市", "town": "石和町四日市場", "full": "山梨県笛吹市石和町四日市場"}, {"postal_code": "4050065", "postal_hyphen": "405-0065", "pref": "山梨県", "city": "笛吹市", "town": "一宮町新巻", "full": "山梨県笛吹市一宮町新巻"}, {"postal_code": "4050061", "postal_hyphen": "405-0061", "pref": "山梨県", "city": "笛吹市", "town": "一宮町石", "full": "山梨県笛吹市一宮町石"}, {"postal_code": "4050063", "postal_hyphen": "405-0063", "pref": "山梨県", "city": "笛吹市", "town": "一宮町市之蔵", "full": "山梨県笛吹市一宮町市之蔵"}, {"postal_code": "4050056", "postal_hyphen": "405-0056", "pref": "山梨県", "city": "笛吹市", "town": "一宮町一ノ宮", "full": "山梨県笛吹市一宮町一ノ宮"}, {"postal_code": "4050062", "postal_hyphen": "405-0062", "pref": "山梨県", "city": "笛吹市", "town": "一宮町金沢", "full": "山梨県笛吹市一宮町金沢"}, {"postal_code": "4050079", "postal_hyphen": "405-0079", "pref": "山梨県", "city": "笛吹市", "town": "一宮町金田", "full": "山梨県笛吹市一宮町金田"}, {"postal_code": "4050059", "postal_hyphen": "405-0059", "pref": "山梨県", "city": "笛吹市", "town": "一宮町上矢作", "full": "山梨県笛吹市一宮町上矢作"}, {"postal_code": "4050066", "postal_hyphen": "405-0066", "pref": "山梨県", "city": "笛吹市", "town": "一宮町神沢", "full": "山梨県笛吹市一宮町神沢"}, {"postal_code": "4050051", "postal_hyphen": "405-0051", "pref": "山梨県", "city": "笛吹市", "town": "一宮町北野呂", "full": "山梨県笛吹市一宮町北野呂"}, {"postal_code": "4050071", "postal_hyphen": "405-0071", "pref": "山梨県", "city": "笛吹市", "town": "一宮町北都塚", "full": "山梨県笛吹市一宮町北都塚"}, {"postal_code": "4050068", "postal_hyphen": "405-0068", "pref": "山梨県", "city": "笛吹市", "town": "一宮町狐新居", "full": "山梨県笛吹市一宮町狐新居"}, {"postal_code": "4050074", "postal_hyphen": "405-0074", "pref": "山梨県", "city": "笛吹市", "town": "一宮町国分", "full": "山梨県笛吹市一宮町国分"}, {"postal_code": "4050058", "postal_hyphen": "405-0058", "pref": "山梨県", "city": "笛吹市", "town": "一宮町小城", "full": "山梨県笛吹市一宮町小城"}, {"postal_code": "4050064", "postal_hyphen": "405-0064", "pref": "山梨県", "city": "笛吹市", "town": "一宮町塩田", "full": "山梨県笛吹市一宮町塩田"}, {"postal_code": "4050055", "postal_hyphen": "405-0055", "pref": "山梨県", "city": "笛吹市", "town": "一宮町地蔵堂", "full": "山梨県笛吹市一宮町地蔵堂"}, {"postal_code": "4050057", "postal_hyphen": "405-0057", "pref": "山梨県", "city": "笛吹市", "town": "一宮町下矢作", "full": "山梨県笛吹市一宮町下矢作"}, {"postal_code": "4050073", "postal_hyphen": "405-0073", "pref": "山梨県", "city": "笛吹市", "town": "一宮町末木", "full": "山梨県笛吹市一宮町末木"}, {"postal_code": "4050054", "postal_hyphen": "405-0054", "pref": "山梨県", "city": "笛吹市", "town": "一宮町千米寺", "full": "山梨県笛吹市一宮町千米寺"}, {"postal_code": "4050076", "postal_hyphen": "405-0076", "pref": "山梨県", "city": "笛吹市", "town": "一宮町竹原田", "full": "山梨県笛吹市一宮町竹原田"}, {"postal_code": "4050078", "postal_hyphen": "405-0078", "pref": "山梨県", "city": "笛吹市", "town": "一宮町田中", "full": "山梨県笛吹市一宮町田中"}, {"postal_code": "4050067", "postal_hyphen": "405-0067", "pref": "山梨県", "city": "笛吹市", "town": "一宮町土塚", "full": "山梨県笛吹市一宮町土塚"}, {"postal_code": "4050077", "postal_hyphen": "405-0077", "pref": "山梨県", "city": "笛吹市", "town": "一宮町坪井", "full": "山梨県笛吹市一宮町坪井"}, {"postal_code": "4050053", "postal_hyphen": "405-0053", "pref": "山梨県", "city": "笛吹市", "town": "一宮町中尾", "full": "山梨県笛吹市一宮町中尾"}, {"postal_code": "4050075", "postal_hyphen": "405-0075", "pref": "山梨県", "city": "笛吹市", "town": "一宮町橋立", "full": "山梨県笛吹市一宮町橋立"}, {"postal_code": "4050069", "postal_hyphen": "405-0069", "pref": "山梨県", "city": "笛吹市", "town": "一宮町東新居", "full": "山梨県笛吹市一宮町東新居"}, {"postal_code": "4050075", "postal_hyphen": "405-0075", "pref": "山梨県", "city": "笛吹市", "town": "一宮町東原", "full": "山梨県笛吹市一宮町東原"}, {"postal_code": "4050052", "postal_hyphen": "405-0052", "pref": "山梨県", "city": "笛吹市", "town": "一宮町南野呂", "full": "山梨県笛吹市一宮町南野呂"}, {"postal_code": "4050072", "postal_hyphen": "405-0072", "pref": "山梨県", "city": "笛吹市", "town": "一宮町本都塚", "full": "山梨県笛吹市一宮町本都塚"}, {"postal_code": "4060005", "postal_hyphen": "406-0005", "pref": "山梨県", "city": "笛吹市", "town": "春日居町加茂", "full": "山梨県笛吹市春日居町加茂"}, {"postal_code": "4060012", "postal_hyphen": "406-0012", "pref": "山梨県", "city": "笛吹市", "town": "春日居町熊野堂", "full": "山梨県笛吹市春日居町熊野堂"}, {"postal_code": "4060003", "postal_hyphen": "406-0003", "pref": "山梨県", "city": "笛吹市", "town": "春日居町桑戸", "full": "山梨県笛吹市春日居町桑戸"}, {"postal_code": "4060014", "postal_hyphen": "406-0014", "pref": "山梨県", "city": "笛吹市", "town": "春日居町国府", "full": "山梨県笛吹市春日居町国府"}, {"postal_code": "4060004", "postal_hyphen": "406-0004", "pref": "山梨県", "city": "笛吹市", "town": "春日居町小松", "full": "山梨県笛吹市春日居町小松"}, {"postal_code": "4060015", "postal_hyphen": "406-0015", "pref": "山梨県", "city": "笛吹市", "town": "春日居町鎮目", "full": "山梨県笛吹市春日居町鎮目"}, {"postal_code": "4060001", "postal_hyphen": "406-0001", "pref": "山梨県", "city": "笛吹市", "town": "春日居町下岩下", "full": "山梨県笛吹市春日居町下岩下"}, {"postal_code": "4060013", "postal_hyphen": "406-0013", "pref": "山梨県", "city": "笛吹市", "town": "春日居町寺本", "full": "山梨県笛吹市春日居町寺本"}, {"postal_code": "4060011", "postal_hyphen": "406-0011", "pref": "山梨県", "city": "笛吹市", "town": "春日居町徳条", "full": "山梨県笛吹市春日居町徳条"}, {"postal_code": "4060002", "postal_hyphen": "406-0002", "pref": "山梨県", "city": "笛吹市", "town": "春日居町別田", "full": "山梨県笛吹市春日居町別田"}, {"postal_code": "4060842", "postal_hyphen": "406-0842", "pref": "山梨県", "city": "笛吹市", "town": "境川町石橋", "full": "山梨県笛吹市境川町石橋"}, {"postal_code": "4060855", "postal_hyphen": "406-0855", "pref": "山梨県", "city": "笛吹市", "town": "境川町大窪", "full": "山梨県笛吹市境川町大窪"}, {"postal_code": "4060852", "postal_hyphen": "406-0852", "pref": "山梨県", "city": "笛吹市", "town": "境川町大黒坂", "full": "山梨県笛吹市境川町大黒坂"}, {"postal_code": "4060841", "postal_hyphen": "406-0841", "pref": "山梨県", "city": "笛吹市", "town": "境川町大坪", "full": "山梨県笛吹市境川町大坪"}, {"postal_code": "4060851", "postal_hyphen": "406-0851", "pref": "山梨県", "city": "笛吹市", "town": "境川町小黒坂", "full": "山梨県笛吹市境川町小黒坂"}, {"postal_code": "4060844", "postal_hyphen": "406-0844", "pref": "山梨県", "city": "笛吹市", "town": "境川町小山", "full": "山梨県笛吹市境川町小山"}, {"postal_code": "4060854", "postal_hyphen": "406-0854", "pref": "山梨県", "city": "笛吹市", "town": "境川町寺尾", "full": "山梨県笛吹市境川町寺尾"}, {"postal_code": "4060853", "postal_hyphen": "406-0853", "pref": "山梨県", "city": "笛吹市", "town": "境川町藤垈", "full": "山梨県笛吹市境川町藤垈"}, {"postal_code": "4060845", "postal_hyphen": "406-0845", "pref": "山梨県", "city": "笛吹市", "town": "境川町坊ケ峰", "full": "山梨県笛吹市境川町坊ケ峰"}, {"postal_code": "4060843", "postal_hyphen": "406-0843", "pref": "山梨県", "city": "笛吹市", "town": "境川町前間田", "full": "山梨県笛吹市境川町前間田"}, {"postal_code": "4060846", "postal_hyphen": "406-0846", "pref": "山梨県", "city": "笛吹市", "town": "境川町三椚", "full": "山梨県笛吹市境川町三椚"}, {"postal_code": "4060803", "postal_hyphen": "406-0803", "pref": "山梨県", "city": "笛吹市", "town": "御坂町井之上", "full": "山梨県笛吹市御坂町井之上"}, {"postal_code": "4060817", "postal_hyphen": "406-0817", "pref": "山梨県", "city": "笛吹市", "town": "御坂町大野寺", "full": "山梨県笛吹市御坂町大野寺"}, {"postal_code": "4060815", "postal_hyphen": "406-0815", "pref": "山梨県", "city": "笛吹市", "town": "御坂町尾山", "full": "山梨県笛吹市御坂町尾山"}, {"postal_code": "4060802", "postal_hyphen": "406-0802", "pref": "山梨県", "city": "笛吹市", "town": "御坂町金川原", "full": "山梨県笛吹市御坂町金川原"}, {"postal_code": "4060813", "postal_hyphen": "406-0813", "pref": "山梨県", "city": "笛吹市", "town": "御坂町上黒駒", "full": "山梨県笛吹市御坂町上黒駒"}, {"postal_code": "4060805", "postal_hyphen": "406-0805", "pref": "山梨県", "city": "笛吹市", "town": "御坂町栗合", "full": "山梨県笛吹市御坂町栗合"}, {"postal_code": "4060808", "postal_hyphen": "406-0808", "pref": "山梨県", "city": "笛吹市", "town": "御坂町国衙", "full": "山梨県笛吹市御坂町国衙"}, {"postal_code": "4060812", "postal_hyphen": "406-0812", "pref": "山梨県", "city": "笛吹市", "town": "御坂町下黒駒", "full": "山梨県笛吹市御坂町下黒駒"}, {"postal_code": "4060811", "postal_hyphen": "406-0811", "pref": "山梨県", "city": "笛吹市", "town": "御坂町下野原", "full": "山梨県笛吹市御坂町下野原"}, {"postal_code": "4060818", "postal_hyphen": "406-0818", "pref": "山梨県", "city": "笛吹市", "town": "御坂町蕎麦塚", "full": "山梨県笛吹市御坂町蕎麦塚"}, {"postal_code": "4060816", "postal_hyphen": "406-0816", "pref": "山梨県", "city": "笛吹市", "town": "御坂町竹居", "full": "山梨県笛吹市御坂町竹居"}, {"postal_code": "4060814", "postal_hyphen": "406-0814", "pref": "山梨県", "city": "笛吹市", "town": "御坂町藤野木", "full": "山梨県笛吹市御坂町藤野木"}, {"postal_code": "4060804", "postal_hyphen": "406-0804", "pref": "山梨県", "city": "笛吹市", "town": "御坂町夏目原", "full": "山梨県笛吹市御坂町夏目原"}, {"postal_code": "4060801", "postal_hyphen": "406-0801", "pref": "山梨県", "city": "笛吹市", "town": "御坂町成田", "full": "山梨県笛吹市御坂町成田"}, {"postal_code": "4060807", "postal_hyphen": "406-0807", "pref": "山梨県", "city": "笛吹市", "town": "御坂町二之宮", "full": "山梨県笛吹市御坂町二之宮"}, {"postal_code": "4060806", "postal_hyphen": "406-0806", "pref": "山梨県", "city": "笛吹市", "town": "御坂町八千蔵", "full": "山梨県笛吹市御坂町八千蔵"}, {"postal_code": "4060825", "postal_hyphen": "406-0825", "pref": "山梨県", "city": "笛吹市", "town": "八代町大間田", "full": "山梨県笛吹市八代町大間田"}, {"postal_code": "4060834", "postal_hyphen": "406-0834", "pref": "山梨県", "city": "笛吹市", "town": "八代町岡", "full": "山梨県笛吹市八代町岡"}, {"postal_code": "4060821", "postal_hyphen": "406-0821", "pref": "山梨県", "city": "笛吹市", "town": "八代町北", "full": "山梨県笛吹市八代町北"}, {"postal_code": "4060831", "postal_hyphen": "406-0831", "pref": "山梨県", "city": "笛吹市", "town": "八代町高家", "full": "山梨県笛吹市八代町高家"}, {"postal_code": "4060832", "postal_hyphen": "406-0832", "pref": "山梨県", "city": "笛吹市", "town": "八代町竹居", "full": "山梨県笛吹市八代町竹居"}, {"postal_code": "4060823", "postal_hyphen": "406-0823", "pref": "山梨県", "city": "笛吹市", "town": "八代町永井", "full": "山梨県笛吹市八代町永井"}, {"postal_code": "4060833", "postal_hyphen": "406-0833", "pref": "山梨県", "city": "笛吹市", "town": "八代町奈良原", "full": "山梨県笛吹市八代町奈良原"}, {"postal_code": "4060824", "postal_hyphen": "406-0824", "pref": "山梨県", "city": "笛吹市", "town": "八代町増利", "full": "山梨県笛吹市八代町増利"}, {"postal_code": "4060822", "postal_hyphen": "406-0822", "pref": "山梨県", "city": "笛吹市", "town": "八代町南", "full": "山梨県笛吹市八代町南"}, {"postal_code": "4060835", "postal_hyphen": "406-0835", "pref": "山梨県", "city": "笛吹市", "town": "八代町米倉", "full": "山梨県笛吹市八代町米倉"}, {"postal_code": "4090100", "postal_hyphen": "409-0100", "pref": "山梨県", "city": "上野原市", "town": "", "full": "山梨県上野原市"}, {"postal_code": "4010201", "postal_hyphen": "401-0201", "pref": "山梨県", "city": "上野原市", "town": "秋山", "full": "山梨県上野原市秋山"}, {"postal_code": "4090135", "postal_hyphen": "409-0135", "pref": "山梨県", "city": "上野原市", "town": "芦垣", "full": "山梨県上野原市芦垣"}, {"postal_code": "4090113", "postal_hyphen": "409-0113", "pref": "山梨県", "city": "上野原市", "town": "新田", "full": "山梨県上野原市新田"}, {"postal_code": "4090124", "postal_hyphen": "409-0124", "pref": "山梨県", "city": "上野原市", "town": "犬目", "full": "山梨県上野原市犬目"}, {"postal_code": "4090112", "postal_hyphen": "409-0112", "pref": "山梨県", "city": "上野原市", "town": "上野原", "full": "山梨県上野原市上野原"}, {"postal_code": "4090134", "postal_hyphen": "409-0134", "pref": "山梨県", "city": "上野原市", "town": "大椚", "full": "山梨県上野原市大椚"}, {"postal_code": "4090138", "postal_hyphen": "409-0138", "pref": "山梨県", "city": "上野原市", "town": "大倉", "full": "山梨県上野原市大倉"}, {"postal_code": "4090131", "postal_hyphen": "409-0131", "pref": "山梨県", "city": "上野原市", "town": "大曽根", "full": "山梨県上野原市大曽根"}, {"postal_code": "4090123", "postal_hyphen": "409-0123", "pref": "山梨県", "city": "上野原市", "town": "大野", "full": "山梨県上野原市大野"}, {"postal_code": "4090122", "postal_hyphen": "409-0122", "pref": "山梨県", "city": "上野原市", "town": "川合", "full": "山梨県上野原市川合"}, {"postal_code": "4090136", "postal_hyphen": "409-0136", "pref": "山梨県", "city": "上野原市", "town": "桑久保", "full": "山梨県上野原市桑久保"}, {"postal_code": "4090126", "postal_hyphen": "409-0126", "pref": "山梨県", "city": "上野原市", "town": "コモアしおつ", "full": "山梨県上野原市コモアしおつ"}, {"postal_code": "4090141", "postal_hyphen": "409-0141", "pref": "山梨県", "city": "上野原市", "town": "西原", "full": "山梨県上野原市西原"}, {"postal_code": "4090121", "postal_hyphen": "409-0121", "pref": "山梨県", "city": "上野原市", "town": "四方津", "full": "山梨県上野原市四方津"}, {"postal_code": "4090132", "postal_hyphen": "409-0132", "pref": "山梨県", "city": "上野原市", "town": "鶴川", "full": "山梨県上野原市鶴川"}, {"postal_code": "4090114", "postal_hyphen": "409-0114", "pref": "山梨県", "city": "上野原市", "town": "鶴島", "full": "山梨県上野原市鶴島"}, {"postal_code": "4090125", "postal_hyphen": "409-0125", "pref": "山梨県", "city": "上野原市", "town": "野田尻", "full": "山梨県上野原市野田尻"}, {"postal_code": "4090115", "postal_hyphen": "409-0115", "pref": "山梨県", "city": "上野原市", "town": "松留", "full": "山梨県上野原市松留"}, {"postal_code": "4090133", "postal_hyphen": "409-0133", "pref": "山梨県", "city": "上野原市", "town": "八ツ沢", "full": "山梨県上野原市八ツ沢"}, {"postal_code": "4090111", "postal_hyphen": "409-0111", "pref": "山梨県", "city": "上野原市", "town": "棡原", "full": "山梨県上野原市棡原"}, {"postal_code": "4090137", "postal_hyphen": "409-0137", "pref": "山梨県", "city": "上野原市", "town": "和見", "full": "山梨県上野原市和見"}, {"postal_code": "4040000", "postal_hyphen": "404-0000", "pref": "山梨県", "city": "甲州市", "town": "", "full": "山梨県甲州市"}, {"postal_code": "4040033", "postal_hyphen": "404-0033", "pref": "山梨県", "city": "甲州市", "town": "塩山赤尾", "full": "山梨県甲州市塩山赤尾"}, {"postal_code": "4040021", "postal_hyphen": "404-0021", "pref": "山梨県", "city": "甲州市", "town": "塩山一之瀬高橋", "full": "山梨県甲州市塩山一之瀬高橋"}, {"postal_code": "4091213", "postal_hyphen": "409-1213", "pref": "山梨県", "city": "甲州市", "town": "塩山牛奥（５５３２〜５５５０、奥野田開拓、嵯峨塩開拓、嵯峨塩温泉）", "full": "山梨県甲州市塩山牛奥（５５３２〜５５５０、奥野田開拓、嵯峨塩開拓、嵯峨塩温泉）"}, {"postal_code": "4091321", "postal_hyphen": "409-1321", "pref": "山梨県", "city": "甲州市", "town": "塩山牛奥（５２８８、５２８８−１、５２８８−３、５２８９、５２８９", "full": "山梨県甲州市塩山牛奥（５２８８、５２８８−１、５２８８−３、５２８９、５２８９"}, {"postal_code": "4091321", "postal_hyphen": "409-1321", "pref": "山梨県", "city": "甲州市", "town": "−２、５２８９−１５）", "full": "山梨県甲州市−２、５２８９−１５）"}, {"postal_code": "4040034", "postal_hyphen": "404-0034", "pref": "山梨県", "city": "甲州市", "town": "塩山牛奥（その他）", "full": "山梨県甲州市塩山牛奥（その他）"}, {"postal_code": "4040211", "postal_hyphen": "404-0211", "pref": "山梨県", "city": "甲州市", "town": "塩山小屋敷（滑沢）", "full": "山梨県甲州市塩山小屋敷（滑沢）"}, {"postal_code": "4040053", "postal_hyphen": "404-0053", "pref": "山梨県", "city": "甲州市", "town": "塩山小屋敷（その他）", "full": "山梨県甲州市塩山小屋敷（その他）"}, {"postal_code": "4040031", "postal_hyphen": "404-0031", "pref": "山梨県", "city": "甲州市", "town": "塩山上粟生野", "full": "山梨県甲州市塩山上粟生野"}, {"postal_code": "4040046", "postal_hyphen": "404-0046", "pref": "山梨県", "city": "甲州市", "town": "塩山上井尻", "full": "山梨県甲州市塩山上井尻"}, {"postal_code": "4040042", "postal_hyphen": "404-0042", "pref": "山梨県", "city": "甲州市", "town": "塩山上於曽", "full": "山梨県甲州市塩山上於曽"}, {"postal_code": "4040026", "postal_hyphen": "404-0026", "pref": "山梨県", "city": "甲州市", "town": "塩山上小田原", "full": "山梨県甲州市塩山上小田原"}, {"postal_code": "4040045", "postal_hyphen": "404-0045", "pref": "山梨県", "city": "甲州市", "town": "塩山上塩後", "full": "山梨県甲州市塩山上塩後"}, {"postal_code": "4091211", "postal_hyphen": "409-1211", "pref": "山梨県", "city": "甲州市", "town": "塩山上萩原（４０５１、４７８３、４７８４、すずらん荘、東電上部ダム）", "full": "山梨県甲州市塩山上萩原（４０５１、４７８３、４７８４、すずらん荘、東電上部ダム）"}, {"postal_code": "4040022", "postal_hyphen": "404-0022", "pref": "山梨県", "city": "甲州市", "town": "塩山上萩原（その他）", "full": "山梨県甲州市塩山上萩原（その他）"}, {"postal_code": "4040037", "postal_hyphen": "404-0037", "pref": "山梨県", "city": "甲州市", "town": "塩山西広門田", "full": "山梨県甲州市塩山西広門田"}, {"postal_code": "4040036", "postal_hyphen": "404-0036", "pref": "山梨県", "city": "甲州市", "town": "塩山熊野", "full": "山梨県甲州市塩山熊野"}, {"postal_code": "4040032", "postal_hyphen": "404-0032", "pref": "山梨県", "city": "甲州市", "town": "塩山下粟生野", "full": "山梨県甲州市塩山下粟生野"}, {"postal_code": "4040043", "postal_hyphen": "404-0043", "pref": "山梨県", "city": "甲州市", "town": "塩山下於曽", "full": "山梨県甲州市塩山下於曽"}, {"postal_code": "4040025", "postal_hyphen": "404-0025", "pref": "山梨県", "city": "甲州市", "town": "塩山下小田原", "full": "山梨県甲州市塩山下小田原"}, {"postal_code": "4040044", "postal_hyphen": "404-0044", "pref": "山梨県", "city": "甲州市", "town": "塩山下塩後", "full": "山梨県甲州市塩山下塩後"}, {"postal_code": "4040024", "postal_hyphen": "404-0024", "pref": "山梨県", "city": "甲州市", "town": "塩山下萩原", "full": "山梨県甲州市塩山下萩原"}, {"postal_code": "4040055", "postal_hyphen": "404-0055", "pref": "山梨県", "city": "甲州市", "town": "塩山下柚木", "full": "山梨県甲州市塩山下柚木"}, {"postal_code": "4040051", "postal_hyphen": "404-0051", "pref": "山梨県", "city": "甲州市", "town": "塩山竹森", "full": "山梨県甲州市塩山竹森"}, {"postal_code": "4040041", "postal_hyphen": "404-0041", "pref": "山梨県", "city": "甲州市", "town": "塩山千野", "full": "山梨県甲州市塩山千野"}, {"postal_code": "4091212", "postal_hyphen": "409-1212", "pref": "山梨県", "city": "甲州市", "town": "塩山中萩原（日川小屋）", "full": "山梨県甲州市塩山中萩原（日川小屋）"}, {"postal_code": "4040023", "postal_hyphen": "404-0023", "pref": "山梨県", "city": "甲州市", "town": "塩山中萩原（その他）", "full": "山梨県甲州市塩山中萩原（その他）"}, {"postal_code": "4040035", "postal_hyphen": "404-0035", "pref": "山梨県", "city": "甲州市", "town": "塩山西野原", "full": "山梨県甲州市塩山西野原"}, {"postal_code": "4040052", "postal_hyphen": "404-0052", "pref": "山梨県", "city": "甲州市", "town": "塩山平沢", "full": "山梨県甲州市塩山平沢"}, {"postal_code": "4040056", "postal_hyphen": "404-0056", "pref": "山梨県", "city": "甲州市", "town": "塩山福生里", "full": "山梨県甲州市塩山福生里"}, {"postal_code": "4040054", "postal_hyphen": "404-0054", "pref": "山梨県", "city": "甲州市", "town": "塩山藤木", "full": "山梨県甲州市塩山藤木"}, {"postal_code": "4040047", "postal_hyphen": "404-0047", "pref": "山梨県", "city": "甲州市", "town": "塩山三日市場", "full": "山梨県甲州市塩山三日市場"}, {"postal_code": "4091303", "postal_hyphen": "409-1303", "pref": "山梨県", "city": "甲州市", "town": "勝沼町小佐手", "full": "山梨県甲州市勝沼町小佐手"}, {"postal_code": "4091316", "postal_hyphen": "409-1316", "pref": "山梨県", "city": "甲州市", "town": "勝沼町勝沼", "full": "山梨県甲州市勝沼町勝沼"}, {"postal_code": "4091312", "postal_hyphen": "409-1312", "pref": "山梨県", "city": "甲州市", "town": "勝沼町上岩崎", "full": "山梨県甲州市勝沼町上岩崎"}, {"postal_code": "4091304", "postal_hyphen": "409-1304", "pref": "山梨県", "city": "甲州市", "town": "勝沼町休息", "full": "山梨県甲州市勝沼町休息"}, {"postal_code": "4091313", "postal_hyphen": "409-1313", "pref": "山梨県", "city": "甲州市", "town": "勝沼町下岩崎", "full": "山梨県甲州市勝沼町下岩崎"}, {"postal_code": "4091315", "postal_hyphen": "409-1315", "pref": "山梨県", "city": "甲州市", "town": "勝沼町等々力", "full": "山梨県甲州市勝沼町等々力"}, {"postal_code": "4091301", "postal_hyphen": "409-1301", "pref": "山梨県", "city": "甲州市", "town": "勝沼町中原", "full": "山梨県甲州市勝沼町中原"}, {"postal_code": "4091302", "postal_hyphen": "409-1302", "pref": "山梨県", "city": "甲州市", "town": "勝沼町菱山", "full": "山梨県甲州市勝沼町菱山"}, {"postal_code": "4091311", "postal_hyphen": "409-1311", "pref": "山梨県", "city": "甲州市", "town": "勝沼町深沢", "full": "山梨県甲州市勝沼町深沢"}, {"postal_code": "4091314", "postal_hyphen": "409-1314", "pref": "山梨県", "city": "甲州市", "town": "勝沼町藤井", "full": "山梨県甲州市勝沼町藤井"}, {"postal_code": "4091306", "postal_hyphen": "409-1306", "pref": "山梨県", "city": "甲州市", "town": "勝沼町山", "full": "山梨県甲州市勝沼町山"}, {"postal_code": "4091305", "postal_hyphen": "409-1305", "pref": "山梨県", "city": "甲州市", "town": "勝沼町綿塚", "full": "山梨県甲州市勝沼町綿塚"}, {"postal_code": "4091202", "postal_hyphen": "409-1202", "pref": "山梨県", "city": "甲州市", "town": "大和町田野", "full": "山梨県甲州市大和町田野"}, {"postal_code": "4091205", "postal_hyphen": "409-1205", "pref": "山梨県", "city": "甲州市", "town": "大和町鶴瀬", "full": "山梨県甲州市大和町鶴瀬"}, {"postal_code": "4091201", "postal_hyphen": "409-1201", "pref": "山梨県", "city": "甲州市", "town": "大和町木賊", "full": "山梨県甲州市大和町木賊"}, {"postal_code": "4091203", "postal_hyphen": "409-1203", "pref": "山梨県", "city": "甲州市", "town": "大和町初鹿野", "full": "山梨県甲州市大和町初鹿野"}, {"postal_code": "4091204", "postal_hyphen": "409-1204", "pref": "山梨県", "city": "甲州市", "town": "大和町日影", "full": "山梨県甲州市大和町日影"}, {"postal_code": "4093800", "postal_hyphen": "409-3800", "pref": "山梨県", "city": "中央市", "town": "", "full": "山梨県中央市"}, {"postal_code": "4001514", "postal_hyphen": "400-1514", "pref": "山梨県", "city": "中央市", "town": "浅利", "full": "山梨県中央市浅利"}, {"postal_code": "4093813", "postal_hyphen": "409-3813", "pref": "山梨県", "city": "中央市", "town": "一町畑", "full": "山梨県中央市一町畑"}, {"postal_code": "4093804", "postal_hyphen": "409-3804", "pref": "山梨県", "city": "中央市", "town": "井之口", "full": "山梨県中央市井之口"}, {"postal_code": "4093834", "postal_hyphen": "409-3834", "pref": "山梨県", "city": "中央市", "town": "今福", "full": "山梨県中央市今福"}, {"postal_code": "4093835", "postal_hyphen": "409-3835", "pref": "山梨県", "city": "中央市", "town": "今福新田", "full": "山梨県中央市今福新田"}, {"postal_code": "4093844", "postal_hyphen": "409-3844", "pref": "山梨県", "city": "中央市", "town": "臼井阿原", "full": "山梨県中央市臼井阿原"}, {"postal_code": "4093831", "postal_hyphen": "409-3831", "pref": "山梨県", "city": "中央市", "town": "大田和", "full": "山梨県中央市大田和"}, {"postal_code": "4001513", "postal_hyphen": "400-1513", "pref": "山梨県", "city": "中央市", "town": "大鳥居", "full": "山梨県中央市大鳥居"}, {"postal_code": "4093812", "postal_hyphen": "409-3812", "pref": "山梨県", "city": "中央市", "town": "乙黒", "full": "山梨県中央市乙黒"}, {"postal_code": "4093823", "postal_hyphen": "409-3823", "pref": "山梨県", "city": "中央市", "town": "上三條", "full": "山梨県中央市上三條"}, {"postal_code": "4001511", "postal_hyphen": "400-1511", "pref": "山梨県", "city": "中央市", "town": "木原", "full": "山梨県中央市木原"}, {"postal_code": "4093811", "postal_hyphen": "409-3811", "pref": "山梨県", "city": "中央市", "town": "極楽寺", "full": "山梨県中央市極楽寺"}, {"postal_code": "4093821", "postal_hyphen": "409-3821", "pref": "山梨県", "city": "中央市", "town": "下河東", "full": "山梨県中央市下河東"}, {"postal_code": "4093822", "postal_hyphen": "409-3822", "pref": "山梨県", "city": "中央市", "town": "下三條", "full": "山梨県中央市下三條"}, {"postal_code": "4001512", "postal_hyphen": "400-1512", "pref": "山梨県", "city": "中央市", "town": "関原", "full": "山梨県中央市関原"}, {"postal_code": "4001515", "postal_hyphen": "400-1515", "pref": "山梨県", "city": "中央市", "town": "高部", "full": "山梨県中央市高部"}, {"postal_code": "4093801", "postal_hyphen": "409-3801", "pref": "山梨県", "city": "中央市", "town": "中楯", "full": "山梨県中央市中楯"}, {"postal_code": "4093815", "postal_hyphen": "409-3815", "pref": "山梨県", "city": "中央市", "town": "成島", "full": "山梨県中央市成島"}, {"postal_code": "4093802", "postal_hyphen": "409-3802", "pref": "山梨県", "city": "中央市", "town": "西新居", "full": "山梨県中央市西新居"}, {"postal_code": "4093843", "postal_hyphen": "409-3843", "pref": "山梨県", "city": "中央市", "town": "西花輪", "full": "山梨県中央市西花輪"}, {"postal_code": "4093842", "postal_hyphen": "409-3842", "pref": "山梨県", "city": "中央市", "town": "東花輪", "full": "山梨県中央市東花輪"}, {"postal_code": "4093833", "postal_hyphen": "409-3833", "pref": "山梨県", "city": "中央市", "town": "藤巻", "full": "山梨県中央市藤巻"}, {"postal_code": "4093841", "postal_hyphen": "409-3841", "pref": "山梨県", "city": "中央市", "town": "布施", "full": "山梨県中央市布施"}, {"postal_code": "4093832", "postal_hyphen": "409-3832", "pref": "山梨県", "city": "中央市", "town": "馬籠", "full": "山梨県中央市馬籠"}, {"postal_code": "4093814", "postal_hyphen": "409-3814", "pref": "山梨県", "city": "中央市", "town": "町之田", "full": "山梨県中央市町之田"}, {"postal_code": "4093845", "postal_hyphen": "409-3845", "pref": "山梨県", "city": "中央市", "town": "山之神", "full": "山梨県中央市山之神"}, {"postal_code": "4093803", "postal_hyphen": "409-3803", "pref": "山梨県", "city": "中央市", "town": "若宮", "full": "山梨県中央市若宮"}, {"postal_code": "4093600", "postal_hyphen": "409-3600", "pref": "山梨県", "city": "西八代郡市川三郷町", "town": "", "full": "山梨県西八代郡市川三郷町"}, {"postal_code": "4093601", "postal_hyphen": "409-3601", "pref": "山梨県", "city": "西八代郡市川三郷町", "town": "市川大門", "full": "山梨県西八代郡市川三郷町市川大門"}, {"postal_code": "4093234", "postal_hyphen": "409-3234", "pref": "山梨県", "city": "西八代郡市川三郷町", "town": "岩下", "full": "山梨県西八代郡市川三郷町岩下"}, {"postal_code": "4093244", "postal_hyphen": "409-3244", "pref": "山梨県", "city": "西八代郡市川三郷町", "town": "岩間", "full": "山梨県西八代郡市川三郷町岩間"}, {"postal_code": "4093607", "postal_hyphen": "409-3607", "pref": "山梨県", "city": "西八代郡市川三郷町", "town": "印沢", "full": "山梨県西八代郡市川三郷町印沢"}, {"postal_code": "4093612", "postal_hyphen": "409-3612", "pref": "山梨県", "city": "西八代郡市川三郷町", "town": "上野", "full": "山梨県西八代郡市川三郷町上野"}, {"postal_code": "4093611", "postal_hyphen": "409-3611", "pref": "山梨県", "city": "西八代郡市川三郷町", "town": "大塚", "full": "山梨県西八代郡市川三郷町大塚"}, {"postal_code": "4093231", "postal_hyphen": "409-3231", "pref": "山梨県", "city": "西八代郡市川三郷町", "town": "落居", "full": "山梨県西八代郡市川三郷町落居"}, {"postal_code": "4093243", "postal_hyphen": "409-3243", "pref": "山梨県", "city": "西八代郡市川三郷町", "town": "鴨狩津向", "full": "山梨県西八代郡市川三郷町鴨狩津向"}, {"postal_code": "4093245", "postal_hyphen": "409-3245", "pref": "山梨県", "city": "西八代郡市川三郷町", "town": "楠甫", "full": "山梨県西八代郡市川三郷町楠甫"}, {"postal_code": "4093603", "postal_hyphen": "409-3603", "pref": "山梨県", "city": "西八代郡市川三郷町", "town": "黒沢", "full": "山梨県西八代郡市川三郷町黒沢"}, {"postal_code": "4093233", "postal_hyphen": "409-3233", "pref": "山梨県", "city": "西八代郡市川三郷町", "town": "五八", "full": "山梨県西八代郡市川三郷町五八"}, {"postal_code": "4093622", "postal_hyphen": "409-3622", "pref": "山梨県", "city": "西八代郡市川三郷町", "town": "三帳", "full": "山梨県西八代郡市川三郷町三帳"}, {"postal_code": "4093621", "postal_hyphen": "409-3621", "pref": "山梨県", "city": "西八代郡市川三郷町", "town": "下芦川", "full": "山梨県西八代郡市川三郷町下芦川"}, {"postal_code": "4093605", "postal_hyphen": "409-3605", "pref": "山梨県", "city": "西八代郡市川三郷町", "town": "下大鳥居", "full": "山梨県西八代郡市川三郷町下大鳥居"}, {"postal_code": "4093606", "postal_hyphen": "409-3606", "pref": "山梨県", "city": "西八代郡市川三郷町", "town": "高田", "full": "山梨県西八代郡市川三郷町高田"}, {"postal_code": "4093623", "postal_hyphen": "409-3623", "pref": "山梨県", "city": "西八代郡市川三郷町", "town": "高萩", "full": "山梨県西八代郡市川三郷町高萩"}, {"postal_code": "4093241", "postal_hyphen": "409-3241", "pref": "山梨県", "city": "西八代郡市川三郷町", "town": "葛籠沢", "full": "山梨県西八代郡市川三郷町葛籠沢"}, {"postal_code": "4093232", "postal_hyphen": "409-3232", "pref": "山梨県", "city": "西八代郡市川三郷町", "town": "寺所", "full": "山梨県西八代郡市川三郷町寺所"}, {"postal_code": "4093625", "postal_hyphen": "409-3625", "pref": "山梨県", "city": "西八代郡市川三郷町", "town": "中山", "full": "山梨県西八代郡市川三郷町中山"}, {"postal_code": "4093624", "postal_hyphen": "409-3624", "pref": "山梨県", "city": "西八代郡市川三郷町", "town": "垈", "full": "山梨県西八代郡市川三郷町垈"}, {"postal_code": "4093626", "postal_hyphen": "409-3626", "pref": "山梨県", "city": "西八代郡市川三郷町", "town": "畑熊", "full": "山梨県西八代郡市川三郷町畑熊"}, {"postal_code": "4093604", "postal_hyphen": "409-3604", "pref": "山梨県", "city": "西八代郡市川三郷町", "town": "八之尻", "full": "山梨県西八代郡市川三郷町八之尻"}, {"postal_code": "4093242", "postal_hyphen": "409-3242", "pref": "山梨県", "city": "西八代郡市川三郷町", "town": "宮原", "full": "山梨県西八代郡市川三郷町宮原"}, {"postal_code": "4093602", "postal_hyphen": "409-3602", "pref": "山梨県", "city": "西八代郡市川三郷町", "town": "山保", "full": "山梨県西八代郡市川三郷町山保"}, {"postal_code": "4092700", "postal_hyphen": "409-2700", "pref": "山梨県", "city": "南巨摩郡早川町", "town": "", "full": "山梨県南巨摩郡早川町"}, {"postal_code": "4092733", "postal_hyphen": "409-2733", "pref": "山梨県", "city": "南巨摩郡早川町", "town": "赤沢", "full": "山梨県南巨摩郡早川町赤沢"}, {"postal_code": "4092734", "postal_hyphen": "409-2734", "pref": "山梨県", "city": "南巨摩郡早川町", "town": "雨畑", "full": "山梨県南巨摩郡早川町雨畑"}, {"postal_code": "4092703", "postal_hyphen": "409-2703", "pref": "山梨県", "city": "南巨摩郡早川町", "town": "新倉", "full": "山梨県南巨摩郡早川町新倉"}, {"postal_code": "4092731", "postal_hyphen": "409-2731", "pref": "山梨県", "city": "南巨摩郡早川町", "town": "大島", "full": "山梨県南巨摩郡早川町大島"}, {"postal_code": "4092704", "postal_hyphen": "409-2704", "pref": "山梨県", "city": "南巨摩郡早川町", "town": "大原野", "full": "山梨県南巨摩郡早川町大原野"}, {"postal_code": "4092715", "postal_hyphen": "409-2715", "pref": "山梨県", "city": "南巨摩郡早川町", "town": "京ケ島", "full": "山梨県南巨摩郡早川町京ケ島"}, {"postal_code": "4092714", "postal_hyphen": "409-2714", "pref": "山梨県", "city": "南巨摩郡早川町", "town": "草塩", "full": "山梨県南巨摩郡早川町草塩"}, {"postal_code": "4092723", "postal_hyphen": "409-2723", "pref": "山梨県", "city": "南巨摩郡早川町", "town": "榑坪", "full": "山梨県南巨摩郡早川町榑坪"}, {"postal_code": "4092732", "postal_hyphen": "409-2732", "pref": "山梨県", "city": "南巨摩郡早川町", "town": "高住", "full": "山梨県南巨摩郡早川町高住"}, {"postal_code": "4092725", "postal_hyphen": "409-2725", "pref": "山梨県", "city": "南巨摩郡早川町", "town": "小縄", "full": "山梨県南巨摩郡早川町小縄"}, {"postal_code": "4092722", "postal_hyphen": "409-2722", "pref": "山梨県", "city": "南巨摩郡早川町", "town": "笹走", "full": "山梨県南巨摩郡早川町笹走"}, {"postal_code": "4092721", "postal_hyphen": "409-2721", "pref": "山梨県", "city": "南巨摩郡早川町", "town": "塩之上", "full": "山梨県南巨摩郡早川町塩之上"}, {"postal_code": "4092726", "postal_hyphen": "409-2726", "pref": "山梨県", "city": "南巨摩郡早川町", "town": "千須和", "full": "山梨県南巨摩郡早川町千須和"}, {"postal_code": "4092711", "postal_hyphen": "409-2711", "pref": "山梨県", "city": "南巨摩郡早川町", "town": "黒桂", "full": "山梨県南巨摩郡早川町黒桂"}, {"postal_code": "4092701", "postal_hyphen": "409-2701", "pref": "山梨県", "city": "南巨摩郡早川町", "town": "奈良田", "full": "山梨県南巨摩郡早川町奈良田"}, {"postal_code": "4092712", "postal_hyphen": "409-2712", "pref": "山梨県", "city": "南巨摩郡早川町", "town": "西之宮", "full": "山梨県南巨摩郡早川町西之宮"}, {"postal_code": "4092724", "postal_hyphen": "409-2724", "pref": "山梨県", "city": "南巨摩郡早川町", "town": "初鹿島", "full": "山梨県南巨摩郡早川町初鹿島"}, {"postal_code": "4092705", "postal_hyphen": "409-2705", "pref": "山梨県", "city": "南巨摩郡早川町", "town": "早川", "full": "山梨県南巨摩郡早川町早川"}, {"postal_code": "4092713", "postal_hyphen": "409-2713", "pref": "山梨県", "city": "南巨摩郡早川町", "town": "保", "full": "山梨県南巨摩郡早川町保"}, {"postal_code": "4092727", "postal_hyphen": "409-2727", "pref": "山梨県", "city": "南巨摩郡早川町", "town": "薬袋", "full": "山梨県南巨摩郡早川町薬袋"}, {"postal_code": "4092702", "postal_hyphen": "409-2702", "pref": "山梨県", "city": "南巨摩郡早川町", "town": "湯島", "full": "山梨県南巨摩郡早川町湯島"}, {"postal_code": "4092500", "postal_hyphen": "409-2500", "pref": "山梨県", "city": "南巨摩郡身延町", "town": "", "full": "山梨県南巨摩郡身延町"}, {"postal_code": "4092536", "postal_hyphen": "409-2536", "pref": "山梨県", "city": "南巨摩郡身延町", "town": "相又", "full": "山梨県南巨摩郡身延町相又"}, {"postal_code": "4092521", "postal_hyphen": "409-2521", "pref": "山梨県", "city": "南巨摩郡身延町", "town": "粟倉", "full": "山梨県南巨摩郡身延町粟倉"}, {"postal_code": "4093423", "postal_hyphen": "409-3423", "pref": "山梨県", "city": "南巨摩郡身延町", "town": "飯富", "full": "山梨県南巨摩郡身延町飯富"}, {"postal_code": "4092938", "postal_hyphen": "409-2938", "pref": "山梨県", "city": "南巨摩郡身延町", "town": "市之瀬", "full": "山梨県南巨摩郡身延町市之瀬"}, {"postal_code": "4092937", "postal_hyphen": "409-2937", "pref": "山梨県", "city": "南巨摩郡身延町", "town": "一色", "full": "山梨県南巨摩郡身延町一色"}, {"postal_code": "4093424", "postal_hyphen": "409-3424", "pref": "山梨県", "city": "南巨摩郡身延町", "town": "伊沼", "full": "山梨県南巨摩郡身延町伊沼"}, {"postal_code": "4092933", "postal_hyphen": "409-2933", "pref": "山梨県", "city": "南巨摩郡身延町", "town": "岩欠", "full": "山梨県南巨摩郡身延町岩欠"}, {"postal_code": "4092947", "postal_hyphen": "409-2947", "pref": "山梨県", "city": "南巨摩郡身延町", "town": "上之平", "full": "山梨県南巨摩郡身延町上之平"}, {"postal_code": "4092531", "postal_hyphen": "409-2531", "pref": "山梨県", "city": "南巨摩郡身延町", "town": "梅平", "full": "山梨県南巨摩郡身延町梅平"}, {"postal_code": "4093434", "postal_hyphen": "409-3434", "pref": "山梨県", "city": "南巨摩郡身延町", "town": "江尻窪", "full": "山梨県南巨摩郡身延町江尻窪"}, {"postal_code": "4092934", "postal_hyphen": "409-2934", "pref": "山梨県", "city": "南巨摩郡身延町", "town": "大炊平", "full": "山梨県南巨摩郡身延町大炊平"}, {"postal_code": "4093111", "postal_hyphen": "409-3111", "pref": "山梨県", "city": "南巨摩郡身延町", "town": "大磯小磯", "full": "山梨県南巨摩郡身延町大磯小磯"}, {"postal_code": "4092406", "postal_hyphen": "409-2406", "pref": "山梨県", "city": "南巨摩郡身延町", "town": "大崩", "full": "山梨県南巨摩郡身延町大崩"}, {"postal_code": "4093311", "postal_hyphen": "409-3311", "pref": "山梨県", "city": "南巨摩郡身延町", "town": "大塩", "full": "山梨県南巨摩郡身延町大塩"}, {"postal_code": "4092415", "postal_hyphen": "409-2415", "pref": "山梨県", "city": "南巨摩郡身延町", "town": "大島", "full": "山梨県南巨摩郡身延町大島"}, {"postal_code": "4092537", "postal_hyphen": "409-2537", "pref": "山梨県", "city": "南巨摩郡身延町", "town": "大城", "full": "山梨県南巨摩郡身延町大城"}, {"postal_code": "4092404", "postal_hyphen": "409-2404", "pref": "山梨県", "city": "南巨摩郡身延町", "town": "大垈", "full": "山梨県南巨摩郡身延町大垈"}, {"postal_code": "4092532", "postal_hyphen": "409-2532", "pref": "山梨県", "city": "南巨摩郡身延町", "town": "大野", "full": "山梨県南巨摩郡身延町大野"}, {"postal_code": "4093121", "postal_hyphen": "409-3121", "pref": "山梨県", "city": "南巨摩郡身延町", "town": "大山", "full": "山梨県南巨摩郡身延町大山"}, {"postal_code": "4093433", "postal_hyphen": "409-3433", "pref": "山梨県", "city": "南巨摩郡身延町", "town": "遅沢", "full": "山梨県南巨摩郡身延町遅沢"}, {"postal_code": "4092539", "postal_hyphen": "409-2539", "pref": "山梨県", "city": "南巨摩郡身延町", "town": "小田船原", "full": "山梨県南巨摩郡身延町小田船原"}, {"postal_code": "4092403", "postal_hyphen": "409-2403", "pref": "山梨県", "city": "南巨摩郡身延町", "town": "帯金", "full": "山梨県南巨摩郡身延町帯金"}, {"postal_code": "4093101", "postal_hyphen": "409-3101", "pref": "山梨県", "city": "南巨摩郡身延町", "town": "折門", "full": "山梨県南巨摩郡身延町折門"}, {"postal_code": "4092538", "postal_hyphen": "409-2538", "pref": "山梨県", "city": "南巨摩郡身延町", "town": "門野", "full": "山梨県南巨摩郡身延町門野"}, {"postal_code": "4093105", "postal_hyphen": "409-3105", "pref": "山梨県", "city": "南巨摩郡身延町", "town": "釜額", "full": "山梨県南巨摩郡身延町釜額"}, {"postal_code": "4093118", "postal_hyphen": "409-3118", "pref": "山梨県", "city": "南巨摩郡身延町", "town": "上田原", "full": "山梨県南巨摩郡身延町上田原"}, {"postal_code": "4092401", "postal_hyphen": "409-2401", "pref": "山梨県", "city": "南巨摩郡身延町", "town": "上八木沢", "full": "山梨県南巨摩郡身延町上八木沢"}, {"postal_code": "4092943", "postal_hyphen": "409-2943", "pref": "山梨県", "city": "南巨摩郡身延町", "town": "川向", "full": "山梨県南巨摩郡身延町川向"}, {"postal_code": "4092931", "postal_hyphen": "409-2931", "pref": "山梨県", "city": "南巨摩郡身延町", "town": "北川", "full": "山梨県南巨摩郡身延町北川"}, {"postal_code": "4092935", "postal_hyphen": "409-2935", "pref": "山梨県", "city": "南巨摩郡身延町", "town": "清沢", "full": "山梨県南巨摩郡身延町清沢"}, {"postal_code": "4093304", "postal_hyphen": "409-3304", "pref": "山梨県", "city": "南巨摩郡身延町", "town": "切石", "full": "山梨県南巨摩郡身延町切石"}, {"postal_code": "4093115", "postal_hyphen": "409-3115", "pref": "山梨県", "city": "南巨摩郡身延町", "town": "切房木", "full": "山梨県南巨摩郡身延町切房木"}, {"postal_code": "4093312", "postal_hyphen": "409-3312", "pref": "山梨県", "city": "南巨摩郡身延町", "town": "久成", "full": "山梨県南巨摩郡身延町久成"}, {"postal_code": "4093122", "postal_hyphen": "409-3122", "pref": "山梨県", "city": "南巨摩郡身延町", "town": "久保", "full": "山梨県南巨摩郡身延町久保"}, {"postal_code": "4093123", "postal_hyphen": "409-3123", "pref": "山梨県", "city": "南巨摩郡身延町", "town": "熊沢", "full": "山梨県南巨摩郡身延町熊沢"}, {"postal_code": "4093116", "postal_hyphen": "409-3116", "pref": "山梨県", "city": "南巨摩郡身延町", "town": "車田", "full": "山梨県南巨摩郡身延町車田"}, {"postal_code": "4093112", "postal_hyphen": "409-3112", "pref": "山梨県", "city": "南巨摩郡身延町", "town": "芝草", "full": "山梨県南巨摩郡身延町芝草"}, {"postal_code": "4093305", "postal_hyphen": "409-3305", "pref": "山梨県", "city": "南巨摩郡身延町", "town": "下田原", "full": "山梨県南巨摩郡身延町下田原"}, {"postal_code": "4092942", "postal_hyphen": "409-2942", "pref": "山梨県", "city": "南巨摩郡身延町", "town": "下部", "full": "山梨県南巨摩郡身延町下部"}, {"postal_code": "4092402", "postal_hyphen": "409-2402", "pref": "山梨県", "city": "南巨摩郡身延町", "town": "下八木沢", "full": "山梨県南巨摩郡身延町下八木沢"}, {"postal_code": "4092522", "postal_hyphen": "409-2522", "pref": "山梨県", "city": "南巨摩郡身延町", "town": "下山", "full": "山梨県南巨摩郡身延町下山"}, {"postal_code": "4092932", "postal_hyphen": "409-2932", "pref": "山梨県", "city": "南巨摩郡身延町", "town": "杉山", "full": "山梨県南巨摩郡身延町杉山"}, {"postal_code": "4092533", "postal_hyphen": "409-2533", "pref": "山梨県", "city": "南巨摩郡身延町", "town": "清子", "full": "山梨県南巨摩郡身延町清子"}, {"postal_code": "4093107", "postal_hyphen": "409-3107", "pref": "山梨県", "city": "南巨摩郡身延町", "town": "瀬戸", "full": "山梨県南巨摩郡身延町瀬戸"}, {"postal_code": "4092946", "postal_hyphen": "409-2946", "pref": "山梨県", "city": "南巨摩郡身延町", "town": "大子", "full": "山梨県南巨摩郡身延町大子"}, {"postal_code": "4092412", "postal_hyphen": "409-2412", "pref": "山梨県", "city": "南巨摩郡身延町", "town": "角打", "full": "山梨県南巨摩郡身延町角打"}, {"postal_code": "4092405", "postal_hyphen": "409-2405", "pref": "山梨県", "city": "南巨摩郡身延町", "town": "椿草里", "full": "山梨県南巨摩郡身延町椿草里"}, {"postal_code": "4093302", "postal_hyphen": "409-3302", "pref": "山梨県", "city": "南巨摩郡身延町", "town": "手打沢", "full": "山梨県南巨摩郡身延町手打沢"}, {"postal_code": "4093303", "postal_hyphen": "409-3303", "pref": "山梨県", "city": "南巨摩郡身延町", "town": "寺沢", "full": "山梨県南巨摩郡身延町寺沢"}, {"postal_code": "4093124", "postal_hyphen": "409-3124", "pref": "山梨県", "city": "南巨摩郡身延町", "town": "樋田", "full": "山梨県南巨摩郡身延町樋田"}, {"postal_code": "4092936", "postal_hyphen": "409-2936", "pref": "山梨県", "city": "南巨摩郡身延町", "town": "常葉", "full": "山梨県南巨摩郡身延町常葉"}, {"postal_code": "4093104", "postal_hyphen": "409-3104", "pref": "山梨県", "city": "南巨摩郡身延町", "town": "中之倉", "full": "山梨県南巨摩郡身延町中之倉"}, {"postal_code": "4093432", "postal_hyphen": "409-3432", "pref": "山梨県", "city": "南巨摩郡身延町", "town": "中山", "full": "山梨県南巨摩郡身延町中山"}, {"postal_code": "4093435", "postal_hyphen": "409-3435", "pref": "山梨県", "city": "南巨摩郡身延町", "town": "梨子", "full": "山梨県南巨摩郡身延町梨子"}, {"postal_code": "4093301", "postal_hyphen": "409-3301", "pref": "山梨県", "city": "南巨摩郡身延町", "town": "西嶋", "full": "山梨県南巨摩郡身延町西嶋"}, {"postal_code": "4093103", "postal_hyphen": "409-3103", "pref": "山梨県", "city": "南巨摩郡身延町", "town": "根子", "full": "山梨県南巨摩郡身延町根子"}, {"postal_code": "4092523", "postal_hyphen": "409-2523", "pref": "山梨県", "city": "南巨摩郡身延町", "town": "波木井", "full": "山梨県南巨摩郡身延町波木井"}, {"postal_code": "4092945", "postal_hyphen": "409-2945", "pref": "山梨県", "city": "南巨摩郡身延町", "town": "波高島", "full": "山梨県南巨摩郡身延町波高島"}, {"postal_code": "4093102", "postal_hyphen": "409-3102", "pref": "山梨県", "city": "南巨摩郡身延町", "town": "八坂", "full": "山梨県南巨摩郡身延町八坂"}, {"postal_code": "4093307", "postal_hyphen": "409-3307", "pref": "山梨県", "city": "南巨摩郡身延町", "town": "日向南沢", "full": "山梨県南巨摩郡身延町日向南沢"}, {"postal_code": "4092414", "postal_hyphen": "409-2414", "pref": "山梨県", "city": "南巨摩郡身延町", "town": "樋之上", "full": "山梨県南巨摩郡身延町樋之上"}, {"postal_code": "4093313", "postal_hyphen": "409-3313", "pref": "山梨県", "city": "南巨摩郡身延町", "town": "平須", "full": "山梨県南巨摩郡身延町平須"}, {"postal_code": "4093436", "postal_hyphen": "409-3436", "pref": "山梨県", "city": "南巨摩郡身延町", "town": "福原", "full": "山梨県南巨摩郡身延町福原"}, {"postal_code": "4093106", "postal_hyphen": "409-3106", "pref": "山梨県", "city": "南巨摩郡身延町", "town": "古関", "full": "山梨県南巨摩郡身延町古関"}, {"postal_code": "4093437", "postal_hyphen": "409-3437", "pref": "山梨県", "city": "南巨摩郡身延町", "town": "古長谷", "full": "山梨県南巨摩郡身延町古長谷"}, {"postal_code": "4092411", "postal_hyphen": "409-2411", "pref": "山梨県", "city": "南巨摩郡身延町", "town": "丸滝", "full": "山梨県南巨摩郡身延町丸滝"}, {"postal_code": "4093117", "postal_hyphen": "409-3117", "pref": "山梨県", "city": "南巨摩郡身延町", "town": "三沢", "full": "山梨県南巨摩郡身延町三沢"}, {"postal_code": "4093113", "postal_hyphen": "409-3113", "pref": "山梨県", "city": "南巨摩郡身延町", "town": "水船", "full": "山梨県南巨摩郡身延町水船"}, {"postal_code": "4093114", "postal_hyphen": "409-3114", "pref": "山梨県", "city": "南巨摩郡身延町", "town": "道", "full": "山梨県南巨摩郡身延町道"}, {"postal_code": "4092534", "postal_hyphen": "409-2534", "pref": "山梨県", "city": "南巨摩郡身延町", "town": "光子沢", "full": "山梨県南巨摩郡身延町光子沢"}, {"postal_code": "4093125", "postal_hyphen": "409-3125", "pref": "山梨県", "city": "南巨摩郡身延町", "town": "嶺", "full": "山梨県南巨摩郡身延町嶺"}, {"postal_code": "4092524", "postal_hyphen": "409-2524", "pref": "山梨県", "city": "南巨摩郡身延町", "town": "身延", "full": "山梨県南巨摩郡身延町身延"}, {"postal_code": "4093422", "postal_hyphen": "409-3422", "pref": "山梨県", "city": "南巨摩郡身延町", "town": "宮木", "full": "山梨県南巨摩郡身延町宮木"}, {"postal_code": "4092944", "postal_hyphen": "409-2944", "pref": "山梨県", "city": "南巨摩郡身延町", "town": "桃ケ窪", "full": "山梨県南巨摩郡身延町桃ケ窪"}, {"postal_code": "4093431", "postal_hyphen": "409-3431", "pref": "山梨県", "city": "南巨摩郡身延町", "town": "矢細工", "full": "山梨県南巨摩郡身延町矢細工"}, {"postal_code": "4093126", "postal_hyphen": "409-3126", "pref": "山梨県", "city": "南巨摩郡身延町", "town": "山家", "full": "山梨県南巨摩郡身延町山家"}, {"postal_code": "4092941", "postal_hyphen": "409-2941", "pref": "山梨県", "city": "南巨摩郡身延町", "town": "湯之奥", "full": "山梨県南巨摩郡身延町湯之奥"}, {"postal_code": "4093421", "postal_hyphen": "409-3421", "pref": "山梨県", "city": "南巨摩郡身延町", "town": "八日市場", "full": "山梨県南巨摩郡身延町八日市場"}, {"postal_code": "4093306", "postal_hyphen": "409-3306", "pref": "山梨県", "city": "南巨摩郡身延町", "town": "夜子沢", "full": "山梨県南巨摩郡身延町夜子沢"}, {"postal_code": "4092535", "postal_hyphen": "409-2535", "pref": "山梨県", "city": "南巨摩郡身延町", "town": "横根中", "full": "山梨県南巨摩郡身延町横根中"}, {"postal_code": "4092413", "postal_hyphen": "409-2413", "pref": "山梨県", "city": "南巨摩郡身延町", "town": "和田", "full": "山梨県南巨摩郡身延町和田"}, {"postal_code": "4092100", "postal_hyphen": "409-2100", "pref": "山梨県", "city": "南巨摩郡南部町", "town": "", "full": "山梨県南巨摩郡南部町"}, {"postal_code": "4092304", "postal_hyphen": "409-2304", "pref": "山梨県", "city": "南巨摩郡南部町", "town": "井出", "full": "山梨県南巨摩郡南部町井出"}, {"postal_code": "4092305", "postal_hyphen": "409-2305", "pref": "山梨県", "city": "南巨摩郡南部町", "town": "内船", "full": "山梨県南巨摩郡南部町内船"}, {"postal_code": "4092213", "postal_hyphen": "409-2213", "pref": "山梨県", "city": "南巨摩郡南部町", "town": "大和", "full": "山梨県南巨摩郡南部町大和"}, {"postal_code": "4092101", "postal_hyphen": "409-2101", "pref": "山梨県", "city": "南巨摩郡南部町", "town": "楮根", "full": "山梨県南巨摩郡南部町楮根"}, {"postal_code": "4092301", "postal_hyphen": "409-2301", "pref": "山梨県", "city": "南巨摩郡南部町", "town": "上佐野", "full": "山梨県南巨摩郡南部町上佐野"}, {"postal_code": "4092214", "postal_hyphen": "409-2214", "pref": "山梨県", "city": "南巨摩郡南部町", "town": "塩沢", "full": "山梨県南巨摩郡南部町塩沢"}, {"postal_code": "4092302", "postal_hyphen": "409-2302", "pref": "山梨県", "city": "南巨摩郡南部町", "town": "下佐野", "full": "山梨県南巨摩郡南部町下佐野"}, {"postal_code": "4092303", "postal_hyphen": "409-2303", "pref": "山梨県", "city": "南巨摩郡南部町", "town": "十島", "full": "山梨県南巨摩郡南部町十島"}, {"postal_code": "4092211", "postal_hyphen": "409-2211", "pref": "山梨県", "city": "南巨摩郡南部町", "town": "中野", "full": "山梨県南巨摩郡南部町中野"}, {"postal_code": "4092216", "postal_hyphen": "409-2216", "pref": "山梨県", "city": "南巨摩郡南部町", "town": "成島", "full": "山梨県南巨摩郡南部町成島"}, {"postal_code": "4092212", "postal_hyphen": "409-2212", "pref": "山梨県", "city": "南巨摩郡南部町", "town": "南部", "full": "山梨県南巨摩郡南部町南部"}, {"postal_code": "4092102", "postal_hyphen": "409-2102", "pref": "山梨県", "city": "南巨摩郡南部町", "town": "福士", "full": "山梨県南巨摩郡南部町福士"}, {"postal_code": "4092217", "postal_hyphen": "409-2217", "pref": "山梨県", "city": "南巨摩郡南部町", "town": "本郷", "full": "山梨県南巨摩郡南部町本郷"}, {"postal_code": "4092103", "postal_hyphen": "409-2103", "pref": "山梨県", "city": "南巨摩郡南部町", "town": "万沢", "full": "山梨県南巨摩郡南部町万沢"}, {"postal_code": "4092215", "postal_hyphen": "409-2215", "pref": "山梨県", "city": "南巨摩郡南部町", "town": "柳島", "full": "山梨県南巨摩郡南部町柳島"}, {"postal_code": "4000500", "postal_hyphen": "400-0500", "pref": "山梨県", "city": "南巨摩郡富士川町", "town": "", "full": "山梨県南巨摩郡富士川町"}, {"postal_code": "4000501", "postal_hyphen": "400-0501", "pref": "山梨県", "city": "南巨摩郡富士川町", "town": "青柳町", "full": "山梨県南巨摩郡富士川町青柳町"}, {"postal_code": "4000602", "postal_hyphen": "400-0602", "pref": "山梨県", "city": "南巨摩郡富士川町", "town": "駅前通", "full": "山梨県南巨摩郡富士川町駅前通"}, {"postal_code": "4000506", "postal_hyphen": "400-0506", "pref": "山梨県", "city": "南巨摩郡富士川町", "town": "大椚", "full": "山梨県南巨摩郡富士川町大椚"}, {"postal_code": "4000511", "postal_hyphen": "400-0511", "pref": "山梨県", "city": "南巨摩郡富士川町", "town": "大久保", "full": "山梨県南巨摩郡富士川町大久保"}, {"postal_code": "4000601", "postal_hyphen": "400-0601", "pref": "山梨県", "city": "南巨摩郡富士川町", "town": "鰍沢", "full": "山梨県南巨摩郡富士川町鰍沢"}, {"postal_code": "4000603", "postal_hyphen": "400-0603", "pref": "山梨県", "city": "南巨摩郡富士川町", "town": "鹿島", "full": "山梨県南巨摩郡富士川町鹿島"}, {"postal_code": "4000504", "postal_hyphen": "400-0504", "pref": "山梨県", "city": "南巨摩郡富士川町", "town": "小林", "full": "山梨県南巨摩郡富士川町小林"}, {"postal_code": "4000512", "postal_hyphen": "400-0512", "pref": "山梨県", "city": "南巨摩郡富士川町", "town": "小室", "full": "山梨県南巨摩郡富士川町小室"}, {"postal_code": "4000502", "postal_hyphen": "400-0502", "pref": "山梨県", "city": "南巨摩郡富士川町", "town": "最勝寺", "full": "山梨県南巨摩郡富士川町最勝寺"}, {"postal_code": "4000606", "postal_hyphen": "400-0606", "pref": "山梨県", "city": "南巨摩郡富士川町", "town": "十谷", "full": "山梨県南巨摩郡富士川町十谷"}, {"postal_code": "4000513", "postal_hyphen": "400-0513", "pref": "山梨県", "city": "南巨摩郡富士川町", "town": "高下", "full": "山梨県南巨摩郡富士川町高下"}, {"postal_code": "4000608", "postal_hyphen": "400-0608", "pref": "山梨県", "city": "南巨摩郡富士川町", "town": "長知沢", "full": "山梨県南巨摩郡富士川町長知沢"}, {"postal_code": "4000515", "postal_hyphen": "400-0515", "pref": "山梨県", "city": "南巨摩郡富士川町", "town": "舂米", "full": "山梨県南巨摩郡富士川町舂米"}, {"postal_code": "4000503", "postal_hyphen": "400-0503", "pref": "山梨県", "city": "南巨摩郡富士川町", "town": "天神中條", "full": "山梨県南巨摩郡富士川町天神中條"}, {"postal_code": "4000607", "postal_hyphen": "400-0607", "pref": "山梨県", "city": "南巨摩郡富士川町", "town": "鳥屋", "full": "山梨県南巨摩郡富士川町鳥屋"}, {"postal_code": "4000505", "postal_hyphen": "400-0505", "pref": "山梨県", "city": "南巨摩郡富士川町", "town": "長澤", "full": "山梨県南巨摩郡富士川町長澤"}, {"postal_code": "4000604", "postal_hyphen": "400-0604", "pref": "山梨県", "city": "南巨摩郡富士川町", "town": "箱原", "full": "山梨県南巨摩郡富士川町箱原"}, {"postal_code": "4000514", "postal_hyphen": "400-0514", "pref": "山梨県", "city": "南巨摩郡富士川町", "town": "平林", "full": "山梨県南巨摩郡富士川町平林"}, {"postal_code": "4000605", "postal_hyphen": "400-0605", "pref": "山梨県", "city": "南巨摩郡富士川町", "town": "柳川", "full": "山梨県南巨摩郡富士川町柳川"}, {"postal_code": "4093800", "postal_hyphen": "409-3800", "pref": "山梨県", "city": "中巨摩郡昭和町", "town": "", "full": "山梨県中巨摩郡昭和町"}, {"postal_code": "4093852", "postal_hyphen": "409-3852", "pref": "山梨県", "city": "中巨摩郡昭和町", "town": "飯喰", "full": "山梨県中巨摩郡昭和町飯喰"}, {"postal_code": "4093864", "postal_hyphen": "409-3864", "pref": "山梨県", "city": "中巨摩郡昭和町", "town": "押越", "full": "山梨県中巨摩郡昭和町押越"}, {"postal_code": "4093851", "postal_hyphen": "409-3851", "pref": "山梨県", "city": "中巨摩郡昭和町", "town": "河西", "full": "山梨県中巨摩郡昭和町河西"}, {"postal_code": "4093863", "postal_hyphen": "409-3863", "pref": "山梨県", "city": "中巨摩郡昭和町", "town": "河東中島", "full": "山梨県中巨摩郡昭和町河東中島"}, {"postal_code": "4093862", "postal_hyphen": "409-3862", "pref": "山梨県", "city": "中巨摩郡昭和町", "town": "上河東", "full": "山梨県中巨摩郡昭和町上河東"}, {"postal_code": "4093861", "postal_hyphen": "409-3861", "pref": "山梨県", "city": "中巨摩郡昭和町", "town": "紙漉阿原", "full": "山梨県中巨摩郡昭和町紙漉阿原"}, {"postal_code": "4093866", "postal_hyphen": "409-3866", "pref": "山梨県", "city": "中巨摩郡昭和町", "town": "西条", "full": "山梨県中巨摩郡昭和町西条"}, {"postal_code": "4093865", "postal_hyphen": "409-3865", "pref": "山梨県", "city": "中巨摩郡昭和町", "town": "西条新田", "full": "山梨県中巨摩郡昭和町西条新田"}, {"postal_code": "4093867", "postal_hyphen": "409-3867", "pref": "山梨県", "city": "中巨摩郡昭和町", "town": "清水新居", "full": "山梨県中巨摩郡昭和町清水新居"}, {"postal_code": "4093853", "postal_hyphen": "409-3853", "pref": "山梨県", "city": "中巨摩郡昭和町", "town": "築地新居", "full": "山梨県中巨摩郡昭和町築地新居"}, {"postal_code": "4093854", "postal_hyphen": "409-3854", "pref": "山梨県", "city": "中巨摩郡昭和町", "town": "築地新田", "full": "山梨県中巨摩郡昭和町築地新田"}, {"postal_code": "4020200", "postal_hyphen": "402-0200", "pref": "山梨県", "city": "南都留郡道志村", "town": "", "full": "山梨県南都留郡道志村"}, {"postal_code": "4020225", "postal_hyphen": "402-0225", "pref": "山梨県", "city": "南都留郡道志村", "town": "板橋", "full": "山梨県南都留郡道志村板橋"}, {"postal_code": "4020207", "postal_hyphen": "402-0207", "pref": "山梨県", "city": "南都留郡道志村", "town": "大栗", "full": "山梨県南都留郡道志村大栗"}, {"postal_code": "4020215", "postal_hyphen": "402-0215", "pref": "山梨県", "city": "南都留郡道志村", "town": "大指", "full": "山梨県南都留郡道志村大指"}, {"postal_code": "4020202", "postal_hyphen": "402-0202", "pref": "山梨県", "city": "南都留郡道志村", "town": "大野", "full": "山梨県南都留郡道志村大野"}, {"postal_code": "4020204", "postal_hyphen": "402-0204", "pref": "山梨県", "city": "南都留郡道志村", "town": "大室指", "full": "山梨県南都留郡道志村大室指"}, {"postal_code": "4020214", "postal_hyphen": "402-0214", "pref": "山梨県", "city": "南都留郡道志村", "town": "川原畑", "full": "山梨県南都留郡道志村川原畑"}, {"postal_code": "4020216", "postal_hyphen": "402-0216", "pref": "山梨県", "city": "南都留郡道志村", "town": "釜之前", "full": "山梨県南都留郡道志村釜之前"}, {"postal_code": "4020227", "postal_hyphen": "402-0227", "pref": "山梨県", "city": "南都留郡道志村", "town": "上白井平", "full": "山梨県南都留郡道志村上白井平"}, {"postal_code": "4020223", "postal_hyphen": "402-0223", "pref": "山梨県", "city": "南都留郡道志村", "town": "上善之木", "full": "山梨県南都留郡道志村上善之木"}, {"postal_code": "4020221", "postal_hyphen": "402-0221", "pref": "山梨県", "city": "南都留郡道志村", "town": "上中山", "full": "山梨県南都留郡道志村上中山"}, {"postal_code": "4020224", "postal_hyphen": "402-0224", "pref": "山梨県", "city": "南都留郡道志村", "town": "川村", "full": "山梨県南都留郡道志村川村"}, {"postal_code": "4020203", "postal_hyphen": "402-0203", "pref": "山梨県", "city": "南都留郡道志村", "town": "久保", "full": "山梨県南都留郡道志村久保"}, {"postal_code": "4020206", "postal_hyphen": "402-0206", "pref": "山梨県", "city": "南都留郡道志村", "town": "小善地", "full": "山梨県南都留郡道志村小善地"}, {"postal_code": "4020226", "postal_hyphen": "402-0226", "pref": "山梨県", "city": "南都留郡道志村", "town": "下白井平", "full": "山梨県南都留郡道志村下白井平"}, {"postal_code": "4020222", "postal_hyphen": "402-0222", "pref": "山梨県", "city": "南都留郡道志村", "town": "下善之木", "full": "山梨県南都留郡道志村下善之木"}, {"postal_code": "4020219", "postal_hyphen": "402-0219", "pref": "山梨県", "city": "南都留郡道志村", "town": "下中山", "full": "山梨県南都留郡道志村下中山"}, {"postal_code": "4020209", "postal_hyphen": "402-0209", "pref": "山梨県", "city": "南都留郡道志村", "town": "竹之本", "full": "山梨県南都留郡道志村竹之本"}, {"postal_code": "4020201", "postal_hyphen": "402-0201", "pref": "山梨県", "city": "南都留郡道志村", "town": "月夜野", "full": "山梨県南都留郡道志村月夜野"}, {"postal_code": "4020205", "postal_hyphen": "402-0205", "pref": "山梨県", "city": "南都留郡道志村", "town": "椿", "full": "山梨県南都留郡道志村椿"}, {"postal_code": "4020218", "postal_hyphen": "402-0218", "pref": "山梨県", "city": "南都留郡道志村", "town": "中神地", "full": "山梨県南都留郡道志村中神地"}, {"postal_code": "4020228", "postal_hyphen": "402-0228", "pref": "山梨県", "city": "南都留郡道志村", "town": "長又", "full": "山梨県南都留郡道志村長又"}, {"postal_code": "4020212", "postal_hyphen": "402-0212", "pref": "山梨県", "city": "南都留郡道志村", "town": "西和出村", "full": "山梨県南都留郡道志村西和出村"}, {"postal_code": "4020208", "postal_hyphen": "402-0208", "pref": "山梨県", "city": "南都留郡道志村", "town": "馬場", "full": "山梨県南都留郡道志村馬場"}, {"postal_code": "4020217", "postal_hyphen": "402-0217", "pref": "山梨県", "city": "南都留郡道志村", "town": "東神地", "full": "山梨県南都留郡道志村東神地"}, {"postal_code": "4020211", "postal_hyphen": "402-0211", "pref": "山梨県", "city": "南都留郡道志村", "town": "東和出村", "full": "山梨県南都留郡道志村東和出村"}, {"postal_code": "4020213", "postal_hyphen": "402-0213", "pref": "山梨県", "city": "南都留郡道志村", "town": "谷相", "full": "山梨県南都留郡道志村谷相"}, {"postal_code": "4030000", "postal_hyphen": "403-0000", "pref": "山梨県", "city": "南都留郡西桂町", "town": "", "full": "山梨県南都留郡西桂町"}, {"postal_code": "4030022", "postal_hyphen": "403-0022", "pref": "山梨県", "city": "南都留郡西桂町", "town": "小沼", "full": "山梨県南都留郡西桂町小沼"}, {"postal_code": "4030023", "postal_hyphen": "403-0023", "pref": "山梨県", "city": "南都留郡西桂町", "town": "倉見", "full": "山梨県南都留郡西桂町倉見"}, {"postal_code": "4030021", "postal_hyphen": "403-0021", "pref": "山梨県", "city": "南都留郡西桂町", "town": "下暮地", "full": "山梨県南都留郡西桂町下暮地"}, {"postal_code": "4010500", "postal_hyphen": "401-0500", "pref": "山梨県", "city": "南都留郡忍野村", "town": "", "full": "山梨県南都留郡忍野村"}, {"postal_code": "4010512", "postal_hyphen": "401-0512", "pref": "山梨県", "city": "南都留郡忍野村", "town": "内野", "full": "山梨県南都留郡忍野村内野"}, {"postal_code": "4010511", "postal_hyphen": "401-0511", "pref": "山梨県", "city": "南都留郡忍野村", "town": "忍草", "full": "山梨県南都留郡忍野村忍草"}, {"postal_code": "4010500", "postal_hyphen": "401-0500", "pref": "山梨県", "city": "南都留郡山中湖村", "town": "", "full": "山梨県南都留郡山中湖村"}, {"postal_code": "4010502", "postal_hyphen": "401-0502", "pref": "山梨県", "city": "南都留郡山中湖村", "town": "平野", "full": "山梨県南都留郡山中湖村平野"}, {"postal_code": "4010501", "postal_hyphen": "401-0501", "pref": "山梨県", "city": "南都留郡山中湖村", "town": "山中", "full": "山梨県南都留郡山中湖村山中"}, {"postal_code": "4010320", "postal_hyphen": "401-0320", "pref": "山梨県", "city": "南都留郡鳴沢村", "town": "鳴沢村一円", "full": "山梨県南都留郡鳴沢村鳴沢村一円"}, {"postal_code": "4010300", "postal_hyphen": "401-0300", "pref": "山梨県", "city": "南都留郡富士河口湖町", "town": "", "full": "山梨県南都留郡富士河口湖町"}, {"postal_code": "4010303", "postal_hyphen": "401-0303", "pref": "山梨県", "city": "南都留郡富士河口湖町", "town": "浅川", "full": "山梨県南都留郡富士河口湖町浅川"}, {"postal_code": "4010335", "postal_hyphen": "401-0335", "pref": "山梨県", "city": "南都留郡富士河口湖町", "town": "大嵐", "full": "山梨県南都留郡富士河口湖町大嵐"}, {"postal_code": "4010305", "postal_hyphen": "401-0305", "pref": "山梨県", "city": "南都留郡富士河口湖町", "town": "大石", "full": "山梨県南都留郡富士河口湖町大石"}, {"postal_code": "4010310", "postal_hyphen": "401-0310", "pref": "山梨県", "city": "南都留郡富士河口湖町", "town": "勝山", "full": "山梨県南都留郡富士河口湖町勝山"}, {"postal_code": "4010304", "postal_hyphen": "401-0304", "pref": "山梨県", "city": "南都留郡富士河口湖町", "town": "河口", "full": "山梨県南都留郡富士河口湖町河口"}, {"postal_code": "4010302", "postal_hyphen": "401-0302", "pref": "山梨県", "city": "南都留郡富士河口湖町", "town": "小立", "full": "山梨県南都留郡富士河口湖町小立"}, {"postal_code": "4010332", "postal_hyphen": "401-0332", "pref": "山梨県", "city": "南都留郡富士河口湖町", "town": "西湖", "full": "山梨県南都留郡富士河口湖町西湖"}, {"postal_code": "4010333", "postal_hyphen": "401-0333", "pref": "山梨県", "city": "南都留郡富士河口湖町", "town": "西湖西", "full": "山梨県南都留郡富士河口湖町西湖西"}, {"postal_code": "4010334", "postal_hyphen": "401-0334", "pref": "山梨県", "city": "南都留郡富士河口湖町", "town": "西湖南", "full": "山梨県南都留郡富士河口湖町西湖南"}, {"postal_code": "4010336", "postal_hyphen": "401-0336", "pref": "山梨県", "city": "南都留郡富士河口湖町", "town": "精進", "full": "山梨県南都留郡富士河口湖町精進"}, {"postal_code": "4010331", "postal_hyphen": "401-0331", "pref": "山梨県", "city": "南都留郡富士河口湖町", "town": "長浜", "full": "山梨県南都留郡富士河口湖町長浜"}, {"postal_code": "4010338", "postal_hyphen": "401-0338", "pref": "山梨県", "city": "南都留郡富士河口湖町", "town": "富士ケ嶺", "full": "山梨県南都留郡富士河口湖町富士ケ嶺"}, {"postal_code": "4010301", "postal_hyphen": "401-0301", "pref": "山梨県", "city": "南都留郡富士河口湖町", "town": "船津", "full": "山梨県南都留郡富士河口湖町船津"}, {"postal_code": "4010337", "postal_hyphen": "401-0337", "pref": "山梨県", "city": "南都留郡富士河口湖町", "town": "本栖", "full": "山梨県南都留郡富士河口湖町本栖"}, {"postal_code": "4090200", "postal_hyphen": "409-0200", "pref": "山梨県", "city": "北都留郡小菅村", "town": "", "full": "山梨県北都留郡小菅村"}, {"postal_code": "4090142", "postal_hyphen": "409-0142", "pref": "山梨県", "city": "北都留郡小菅村", "town": "小菅村の次に１〜６６３番地がくる場合", "full": "山梨県北都留郡小菅村小菅村の次に１〜６６３番地がくる場合"}, {"postal_code": "4090211", "postal_hyphen": "409-0211", "pref": "山梨県", "city": "北都留郡小菅村", "town": "小菅村の次に６６４番地以降がくる場合", "full": "山梨県北都留郡小菅村小菅村の次に６６４番地以降がくる場合"}, {"postal_code": "4090300", "postal_hyphen": "409-0300", "pref": "山梨県", "city": "北都留郡丹波山村", "town": "", "full": "山梨県北都留郡丹波山村"}, {"postal_code": "4090301", "postal_hyphen": "409-0301", "pref": "山梨県", "city": "北都留郡丹波山村", "town": "奥秋", "full": "山梨県北都留郡丹波山村奥秋"}, {"postal_code": "4090306", "postal_hyphen": "409-0306", "pref": "山梨県", "city": "北都留郡丹波山村", "town": "押垣外", "full": "山梨県北都留郡丹波山村押垣外"}, {"postal_code": "4090314", "postal_hyphen": "409-0314", "pref": "山梨県", "city": "北都留郡丹波山村", "town": "御祭", "full": "山梨県北都留郡丹波山村御祭"}, {"postal_code": "4090313", "postal_hyphen": "409-0313", "pref": "山梨県", "city": "北都留郡丹波山村", "town": "親川", "full": "山梨県北都留郡丹波山村親川"}, {"postal_code": "4090302", "postal_hyphen": "409-0302", "pref": "山梨県", "city": "北都留郡丹波山村", "town": "上組", "full": "山梨県北都留郡丹波山村上組"}, {"postal_code": "4090318", "postal_hyphen": "409-0318", "pref": "山梨県", "city": "北都留郡丹波山村", "town": "鴨沢", "full": "山梨県北都留郡丹波山村鴨沢"}, {"postal_code": "4090317", "postal_hyphen": "409-0317", "pref": "山梨県", "city": "北都留郡丹波山村", "town": "小袖", "full": "山梨県北都留郡丹波山村小袖"}, {"postal_code": "4090304", "postal_hyphen": "409-0304", "pref": "山梨県", "city": "北都留郡丹波山村", "town": "下組", "full": "山梨県北都留郡丹波山村下組"}, {"postal_code": "4090315", "postal_hyphen": "409-0315", "pref": "山梨県", "city": "北都留郡丹波山村", "town": "杉奈久保", "full": "山梨県北都留郡丹波山村杉奈久保"}, {"postal_code": "4090305", "postal_hyphen": "409-0305", "pref": "山梨県", "city": "北都留郡丹波山村", "town": "高尾", "full": "山梨県北都留郡丹波山村高尾"}, {"postal_code": "4090312", "postal_hyphen": "409-0312", "pref": "山梨県", "city": "北都留郡丹波山村", "town": "高畑", "full": "山梨県北都留郡丹波山村高畑"}, {"postal_code": "4090316", "postal_hyphen": "409-0316", "pref": "山梨県", "city": "北都留郡丹波山村", "town": "所畑", "full": "山梨県北都留郡丹波山村所畑"}, {"postal_code": "4090303", "postal_hyphen": "409-0303", "pref": "山梨県", "city": "北都留郡丹波山村", "town": "中組", "full": "山梨県北都留郡丹波山村中組"}, {"postal_code": "4090311", "postal_hyphen": "409-0311", "pref": "山梨県", "city": "北都留郡丹波山村", "town": "保之瀬", "full": "山梨県北都留郡丹波山村保之瀬"}]