[{"postal_code": "6900000", "postal_hyphen": "690-0000", "pref": "島根県", "city": "松江市", "town": "", "full": "島根県松江市"}, {"postal_code": "6900261", "postal_hyphen": "690-0261", "pref": "島根県", "city": "松江市", "town": "秋鹿町", "full": "島根県松江市秋鹿町"}, {"postal_code": "6900022", "postal_hyphen": "690-0022", "pref": "島根県", "city": "松江市", "town": "青葉台", "full": "島根県松江市青葉台"}, {"postal_code": "6900015", "postal_hyphen": "690-0015", "pref": "島根県", "city": "松江市", "town": "上乃木", "full": "島根県松江市上乃木"}, {"postal_code": "6900834", "postal_hyphen": "690-0834", "pref": "島根県", "city": "松江市", "town": "朝酌町", "full": "島根県松江市朝酌町"}, {"postal_code": "6900003", "postal_hyphen": "690-0003", "pref": "島根県", "city": "松江市", "town": "朝日町", "full": "島根県松江市朝日町"}, {"postal_code": "6900027", "postal_hyphen": "690-0027", "pref": "島根県", "city": "松江市", "town": "意宇町", "full": "島根県松江市意宇町"}, {"postal_code": "6900881", "postal_hyphen": "690-0881", "pref": "島根県", "city": "松江市", "town": "石橋町", "full": "島根県松江市石橋町"}, {"postal_code": "6900006", "postal_hyphen": "690-0006", "pref": "島根県", "city": "松江市", "town": "伊勢宮町", "full": "島根県松江市伊勢宮町"}, {"postal_code": "6900034", "postal_hyphen": "690-0034", "pref": "島根県", "city": "松江市", "town": "一の谷町", "full": "島根県松江市一の谷町"}, {"postal_code": "6900062", "postal_hyphen": "690-0062", "pref": "島根県", "city": "松江市", "town": "魚町", "full": "島根県松江市魚町"}, {"postal_code": "6900869", "postal_hyphen": "690-0869", "pref": "島根県", "city": "松江市", "town": "うぐいす台", "full": "島根県松江市うぐいす台"}, {"postal_code": "6900131", "postal_hyphen": "690-0131", "pref": "島根県", "city": "松江市", "town": "打出町", "full": "島根県松江市打出町"}, {"postal_code": "6900873", "postal_hyphen": "690-0873", "pref": "島根県", "city": "松江市", "town": "内中原町", "full": "島根県松江市内中原町"}, {"postal_code": "6901115", "postal_hyphen": "690-1115", "pref": "島根県", "city": "松江市", "town": "邑生町", "full": "島根県松江市邑生町"}, {"postal_code": "6900832", "postal_hyphen": "690-0832", "pref": "島根県", "city": "松江市", "town": "大井町", "full": "島根県松江市大井町"}, {"postal_code": "6900263", "postal_hyphen": "690-0263", "pref": "島根県", "city": "松江市", "town": "大垣町", "full": "島根県松江市大垣町"}, {"postal_code": "6900032", "postal_hyphen": "690-0032", "pref": "島根県", "city": "松江市", "town": "大草町", "full": "島根県松江市大草町"}, {"postal_code": "6900264", "postal_hyphen": "690-0264", "pref": "島根県", "city": "松江市", "town": "大野町", "full": "島根県松江市大野町"}, {"postal_code": "6900033", "postal_hyphen": "690-0033", "pref": "島根県", "city": "松江市", "town": "大庭町", "full": "島根県松江市大庭町"}, {"postal_code": "6900831", "postal_hyphen": "690-0831", "pref": "島根県", "city": "松江市", "town": "大海崎町", "full": "島根県松江市大海崎町"}, {"postal_code": "6900262", "postal_hyphen": "690-0262", "pref": "島根県", "city": "松江市", "town": "岡本町", "full": "島根県松江市岡本町"}, {"postal_code": "6900872", "postal_hyphen": "690-0872", "pref": "島根県", "city": "松江市", "town": "奥谷町", "full": "島根県松江市奥谷町"}, {"postal_code": "6900007", "postal_hyphen": "690-0007", "pref": "島根県", "city": "松江市", "town": "御手船場町", "full": "島根県松江市御手船場町"}, {"postal_code": "6900266", "postal_hyphen": "690-0266", "pref": "島根県", "city": "松江市", "town": "魚瀬町", "full": "島根県松江市魚瀬町"}, {"postal_code": "6900848", "postal_hyphen": "690-0848", "pref": "島根県", "city": "松江市", "town": "苧町", "full": "島根県松江市苧町"}, {"postal_code": "6900825", "postal_hyphen": "690-0825", "pref": "島根県", "city": "松江市", "town": "学園", "full": "島根県松江市学園"}, {"postal_code": "6900826", "postal_hyphen": "690-0826", "pref": "島根県", "city": "松江市", "town": "学園南", "full": "島根県松江市学園南"}, {"postal_code": "6900322", "postal_hyphen": "690-0322", "pref": "島根県", "city": "松江市", "town": "鹿島町恵曇", "full": "島根県松江市鹿島町恵曇"}, {"postal_code": "6900324", "postal_hyphen": "690-0324", "pref": "島根県", "city": "松江市", "town": "鹿島町片句", "full": "島根県松江市鹿島町片句"}, {"postal_code": "6900801", "postal_hyphen": "690-0801", "pref": "島根県", "city": "松江市", "town": "鹿島町上講武", "full": "島根県松江市鹿島町上講武"}, {"postal_code": "6900804", "postal_hyphen": "690-0804", "pref": "島根県", "city": "松江市", "town": "鹿島町北講武", "full": "島根県松江市鹿島町北講武"}, {"postal_code": "6900333", "postal_hyphen": "690-0333", "pref": "島根県", "city": "松江市", "town": "鹿島町古浦", "full": "島根県松江市鹿島町古浦"}, {"postal_code": "6900332", "postal_hyphen": "690-0332", "pref": "島根県", "city": "松江市", "town": "鹿島町佐陀本郷", "full": "島根県松江市鹿島町佐陀本郷"}, {"postal_code": "6900331", "postal_hyphen": "690-0331", "pref": "島根県", "city": "松江市", "town": "鹿島町佐陀宮内", "full": "島根県松江市鹿島町佐陀宮内"}, {"postal_code": "6900321", "postal_hyphen": "690-0321", "pref": "島根県", "city": "松江市", "town": "鹿島町武代", "full": "島根県松江市鹿島町武代"}, {"postal_code": "6900323", "postal_hyphen": "690-0323", "pref": "島根県", "city": "松江市", "town": "鹿島町手結", "full": "島根県松江市鹿島町手結"}, {"postal_code": "6900411", "postal_hyphen": "690-0411", "pref": "島根県", "city": "松江市", "town": "鹿島町御津", "full": "島根県松江市鹿島町御津"}, {"postal_code": "6900802", "postal_hyphen": "690-0802", "pref": "島根県", "city": "松江市", "town": "鹿島町南講武", "full": "島根県松江市鹿島町南講武"}, {"postal_code": "6900803", "postal_hyphen": "690-0803", "pref": "島根県", "city": "松江市", "town": "鹿島町名分", "full": "島根県松江市鹿島町名分"}, {"postal_code": "6900877", "postal_hyphen": "690-0877", "pref": "島根県", "city": "松江市", "town": "春日町", "full": "島根県松江市春日町"}, {"postal_code": "6900847", "postal_hyphen": "690-0847", "pref": "島根県", "city": "松江市", "town": "片原町", "full": "島根県松江市片原町"}, {"postal_code": "6901104", "postal_hyphen": "690-1104", "pref": "島根県", "city": "松江市", "town": "上宇部尾町", "full": "島根県松江市上宇部尾町"}, {"postal_code": "6900265", "postal_hyphen": "690-0265", "pref": "島根県", "city": "松江市", "town": "上大野町", "full": "島根県松江市上大野町"}, {"postal_code": "6900867", "postal_hyphen": "690-0867", "pref": "島根県", "city": "松江市", "town": "上佐陀町", "full": "島根県松江市上佐陀町"}, {"postal_code": "6900821", "postal_hyphen": "690-0821", "pref": "島根県", "city": "松江市", "town": "上東川津町", "full": "島根県松江市上東川津町"}, {"postal_code": "6901102", "postal_hyphen": "690-1102", "pref": "島根県", "city": "松江市", "town": "上本庄町", "full": "島根県松江市上本庄町"}, {"postal_code": "6900812", "postal_hyphen": "690-0812", "pref": "島根県", "city": "松江市", "town": "川原町", "full": "島根県松江市川原町"}, {"postal_code": "6900883", "postal_hyphen": "690-0883", "pref": "島根県", "city": "松江市", "town": "北田町", "full": "島根県松江市北田町"}, {"postal_code": "6900888", "postal_hyphen": "690-0888", "pref": "島根県", "city": "松江市", "town": "北堀町", "full": "島根県松江市北堀町"}, {"postal_code": "6900859", "postal_hyphen": "690-0859", "pref": "島根県", "city": "松江市", "town": "国屋町", "full": "島根県松江市国屋町"}, {"postal_code": "6900876", "postal_hyphen": "690-0876", "pref": "島根県", "city": "松江市", "town": "黒田町", "full": "島根県松江市黒田町"}, {"postal_code": "6900121", "postal_hyphen": "690-0121", "pref": "島根県", "city": "松江市", "town": "古志町", "full": "島根県松江市古志町"}, {"postal_code": "6900012", "postal_hyphen": "690-0012", "pref": "島根県", "city": "松江市", "town": "古志原", "full": "島根県松江市古志原"}, {"postal_code": "6900013", "postal_hyphen": "690-0013", "pref": "島根県", "city": "松江市", "town": "古志原町", "full": "島根県松江市古志原町"}, {"postal_code": "6900151", "postal_hyphen": "690-0151", "pref": "島根県", "city": "松江市", "town": "古曽志町", "full": "島根県松江市古曽志町"}, {"postal_code": "6900856", "postal_hyphen": "690-0856", "pref": "島根県", "city": "松江市", "town": "薦津町", "full": "島根県松江市薦津町"}, {"postal_code": "6900056", "postal_hyphen": "690-0056", "pref": "島根県", "city": "松江市", "town": "雑賀町", "full": "島根県松江市雑賀町"}, {"postal_code": "6900041", "postal_hyphen": "690-0041", "pref": "島根県", "city": "松江市", "town": "幸町", "full": "島根県松江市幸町"}, {"postal_code": "6900042", "postal_hyphen": "690-0042", "pref": "島根県", "city": "松江市", "town": "栄町", "full": "島根県松江市栄町"}, {"postal_code": "6900813", "postal_hyphen": "690-0813", "pref": "島根県", "city": "松江市", "town": "坂本町", "full": "島根県松江市坂本町"}, {"postal_code": "6900035", "postal_hyphen": "690-0035", "pref": "島根県", "city": "松江市", "town": "佐草町", "full": "島根県松江市佐草町"}, {"postal_code": "6900402", "postal_hyphen": "690-0402", "pref": "島根県", "city": "松江市", "town": "島根町大芦", "full": "島根県松江市島根町大芦"}, {"postal_code": "6900401", "postal_hyphen": "690-0401", "pref": "島根県", "city": "松江市", "town": "島根町加賀", "full": "島根県松江市島根町加賀"}, {"postal_code": "6901213", "postal_hyphen": "690-1213", "pref": "島根県", "city": "松江市", "town": "島根町多古", "full": "島根県松江市島根町多古"}, {"postal_code": "6901211", "postal_hyphen": "690-1211", "pref": "島根県", "city": "松江市", "town": "島根町野井", "full": "島根県松江市島根町野井"}, {"postal_code": "6901212", "postal_hyphen": "690-1212", "pref": "島根県", "city": "松江市", "town": "島根町野波", "full": "島根県松江市島根町野波"}, {"postal_code": "6900866", "postal_hyphen": "690-0866", "pref": "島根県", "city": "松江市", "town": "下佐陀町", "full": "島根県松江市下佐陀町"}, {"postal_code": "6900822", "postal_hyphen": "690-0822", "pref": "島根県", "city": "松江市", "town": "下東川津町", "full": "島根県松江市下東川津町"}, {"postal_code": "6900141", "postal_hyphen": "690-0141", "pref": "島根県", "city": "松江市", "town": "荘成町", "full": "島根県松江市荘成町"}, {"postal_code": "6900868", "postal_hyphen": "690-0868", "pref": "島根県", "city": "松江市", "town": "淞北台", "full": "島根県松江市淞北台"}, {"postal_code": "6900061", "postal_hyphen": "690-0061", "pref": "島根県", "city": "松江市", "town": "白瀉本町", "full": "島根県松江市白瀉本町"}, {"postal_code": "6900054", "postal_hyphen": "690-0054", "pref": "島根県", "city": "松江市", "town": "新雑賀町", "full": "島根県松江市新雑賀町"}, {"postal_code": "6990407", "postal_hyphen": "699-0407", "pref": "島根県", "city": "松江市", "town": "宍道町伊志見", "full": "島根県松江市宍道町伊志見"}, {"postal_code": "6990405", "postal_hyphen": "699-0405", "pref": "島根県", "city": "松江市", "town": "宍道町上来待", "full": "島根県松江市宍道町上来待"}, {"postal_code": "6990406", "postal_hyphen": "699-0406", "pref": "島根県", "city": "松江市", "town": "宍道町佐々布", "full": "島根県松江市宍道町佐々布"}, {"postal_code": "6990408", "postal_hyphen": "699-0408", "pref": "島根県", "city": "松江市", "town": "宍道町昭和", "full": "島根県松江市宍道町昭和"}, {"postal_code": "6990401", "postal_hyphen": "699-0401", "pref": "島根県", "city": "松江市", "town": "宍道町宍道", "full": "島根県松江市宍道町宍道"}, {"postal_code": "6990403", "postal_hyphen": "699-0403", "pref": "島根県", "city": "松江市", "town": "宍道町西来待", "full": "島根県松江市宍道町西来待"}, {"postal_code": "6990402", "postal_hyphen": "699-0402", "pref": "島根県", "city": "松江市", "town": "宍道町白石", "full": "島根県松江市宍道町白石"}, {"postal_code": "6990404", "postal_hyphen": "699-0404", "pref": "島根県", "city": "松江市", "town": "宍道町東来待", "full": "島根県松江市宍道町東来待"}, {"postal_code": "6901103", "postal_hyphen": "690-1103", "pref": "島根県", "city": "松江市", "town": "新庄町", "full": "島根県松江市新庄町"}, {"postal_code": "6900057", "postal_hyphen": "690-0057", "pref": "島根県", "city": "松江市", "town": "新町", "full": "島根県松江市新町"}, {"postal_code": "6900846", "postal_hyphen": "690-0846", "pref": "島根県", "city": "松江市", "town": "末次町", "full": "島根県松江市末次町"}, {"postal_code": "6900843", "postal_hyphen": "690-0843", "pref": "島根県", "city": "松江市", "town": "末次本町", "full": "島根県松江市末次本町"}, {"postal_code": "6900824", "postal_hyphen": "690-0824", "pref": "島根県", "city": "松江市", "town": "菅田町", "full": "島根県松江市菅田町"}, {"postal_code": "6900878", "postal_hyphen": "690-0878", "pref": "島根県", "city": "松江市", "town": "砂子町", "full": "島根県松江市砂子町"}, {"postal_code": "6900049", "postal_hyphen": "690-0049", "pref": "島根県", "city": "松江市", "town": "袖師町", "full": "島根県松江市袖師町"}, {"postal_code": "6900875", "postal_hyphen": "690-0875", "pref": "島根県", "city": "松江市", "town": "外中原町", "full": "島根県松江市外中原町"}, {"postal_code": "6900002", "postal_hyphen": "690-0002", "pref": "島根県", "city": "松江市", "town": "大正町", "full": "島根県松江市大正町"}, {"postal_code": "6900882", "postal_hyphen": "690-0882", "pref": "島根県", "city": "松江市", "town": "大輪町", "full": "島根県松江市大輪町"}, {"postal_code": "6901113", "postal_hyphen": "690-1113", "pref": "島根県", "city": "松江市", "town": "手角町", "full": "島根県松江市手角町"}, {"postal_code": "6900052", "postal_hyphen": "690-0052", "pref": "島根県", "city": "松江市", "town": "竪町", "full": "島根県松江市竪町"}, {"postal_code": "6990205", "postal_hyphen": "699-0205", "pref": "島根県", "city": "松江市", "town": "玉湯町大谷", "full": "島根県松江市玉湯町大谷"}, {"postal_code": "6990201", "postal_hyphen": "699-0201", "pref": "島根県", "city": "松江市", "town": "玉湯町玉造", "full": "島根県松江市玉湯町玉造"}, {"postal_code": "6990204", "postal_hyphen": "699-0204", "pref": "島根県", "city": "松江市", "town": "玉湯町林", "full": "島根県松江市玉湯町林"}, {"postal_code": "6990203", "postal_hyphen": "699-0203", "pref": "島根県", "city": "松江市", "town": "玉湯町布志名", "full": "島根県松江市玉湯町布志名"}, {"postal_code": "6990202", "postal_hyphen": "699-0202", "pref": "島根県", "city": "松江市", "town": "玉湯町湯町", "full": "島根県松江市玉湯町湯町"}, {"postal_code": "6900058", "postal_hyphen": "690-0058", "pref": "島根県", "city": "松江市", "town": "田和山町", "full": "島根県松江市田和山町"}, {"postal_code": "6900023", "postal_hyphen": "690-0023", "pref": "島根県", "city": "松江市", "town": "竹矢町", "full": "島根県松江市竹矢町"}, {"postal_code": "6900852", "postal_hyphen": "690-0852", "pref": "島根県", "city": "松江市", "town": "千鳥町", "full": "島根県松江市千鳥町"}, {"postal_code": "6900055", "postal_hyphen": "690-0055", "pref": "島根県", "city": "松江市", "town": "津田町", "full": "島根県松江市津田町"}, {"postal_code": "6900063", "postal_hyphen": "690-0063", "pref": "島根県", "city": "松江市", "town": "寺町", "full": "島根県松江市寺町"}, {"postal_code": "6900064", "postal_hyphen": "690-0064", "pref": "島根県", "city": "松江市", "town": "天神町", "full": "島根県松江市天神町"}, {"postal_code": "6900851", "postal_hyphen": "690-0851", "pref": "島根県", "city": "松江市", "town": "堂形町", "full": "島根県松江市堂形町"}, {"postal_code": "6900887", "postal_hyphen": "690-0887", "pref": "島根県", "city": "松江市", "town": "殿町", "full": "島根県松江市殿町"}, {"postal_code": "6900874", "postal_hyphen": "690-0874", "pref": "島根県", "city": "松江市", "town": "中原町", "full": "島根県松江市中原町"}, {"postal_code": "6901112", "postal_hyphen": "690-1112", "pref": "島根県", "city": "松江市", "town": "長海町", "full": "島根県松江市長海町"}, {"postal_code": "6900065", "postal_hyphen": "690-0065", "pref": "島根県", "city": "松江市", "town": "灘町", "full": "島根県松江市灘町"}, {"postal_code": "6900854", "postal_hyphen": "690-0854", "pref": "島根県", "city": "松江市", "town": "南平台", "full": "島根県松江市南平台"}, {"postal_code": "6900865", "postal_hyphen": "690-0865", "pref": "島根県", "city": "松江市", "town": "西生馬町", "full": "島根県松江市西生馬町"}, {"postal_code": "6900037", "postal_hyphen": "690-0037", "pref": "島根県", "city": "松江市", "town": "西忌部町", "full": "島根県松江市西忌部町"}, {"postal_code": "6900835", "postal_hyphen": "690-0835", "pref": "島根県", "city": "松江市", "town": "西尾町", "full": "島根県松江市西尾町"}, {"postal_code": "6900823", "postal_hyphen": "690-0823", "pref": "島根県", "city": "松江市", "town": "西川津町", "full": "島根県松江市西川津町"}, {"postal_code": "6900142", "postal_hyphen": "690-0142", "pref": "島根県", "city": "松江市", "town": "西谷町", "full": "島根県松江市西谷町"}, {"postal_code": "6900845", "postal_hyphen": "690-0845", "pref": "島根県", "city": "松江市", "town": "西茶町", "full": "島根県松江市西茶町"}, {"postal_code": "6900017", "postal_hyphen": "690-0017", "pref": "島根県", "city": "松江市", "town": "西津田", "full": "島根県松江市西津田"}, {"postal_code": "6900132", "postal_hyphen": "690-0132", "pref": "島根県", "city": "松江市", "town": "西長江町", "full": "島根県松江市西長江町"}, {"postal_code": "6900122", "postal_hyphen": "690-0122", "pref": "島根県", "city": "松江市", "town": "西浜佐陀町", "full": "島根県松江市西浜佐陀町"}, {"postal_code": "6900860", "postal_hyphen": "690-0860", "pref": "島根県", "city": "松江市", "town": "西法吉町", "full": "島根県松江市西法吉町"}, {"postal_code": "6900815", "postal_hyphen": "690-0815", "pref": "島根県", "city": "松江市", "town": "西持田町", "full": "島根県松江市西持田町"}, {"postal_code": "6900048", "postal_hyphen": "690-0048", "pref": "島根県", "city": "松江市", "town": "西嫁島", "full": "島根県松江市西嫁島"}, {"postal_code": "6900046", "postal_hyphen": "690-0046", "pref": "島根県", "city": "松江市", "town": "乃木福富町", "full": "島根県松江市乃木福富町"}, {"postal_code": "6900045", "postal_hyphen": "690-0045", "pref": "島根県", "city": "松江市", "town": "乃白町", "full": "島根県松江市乃白町"}, {"postal_code": "6901114", "postal_hyphen": "690-1114", "pref": "島根県", "city": "松江市", "town": "野原町", "full": "島根県松江市野原町"}, {"postal_code": "6900004", "postal_hyphen": "690-0004", "pref": "島根県", "city": "松江市", "town": "八軒屋町", "full": "島根県松江市八軒屋町"}, {"postal_code": "6900855", "postal_hyphen": "690-0855", "pref": "島根県", "city": "松江市", "town": "浜佐田町", "full": "島根県松江市浜佐田町"}, {"postal_code": "6900044", "postal_hyphen": "690-0044", "pref": "島根県", "city": "松江市", "town": "浜乃木", "full": "島根県松江市浜乃木"}, {"postal_code": "6900001", "postal_hyphen": "690-0001", "pref": "島根県", "city": "松江市", "town": "東朝日町", "full": "島根県松江市東朝日町"}, {"postal_code": "6900864", "postal_hyphen": "690-0864", "pref": "島根県", "city": "松江市", "town": "東生馬町", "full": "島根県松江市東生馬町"}, {"postal_code": "6990108", "postal_hyphen": "699-0108", "pref": "島根県", "city": "松江市", "town": "東出雲町出雲郷", "full": "島根県松江市東出雲町出雲郷"}, {"postal_code": "6990111", "postal_hyphen": "699-0111", "pref": "島根県", "city": "松江市", "town": "東出雲町意宇南", "full": "島根県松江市東出雲町意宇南"}, {"postal_code": "6990112", "postal_hyphen": "699-0112", "pref": "島根県", "city": "松江市", "town": "東出雲町意宇東", "full": "島根県松江市東出雲町意宇東"}, {"postal_code": "6990107", "postal_hyphen": "699-0107", "pref": "島根県", "city": "松江市", "town": "東出雲町今宮", "full": "島根県松江市東出雲町今宮"}, {"postal_code": "6990101", "postal_hyphen": "699-0101", "pref": "島根県", "city": "松江市", "town": "東出雲町揖屋", "full": "島根県松江市東出雲町揖屋"}, {"postal_code": "6990105", "postal_hyphen": "699-0105", "pref": "島根県", "city": "松江市", "town": "東出雲町内馬", "full": "島根県松江市東出雲町内馬"}, {"postal_code": "6990106", "postal_hyphen": "699-0106", "pref": "島根県", "city": "松江市", "town": "東出雲町春日", "full": "島根県松江市東出雲町春日"}, {"postal_code": "6990103", "postal_hyphen": "699-0103", "pref": "島根県", "city": "松江市", "town": "東出雲町上意東", "full": "島根県松江市東出雲町上意東"}, {"postal_code": "6990102", "postal_hyphen": "699-0102", "pref": "島根県", "city": "松江市", "town": "東出雲町下意東", "full": "島根県松江市東出雲町下意東"}, {"postal_code": "6990104", "postal_hyphen": "699-0104", "pref": "島根県", "city": "松江市", "town": "東出雲町須田", "full": "島根県松江市東出雲町須田"}, {"postal_code": "6990110", "postal_hyphen": "699-0110", "pref": "島根県", "city": "松江市", "town": "東出雲町錦新町", "full": "島根県松江市東出雲町錦新町"}, {"postal_code": "6990109", "postal_hyphen": "699-0109", "pref": "島根県", "city": "松江市", "town": "東出雲町錦浜", "full": "島根県松江市東出雲町錦浜"}, {"postal_code": "6900036", "postal_hyphen": "690-0036", "pref": "島根県", "city": "松江市", "town": "東忌部町", "full": "島根県松江市東忌部町"}, {"postal_code": "6900871", "postal_hyphen": "690-0871", "pref": "島根県", "city": "松江市", "town": "東奥谷町", "full": "島根県松江市東奥谷町"}, {"postal_code": "6900844", "postal_hyphen": "690-0844", "pref": "島根県", "city": "松江市", "town": "東茶町", "full": "島根県松江市東茶町"}, {"postal_code": "6900011", "postal_hyphen": "690-0011", "pref": "島根県", "city": "松江市", "town": "東津田町", "full": "島根県松江市東津田町"}, {"postal_code": "6900133", "postal_hyphen": "690-0133", "pref": "島根県", "city": "松江市", "town": "東長江町", "full": "島根県松江市東長江町"}, {"postal_code": "6900842", "postal_hyphen": "690-0842", "pref": "島根県", "city": "松江市", "town": "東本町", "full": "島根県松江市東本町"}, {"postal_code": "6900814", "postal_hyphen": "690-0814", "pref": "島根県", "city": "松江市", "town": "東持田町", "full": "島根県松江市東持田町"}, {"postal_code": "6900862", "postal_hyphen": "690-0862", "pref": "島根県", "city": "松江市", "town": "比津が丘", "full": "島根県松江市比津が丘"}, {"postal_code": "6900863", "postal_hyphen": "690-0863", "pref": "島根県", "city": "松江市", "town": "比津町", "full": "島根県松江市比津町"}, {"postal_code": "6900833", "postal_hyphen": "690-0833", "pref": "島根県", "city": "松江市", "town": "福富町", "full": "島根県松江市福富町"}, {"postal_code": "6900811", "postal_hyphen": "690-0811", "pref": "島根県", "city": "松江市", "town": "福原町", "full": "島根県松江市福原町"}, {"postal_code": "6900026", "postal_hyphen": "690-0026", "pref": "島根県", "city": "松江市", "town": "富士見町", "full": "島根県松江市富士見町"}, {"postal_code": "6900038", "postal_hyphen": "690-0038", "pref": "島根県", "city": "松江市", "town": "平成町", "full": "島根県松江市平成町"}, {"postal_code": "6900816", "postal_hyphen": "690-0816", "pref": "島根県", "city": "松江市", "town": "北陵町", "full": "島根県松江市北陵町"}, {"postal_code": "6900861", "postal_hyphen": "690-0861", "pref": "島根県", "city": "松江市", "town": "法吉町", "full": "島根県松江市法吉町"}, {"postal_code": "6900886", "postal_hyphen": "690-0886", "pref": "島根県", "city": "松江市", "town": "母衣町", "full": "島根県松江市母衣町"}, {"postal_code": "6900053", "postal_hyphen": "690-0053", "pref": "島根県", "city": "松江市", "town": "本郷町", "full": "島根県松江市本郷町"}, {"postal_code": "6901101", "postal_hyphen": "690-1101", "pref": "島根県", "city": "松江市", "town": "本庄町", "full": "島根県松江市本庄町"}, {"postal_code": "6900024", "postal_hyphen": "690-0024", "pref": "島根県", "city": "松江市", "town": "馬潟町", "full": "島根県松江市馬潟町"}, {"postal_code": "6901111", "postal_hyphen": "690-1111", "pref": "島根県", "city": "松江市", "town": "枕木町", "full": "島根県松江市枕木町"}, {"postal_code": "6900043", "postal_hyphen": "690-0043", "pref": "島根県", "city": "松江市", "town": "松尾町", "full": "島根県松江市松尾町"}, {"postal_code": "6900884", "postal_hyphen": "690-0884", "pref": "島根県", "city": "松江市", "town": "南田町", "full": "島根県松江市南田町"}, {"postal_code": "6901223", "postal_hyphen": "690-1223", "pref": "島根県", "city": "松江市", "town": "美保関町笠浦", "full": "島根県松江市美保関町笠浦"}, {"postal_code": "6901315", "postal_hyphen": "690-1315", "pref": "島根県", "city": "松江市", "town": "美保関町片江", "full": "島根県松江市美保関町片江"}, {"postal_code": "6901221", "postal_hyphen": "690-1221", "pref": "島根県", "city": "松江市", "town": "美保関町北浦", "full": "島根県松江市美保関町北浦"}, {"postal_code": "6901502", "postal_hyphen": "690-1502", "pref": "島根県", "city": "松江市", "town": "美保関町雲津", "full": "島根県松江市美保関町雲津"}, {"postal_code": "6901311", "postal_hyphen": "690-1311", "pref": "島根県", "city": "松江市", "town": "美保関町七類", "full": "島根県松江市美保関町七類"}, {"postal_code": "6901313", "postal_hyphen": "690-1313", "pref": "島根県", "city": "松江市", "town": "美保関町下宇部尾", "full": "島根県松江市美保関町下宇部尾"}, {"postal_code": "6901314", "postal_hyphen": "690-1314", "pref": "島根県", "city": "松江市", "town": "美保関町菅浦", "full": "島根県松江市美保関町菅浦"}, {"postal_code": "6901222", "postal_hyphen": "690-1222", "pref": "島根県", "city": "松江市", "town": "美保関町千酌", "full": "島根県松江市美保関町千酌"}, {"postal_code": "6901504", "postal_hyphen": "690-1504", "pref": "島根県", "city": "松江市", "town": "美保関町福浦", "full": "島根県松江市美保関町福浦"}, {"postal_code": "6901501", "postal_hyphen": "690-1501", "pref": "島根県", "city": "松江市", "town": "美保関町美保関", "full": "島根県松江市美保関町美保関"}, {"postal_code": "6901505", "postal_hyphen": "690-1505", "pref": "島根県", "city": "松江市", "town": "美保関町森山（古金崎）", "full": "島根県松江市美保関町森山（古金崎）"}, {"postal_code": "6901312", "postal_hyphen": "690-1312", "pref": "島根県", "city": "松江市", "town": "美保関町森山（その他）", "full": "島根県松江市美保関町森山（その他）"}, {"postal_code": "6901503", "postal_hyphen": "690-1503", "pref": "島根県", "city": "松江市", "town": "美保関町諸喰", "full": "島根県松江市美保関町諸喰"}, {"postal_code": "6900841", "postal_hyphen": "690-0841", "pref": "島根県", "city": "松江市", "town": "向島町", "full": "島根県松江市向島町"}, {"postal_code": "6900014", "postal_hyphen": "690-0014", "pref": "島根県", "city": "松江市", "town": "八雲台", "full": "島根県松江市八雲台"}, {"postal_code": "6902104", "postal_hyphen": "690-2104", "pref": "島根県", "city": "松江市", "town": "八雲町熊野", "full": "島根県松江市八雲町熊野"}, {"postal_code": "6902103", "postal_hyphen": "690-2103", "pref": "島根県", "city": "松江市", "town": "八雲町西岩坂", "full": "島根県松江市八雲町西岩坂"}, {"postal_code": "6902102", "postal_hyphen": "690-2102", "pref": "島根県", "city": "松江市", "town": "八雲町東岩坂", "full": "島根県松江市八雲町東岩坂"}, {"postal_code": "6902101", "postal_hyphen": "690-2101", "pref": "島根県", "city": "松江市", "town": "八雲町日吉", "full": "島根県松江市八雲町日吉"}, {"postal_code": "6902105", "postal_hyphen": "690-2105", "pref": "島根県", "city": "松江市", "town": "八雲町平原", "full": "島根県松江市八雲町平原"}, {"postal_code": "6900021", "postal_hyphen": "690-0021", "pref": "島根県", "city": "松江市", "town": "矢田町", "full": "島根県松江市矢田町"}, {"postal_code": "6901401", "postal_hyphen": "690-1401", "pref": "島根県", "city": "松江市", "town": "八束町江島", "full": "島根県松江市八束町江島"}, {"postal_code": "6901403", "postal_hyphen": "690-1403", "pref": "島根県", "city": "松江市", "town": "八束町遅江", "full": "島根県松江市八束町遅江"}, {"postal_code": "6901408", "postal_hyphen": "690-1408", "pref": "島根県", "city": "松江市", "town": "八束町亀尻", "full": "島根県松江市八束町亀尻"}, {"postal_code": "6901407", "postal_hyphen": "690-1407", "pref": "島根県", "city": "松江市", "town": "八束町寺津", "full": "島根県松江市八束町寺津"}, {"postal_code": "6901405", "postal_hyphen": "690-1405", "pref": "島根県", "city": "松江市", "town": "八束町入江", "full": "島根県松江市八束町入江"}, {"postal_code": "6901404", "postal_hyphen": "690-1404", "pref": "島根県", "city": "松江市", "town": "八束町波入", "full": "島根県松江市八束町波入"}, {"postal_code": "6901406", "postal_hyphen": "690-1406", "pref": "島根県", "city": "松江市", "town": "八束町二子", "full": "島根県松江市八束町二子"}, {"postal_code": "6901402", "postal_hyphen": "690-1402", "pref": "島根県", "city": "松江市", "town": "八束町馬渡", "full": "島根県松江市八束町馬渡"}, {"postal_code": "6900031", "postal_hyphen": "690-0031", "pref": "島根県", "city": "松江市", "town": "山代町", "full": "島根県松江市山代町"}, {"postal_code": "6900025", "postal_hyphen": "690-0025", "pref": "島根県", "city": "松江市", "town": "八幡町", "full": "島根県松江市八幡町"}, {"postal_code": "6900051", "postal_hyphen": "690-0051", "pref": "島根県", "city": "松江市", "town": "横浜町", "full": "島根県松江市横浜町"}, {"postal_code": "6900885", "postal_hyphen": "690-0885", "pref": "島根県", "city": "松江市", "town": "米子町", "full": "島根県松江市米子町"}, {"postal_code": "6900047", "postal_hyphen": "690-0047", "pref": "島根県", "city": "松江市", "town": "嫁島町", "full": "島根県松江市嫁島町"}, {"postal_code": "6900005", "postal_hyphen": "690-0005", "pref": "島根県", "city": "松江市", "town": "和多見町", "full": "島根県松江市和多見町"}, {"postal_code": "6970000", "postal_hyphen": "697-0000", "pref": "島根県", "city": "浜田市", "town": "", "full": "島根県浜田市"}, {"postal_code": "6970034", "postal_hyphen": "697-0034", "pref": "島根県", "city": "浜田市", "town": "相生町", "full": "島根県浜田市相生町"}, {"postal_code": "6970022", "postal_hyphen": "697-0022", "pref": "島根県", "city": "浜田市", "town": "浅井町", "full": "島根県浜田市浅井町"}, {"postal_code": "6970514", "postal_hyphen": "697-0514", "pref": "島根県", "city": "浜田市", "town": "旭町市木", "full": "島根県浜田市旭町市木"}, {"postal_code": "6970425", "postal_hyphen": "697-0425", "pref": "島根県", "city": "浜田市", "town": "旭町今市", "full": "島根県浜田市旭町今市"}, {"postal_code": "6970427", "postal_hyphen": "697-0427", "pref": "島根県", "city": "浜田市", "town": "旭町木田", "full": "島根県浜田市旭町木田"}, {"postal_code": "6970512", "postal_hyphen": "697-0512", "pref": "島根県", "city": "浜田市", "town": "旭町来尾", "full": "島根県浜田市旭町来尾"}, {"postal_code": "6970513", "postal_hyphen": "697-0513", "pref": "島根県", "city": "浜田市", "town": "旭町坂本（八ツ木）", "full": "島根県浜田市旭町坂本（八ツ木）"}, {"postal_code": "6970431", "postal_hyphen": "697-0431", "pref": "島根県", "city": "浜田市", "town": "旭町坂本（その他）", "full": "島根県浜田市旭町坂本（その他）"}, {"postal_code": "6970423", "postal_hyphen": "697-0423", "pref": "島根県", "city": "浜田市", "town": "旭町重富", "full": "島根県浜田市旭町重富"}, {"postal_code": "6970511", "postal_hyphen": "697-0511", "pref": "島根県", "city": "浜田市", "town": "旭町都川", "full": "島根県浜田市旭町都川"}, {"postal_code": "6970422", "postal_hyphen": "697-0422", "pref": "島根県", "city": "浜田市", "town": "旭町本郷", "full": "島根県浜田市旭町本郷"}, {"postal_code": "6970426", "postal_hyphen": "697-0426", "pref": "島根県", "city": "浜田市", "town": "旭町丸原", "full": "島根県浜田市旭町丸原"}, {"postal_code": "6970421", "postal_hyphen": "697-0421", "pref": "島根県", "city": "浜田市", "town": "旭町山ノ内", "full": "島根県浜田市旭町山ノ内"}, {"postal_code": "6970424", "postal_hyphen": "697-0424", "pref": "島根県", "city": "浜田市", "town": "旭町和田", "full": "島根県浜田市旭町和田"}, {"postal_code": "6970033", "postal_hyphen": "697-0033", "pref": "島根県", "city": "浜田市", "town": "朝日町", "full": "島根県浜田市朝日町"}, {"postal_code": "6970062", "postal_hyphen": "697-0062", "pref": "島根県", "city": "浜田市", "town": "熱田町", "full": "島根県浜田市熱田町"}, {"postal_code": "6971334", "postal_hyphen": "697-1334", "pref": "島根県", "city": "浜田市", "town": "櫟田原町", "full": "島根県浜田市櫟田原町"}, {"postal_code": "6971335", "postal_hyphen": "697-1335", "pref": "島根県", "city": "浜田市", "town": "井野町", "full": "島根県浜田市井野町"}, {"postal_code": "6970032", "postal_hyphen": "697-0032", "pref": "島根県", "city": "浜田市", "town": "牛市町", "full": "島根県浜田市牛市町"}, {"postal_code": "6970011", "postal_hyphen": "697-0011", "pref": "島根県", "city": "浜田市", "town": "後野町", "full": "島根県浜田市後野町"}, {"postal_code": "6970064", "postal_hyphen": "697-0064", "pref": "島根県", "city": "浜田市", "town": "内田町（百万騎）", "full": "島根県浜田市内田町（百万騎）"}, {"postal_code": "6971323", "postal_hyphen": "697-1323", "pref": "島根県", "city": "浜田市", "town": "内田町（その他）", "full": "島根県浜田市内田町（その他）"}, {"postal_code": "6970312", "postal_hyphen": "697-0312", "pref": "島根県", "city": "浜田市", "town": "宇津井町", "full": "島根県浜田市宇津井町"}, {"postal_code": "6950102", "postal_hyphen": "695-0102", "pref": "島根県", "city": "浜田市", "town": "宇野町", "full": "島根県浜田市宇野町"}, {"postal_code": "6970002", "postal_hyphen": "697-0002", "pref": "島根県", "city": "浜田市", "town": "生湯町", "full": "島根県浜田市生湯町"}, {"postal_code": "6970044", "postal_hyphen": "697-0044", "pref": "島根県", "city": "浜田市", "town": "蛭子町", "full": "島根県浜田市蛭子町"}, {"postal_code": "6950103", "postal_hyphen": "695-0103", "pref": "島根県", "city": "浜田市", "town": "大金町", "full": "島根県浜田市大金町"}, {"postal_code": "6970053", "postal_hyphen": "697-0053", "pref": "島根県", "city": "浜田市", "town": "大辻町", "full": "島根県浜田市大辻町"}, {"postal_code": "6971338", "postal_hyphen": "697-1338", "pref": "島根県", "city": "浜田市", "town": "折居町", "full": "島根県浜田市折居町"}, {"postal_code": "6970061", "postal_hyphen": "697-0061", "pref": "島根県", "city": "浜田市", "town": "笠柄町", "full": "島根県浜田市笠柄町"}, {"postal_code": "6970041", "postal_hyphen": "697-0041", "pref": "島根県", "city": "浜田市", "town": "片庭町", "full": "島根県浜田市片庭町"}, {"postal_code": "6970302", "postal_hyphen": "697-0302", "pref": "島根県", "city": "浜田市", "town": "金城町今福", "full": "島根県浜田市金城町今福"}, {"postal_code": "6970305", "postal_hyphen": "697-0305", "pref": "島根県", "city": "浜田市", "town": "金城町入野", "full": "島根県浜田市金城町入野"}, {"postal_code": "6970304", "postal_hyphen": "697-0304", "pref": "島根県", "city": "浜田市", "town": "金城町宇津井", "full": "島根県浜田市金城町宇津井"}, {"postal_code": "6970301", "postal_hyphen": "697-0301", "pref": "島根県", "city": "浜田市", "town": "金城町追原", "full": "島根県浜田市金城町追原"}, {"postal_code": "6970213", "postal_hyphen": "697-0213", "pref": "島根県", "city": "浜田市", "town": "金城町小国", "full": "島根県浜田市金城町小国"}, {"postal_code": "6970122", "postal_hyphen": "697-0122", "pref": "島根県", "city": "浜田市", "town": "金城町上来原", "full": "島根県浜田市金城町上来原"}, {"postal_code": "6970303", "postal_hyphen": "697-0303", "pref": "島根県", "city": "浜田市", "town": "金城町久佐", "full": "島根県浜田市金城町久佐"}, {"postal_code": "6970123", "postal_hyphen": "697-0123", "pref": "島根県", "city": "浜田市", "town": "金城町七条", "full": "島根県浜田市金城町七条"}, {"postal_code": "6970121", "postal_hyphen": "697-0121", "pref": "島根県", "city": "浜田市", "town": "金城町下来原", "full": "島根県浜田市金城町下来原"}, {"postal_code": "6970212", "postal_hyphen": "697-0212", "pref": "島根県", "city": "浜田市", "town": "金城町長田", "full": "島根県浜田市金城町長田"}, {"postal_code": "6970211", "postal_hyphen": "697-0211", "pref": "島根県", "city": "浜田市", "town": "金城町波佐", "full": "島根県浜田市金城町波佐"}, {"postal_code": "6970005", "postal_hyphen": "697-0005", "pref": "島根県", "city": "浜田市", "town": "上府町", "full": "島根県浜田市上府町"}, {"postal_code": "6970045", "postal_hyphen": "697-0045", "pref": "島根県", "city": "浜田市", "town": "京町", "full": "島根県浜田市京町"}, {"postal_code": "6970004", "postal_hyphen": "697-0004", "pref": "島根県", "city": "浜田市", "town": "久代町", "full": "島根県浜田市久代町"}, {"postal_code": "6970024", "postal_hyphen": "697-0024", "pref": "島根県", "city": "浜田市", "town": "黒川町", "full": "島根県浜田市黒川町"}, {"postal_code": "6970007", "postal_hyphen": "697-0007", "pref": "島根県", "city": "浜田市", "town": "高佐町", "full": "島根県浜田市高佐町"}, {"postal_code": "6970012", "postal_hyphen": "697-0012", "pref": "島根県", "city": "浜田市", "town": "河内町", "full": "島根県浜田市河内町"}, {"postal_code": "6970003", "postal_hyphen": "697-0003", "pref": "島根県", "city": "浜田市", "town": "国分町", "full": "島根県浜田市国分町"}, {"postal_code": "6970031", "postal_hyphen": "697-0031", "pref": "島根県", "city": "浜田市", "town": "紺屋町", "full": "島根県浜田市紺屋町"}, {"postal_code": "6970043", "postal_hyphen": "697-0043", "pref": "島根県", "city": "浜田市", "town": "栄町", "full": "島根県浜田市栄町"}, {"postal_code": "6970311", "postal_hyphen": "697-0311", "pref": "島根県", "city": "浜田市", "town": "佐野町", "full": "島根県浜田市佐野町"}, {"postal_code": "6970013", "postal_hyphen": "697-0013", "pref": "島根県", "city": "浜田市", "town": "三階町", "full": "島根県浜田市三階町"}, {"postal_code": "6970047", "postal_hyphen": "697-0047", "pref": "島根県", "city": "浜田市", "town": "清水町", "full": "島根県浜田市清水町"}, {"postal_code": "6950101", "postal_hyphen": "695-0101", "pref": "島根県", "city": "浜田市", "town": "下有福町", "full": "島根県浜田市下有福町"}, {"postal_code": "6970006", "postal_hyphen": "697-0006", "pref": "島根県", "city": "浜田市", "town": "下府町", "full": "島根県浜田市下府町"}, {"postal_code": "6970046", "postal_hyphen": "697-0046", "pref": "島根県", "city": "浜田市", "town": "真光町", "full": "島根県浜田市真光町"}, {"postal_code": "6970037", "postal_hyphen": "697-0037", "pref": "島根県", "city": "浜田市", "town": "新町", "full": "島根県浜田市新町"}, {"postal_code": "6970035", "postal_hyphen": "697-0035", "pref": "島根県", "city": "浜田市", "town": "杉戸町", "full": "島根県浜田市杉戸町"}, {"postal_code": "6971321", "postal_hyphen": "697-1321", "pref": "島根県", "city": "浜田市", "town": "周布町", "full": "島根県浜田市周布町"}, {"postal_code": "6970051", "postal_hyphen": "697-0051", "pref": "島根県", "city": "浜田市", "town": "瀬戸ケ島町", "full": "島根県浜田市瀬戸ケ島町"}, {"postal_code": "6970057", "postal_hyphen": "697-0057", "pref": "島根県", "city": "浜田市", "town": "瀬戸見町", "full": "島根県浜田市瀬戸見町"}, {"postal_code": "6970054", "postal_hyphen": "697-0054", "pref": "島根県", "city": "浜田市", "town": "高田町", "full": "島根県浜田市高田町"}, {"postal_code": "6970015", "postal_hyphen": "697-0015", "pref": "島根県", "city": "浜田市", "town": "竹迫町", "full": "島根県浜田市竹迫町"}, {"postal_code": "6971332", "postal_hyphen": "697-1332", "pref": "島根県", "city": "浜田市", "town": "田橋町", "full": "島根県浜田市田橋町"}, {"postal_code": "6970026", "postal_hyphen": "697-0026", "pref": "島根県", "city": "浜田市", "town": "田町", "full": "島根県浜田市田町"}, {"postal_code": "6971326", "postal_hyphen": "697-1326", "pref": "島根県", "city": "浜田市", "town": "治和町", "full": "島根県浜田市治和町"}, {"postal_code": "6971327", "postal_hyphen": "697-1327", "pref": "島根県", "city": "浜田市", "town": "津摩町", "full": "島根県浜田市津摩町"}, {"postal_code": "6970036", "postal_hyphen": "697-0036", "pref": "島根県", "city": "浜田市", "town": "天満町", "full": "島根県浜田市天満町"}, {"postal_code": "6970001", "postal_hyphen": "697-0001", "pref": "島根県", "city": "浜田市", "town": "外ノ浦町", "full": "島根県浜田市外ノ浦町"}, {"postal_code": "6970027", "postal_hyphen": "697-0027", "pref": "島根県", "city": "浜田市", "town": "殿町", "full": "島根県浜田市殿町"}, {"postal_code": "6970065", "postal_hyphen": "697-0065", "pref": "島根県", "city": "浜田市", "town": "内村町（十文字原）", "full": "島根県浜田市内村町（十文字原）"}, {"postal_code": "6971331", "postal_hyphen": "697-1331", "pref": "島根県", "city": "浜田市", "town": "内村町（その他）", "full": "島根県浜田市内村町（その他）"}, {"postal_code": "6970023", "postal_hyphen": "697-0023", "pref": "島根県", "city": "浜田市", "town": "長沢町", "full": "島根県浜田市長沢町"}, {"postal_code": "6970063", "postal_hyphen": "697-0063", "pref": "島根県", "city": "浜田市", "town": "長浜町", "full": "島根県浜田市長浜町"}, {"postal_code": "6970014", "postal_hyphen": "697-0014", "pref": "島根県", "city": "浜田市", "town": "長見町", "full": "島根県浜田市長見町"}, {"postal_code": "6971333", "postal_hyphen": "697-1333", "pref": "島根県", "city": "浜田市", "town": "鍋石町", "full": "島根県浜田市鍋石町"}, {"postal_code": "6970042", "postal_hyphen": "697-0042", "pref": "島根県", "city": "浜田市", "town": "錦町", "full": "島根県浜田市錦町"}, {"postal_code": "6971337", "postal_hyphen": "697-1337", "pref": "島根県", "city": "浜田市", "town": "西村町", "full": "島根県浜田市西村町"}, {"postal_code": "6970016", "postal_hyphen": "697-0016", "pref": "島根県", "city": "浜田市", "town": "野原町", "full": "島根県浜田市野原町"}, {"postal_code": "6970017", "postal_hyphen": "697-0017", "pref": "島根県", "city": "浜田市", "town": "原井町", "full": "島根県浜田市原井町"}, {"postal_code": "6970056", "postal_hyphen": "697-0056", "pref": "島根県", "city": "浜田市", "town": "原町", "full": "島根県浜田市原町"}, {"postal_code": "6971322", "postal_hyphen": "697-1322", "pref": "島根県", "city": "浜田市", "town": "日脚町", "full": "島根県浜田市日脚町"}, {"postal_code": "6970025", "postal_hyphen": "697-0025", "pref": "島根県", "city": "浜田市", "town": "琵琶町", "full": "島根県浜田市琵琶町"}, {"postal_code": "6971324", "postal_hyphen": "697-1324", "pref": "島根県", "city": "浜田市", "town": "穂出町", "full": "島根県浜田市穂出町"}, {"postal_code": "6970021", "postal_hyphen": "697-0021", "pref": "島根県", "city": "浜田市", "town": "松原町", "full": "島根県浜田市松原町"}, {"postal_code": "6993302", "postal_hyphen": "699-3302", "pref": "島根県", "city": "浜田市", "town": "三隅町芦谷", "full": "島根県浜田市三隅町芦谷"}, {"postal_code": "6993215", "postal_hyphen": "699-3215", "pref": "島根県", "city": "浜田市", "town": "三隅町井川", "full": "島根県浜田市三隅町井川"}, {"postal_code": "6993301", "postal_hyphen": "699-3301", "pref": "島根県", "city": "浜田市", "town": "三隅町井野", "full": "島根県浜田市三隅町井野"}, {"postal_code": "6993226", "postal_hyphen": "699-3226", "pref": "島根県", "city": "浜田市", "town": "三隅町岡見", "full": "島根県浜田市三隅町岡見"}, {"postal_code": "6993222", "postal_hyphen": "699-3222", "pref": "島根県", "city": "浜田市", "town": "三隅町折居", "full": "島根県浜田市三隅町折居"}, {"postal_code": "6993216", "postal_hyphen": "699-3216", "pref": "島根県", "city": "浜田市", "town": "三隅町上古和", "full": "島根県浜田市三隅町上古和"}, {"postal_code": "6993217", "postal_hyphen": "699-3217", "pref": "島根県", "city": "浜田市", "town": "三隅町黒沢", "full": "島根県浜田市三隅町黒沢"}, {"postal_code": "6993213", "postal_hyphen": "699-3213", "pref": "島根県", "city": "浜田市", "town": "三隅町河内", "full": "島根県浜田市三隅町河内"}, {"postal_code": "6993223", "postal_hyphen": "699-3223", "pref": "島根県", "city": "浜田市", "town": "三隅町西河内", "full": "島根県浜田市三隅町西河内"}, {"postal_code": "6993215", "postal_hyphen": "699-3215", "pref": "島根県", "city": "浜田市", "town": "三隅町下古和", "full": "島根県浜田市三隅町下古和"}, {"postal_code": "6993221", "postal_hyphen": "699-3221", "pref": "島根県", "city": "浜田市", "town": "三隅町東平原", "full": "島根県浜田市三隅町東平原"}, {"postal_code": "6993225", "postal_hyphen": "699-3225", "pref": "島根県", "city": "浜田市", "town": "三隅町古市場", "full": "島根県浜田市三隅町古市場"}, {"postal_code": "6993211", "postal_hyphen": "699-3211", "pref": "島根県", "city": "浜田市", "town": "三隅町三隅", "full": "島根県浜田市三隅町三隅"}, {"postal_code": "6993224", "postal_hyphen": "699-3224", "pref": "島根県", "city": "浜田市", "town": "三隅町湊浦", "full": "島根県浜田市三隅町湊浦"}, {"postal_code": "6993212", "postal_hyphen": "699-3212", "pref": "島根県", "city": "浜田市", "town": "三隅町向野田", "full": "島根県浜田市三隅町向野田"}, {"postal_code": "6993303", "postal_hyphen": "699-3303", "pref": "島根県", "city": "浜田市", "town": "三隅町室谷", "full": "島根県浜田市三隅町室谷"}, {"postal_code": "6993214", "postal_hyphen": "699-3214", "pref": "島根県", "city": "浜田市", "town": "三隅町矢原", "full": "島根県浜田市三隅町矢原"}, {"postal_code": "6970052", "postal_hyphen": "697-0052", "pref": "島根県", "city": "浜田市", "town": "港町", "full": "島根県浜田市港町"}, {"postal_code": "6970055", "postal_hyphen": "697-0055", "pref": "島根県", "city": "浜田市", "town": "元浜町", "full": "島根県浜田市元浜町"}, {"postal_code": "6971215", "postal_hyphen": "697-1215", "pref": "島根県", "city": "浜田市", "town": "弥栄町稲代", "full": "島根県浜田市弥栄町稲代"}, {"postal_code": "6971214", "postal_hyphen": "697-1214", "pref": "島根県", "city": "浜田市", "town": "弥栄町大坪", "full": "島根県浜田市弥栄町大坪"}, {"postal_code": "6971202", "postal_hyphen": "697-1202", "pref": "島根県", "city": "浜田市", "town": "弥栄町小坂", "full": "島根県浜田市弥栄町小坂"}, {"postal_code": "6971204", "postal_hyphen": "697-1204", "pref": "島根県", "city": "浜田市", "town": "弥栄町門田", "full": "島根県浜田市弥栄町門田"}, {"postal_code": "6971122", "postal_hyphen": "697-1122", "pref": "島根県", "city": "浜田市", "town": "弥栄町木都賀", "full": "島根県浜田市弥栄町木都賀"}, {"postal_code": "6971203", "postal_hyphen": "697-1203", "pref": "島根県", "city": "浜田市", "town": "弥栄町高内", "full": "島根県浜田市弥栄町高内"}, {"postal_code": "6971123", "postal_hyphen": "697-1123", "pref": "島根県", "city": "浜田市", "town": "弥栄町田野原", "full": "島根県浜田市弥栄町田野原"}, {"postal_code": "6971201", "postal_hyphen": "697-1201", "pref": "島根県", "city": "浜田市", "town": "弥栄町栃木", "full": "島根県浜田市弥栄町栃木"}, {"postal_code": "6971211", "postal_hyphen": "697-1211", "pref": "島根県", "city": "浜田市", "town": "弥栄町長安本郷", "full": "島根県浜田市弥栄町長安本郷"}, {"postal_code": "6971121", "postal_hyphen": "697-1121", "pref": "島根県", "city": "浜田市", "town": "弥栄町野坂", "full": "島根県浜田市弥栄町野坂"}, {"postal_code": "6971213", "postal_hyphen": "697-1213", "pref": "島根県", "city": "浜田市", "town": "弥栄町程原", "full": "島根県浜田市弥栄町程原"}, {"postal_code": "6971212", "postal_hyphen": "697-1212", "pref": "島根県", "city": "浜田市", "town": "弥栄町三里", "full": "島根県浜田市弥栄町三里"}, {"postal_code": "6971336", "postal_hyphen": "697-1336", "pref": "島根県", "city": "浜田市", "town": "横山町", "full": "島根県浜田市横山町"}, {"postal_code": "6971325", "postal_hyphen": "697-1325", "pref": "島根県", "city": "浜田市", "town": "吉地町", "full": "島根県浜田市吉地町"}, {"postal_code": "6930000", "postal_hyphen": "693-0000", "pref": "島根県", "city": "出雲市", "town": "", "full": "島根県出雲市"}, {"postal_code": "6930213", "postal_hyphen": "693-0213", "pref": "島根県", "city": "出雲市", "town": "朝山町", "full": "島根県出雲市朝山町"}, {"postal_code": "6930035", "postal_hyphen": "693-0035", "pref": "島根県", "city": "出雲市", "town": "芦渡町", "full": "島根県出雲市芦渡町"}, {"postal_code": "6930044", "postal_hyphen": "693-0044", "pref": "島根県", "city": "出雲市", "town": "荒茅町", "full": "島根県出雲市荒茅町"}, {"postal_code": "6930027", "postal_hyphen": "693-0027", "pref": "島根県", "city": "出雲市", "town": "医大南町", "full": "島根県出雲市医大南町"}, {"postal_code": "6930071", "postal_hyphen": "693-0071", "pref": "島根県", "city": "出雲市", "town": "稲岡町", "full": "島根県出雲市稲岡町"}, {"postal_code": "6910024", "postal_hyphen": "691-0024", "pref": "島根県", "city": "出雲市", "town": "猪目町", "full": "島根県出雲市猪目町"}, {"postal_code": "6930001", "postal_hyphen": "693-0001", "pref": "島根県", "city": "出雲市", "town": "今市町", "full": "島根県出雲市今市町"}, {"postal_code": "6930002", "postal_hyphen": "693-0002", "pref": "島根県", "city": "出雲市", "town": "今市町北本町", "full": "島根県出雲市今市町北本町"}, {"postal_code": "6930003", "postal_hyphen": "693-0003", "pref": "島根県", "city": "出雲市", "town": "今市町南本町", "full": "島根県出雲市今市町南本町"}, {"postal_code": "6910042", "postal_hyphen": "691-0042", "pref": "島根県", "city": "出雲市", "town": "十六島町", "full": "島根県出雲市十六島町"}, {"postal_code": "6930105", "postal_hyphen": "693-0105", "pref": "島根県", "city": "出雲市", "town": "宇那手町", "full": "島根県出雲市宇那手町"}, {"postal_code": "6930007", "postal_hyphen": "693-0007", "pref": "島根県", "city": "出雲市", "town": "駅北町", "full": "島根県出雲市駅北町"}, {"postal_code": "6930008", "postal_hyphen": "693-0008", "pref": "島根県", "city": "出雲市", "town": "駅南町", "full": "島根県出雲市駅南町"}, {"postal_code": "6930017", "postal_hyphen": "693-0017", "pref": "島根県", "city": "出雲市", "town": "枝大津町", "full": "島根県出雲市枝大津町"}, {"postal_code": "6930056", "postal_hyphen": "693-0056", "pref": "島根県", "city": "出雲市", "town": "江田町", "full": "島根県出雲市江田町"}, {"postal_code": "6930023", "postal_hyphen": "693-0023", "pref": "島根県", "city": "出雲市", "town": "塩冶有原町", "full": "島根県出雲市塩冶有原町"}, {"postal_code": "6930024", "postal_hyphen": "693-0024", "pref": "島根県", "city": "出雲市", "town": "塩冶神前", "full": "島根県出雲市塩冶神前"}, {"postal_code": "6930028", "postal_hyphen": "693-0028", "pref": "島根県", "city": "出雲市", "town": "塩冶善行町", "full": "島根県出雲市塩冶善行町"}, {"postal_code": "6930021", "postal_hyphen": "693-0021", "pref": "島根県", "city": "出雲市", "town": "塩冶町", "full": "島根県出雲市塩冶町"}, {"postal_code": "6930025", "postal_hyphen": "693-0025", "pref": "島根県", "city": "出雲市", "town": "塩冶町南町", "full": "島根県出雲市塩冶町南町"}, {"postal_code": "6930026", "postal_hyphen": "693-0026", "pref": "島根県", "city": "出雲市", "town": "塩冶原町", "full": "島根県出雲市塩冶原町"}, {"postal_code": "6990821", "postal_hyphen": "699-0821", "pref": "島根県", "city": "出雲市", "town": "大島町", "full": "島根県出雲市大島町"}, {"postal_code": "6930015", "postal_hyphen": "693-0015", "pref": "島根県", "city": "出雲市", "town": "大津朝倉", "full": "島根県出雲市大津朝倉"}, {"postal_code": "6930063", "postal_hyphen": "693-0063", "pref": "島根県", "city": "出雲市", "town": "大塚町", "full": "島根県出雲市大塚町"}, {"postal_code": "6930012", "postal_hyphen": "693-0012", "pref": "島根県", "city": "出雲市", "town": "大津新崎町", "full": "島根県出雲市大津新崎町"}, {"postal_code": "6930011", "postal_hyphen": "693-0011", "pref": "島根県", "city": "出雲市", "town": "大津町", "full": "島根県出雲市大津町"}, {"postal_code": "6910063", "postal_hyphen": "691-0063", "pref": "島根県", "city": "出雲市", "town": "岡田町", "full": "島根県出雲市岡田町"}, {"postal_code": "6930013", "postal_hyphen": "693-0013", "pref": "島根県", "city": "出雲市", "town": "荻杼町", "full": "島根県出雲市荻杼町"}, {"postal_code": "6910021", "postal_hyphen": "691-0021", "pref": "島根県", "city": "出雲市", "town": "奥宇賀町", "full": "島根県出雲市奥宇賀町"}, {"postal_code": "6930216", "postal_hyphen": "693-0216", "pref": "島根県", "city": "出雲市", "town": "乙立町", "full": "島根県出雲市乙立町"}, {"postal_code": "6930051", "postal_hyphen": "693-0051", "pref": "島根県", "city": "出雲市", "town": "小山町", "full": "島根県出雲市小山町"}, {"postal_code": "6910043", "postal_hyphen": "691-0043", "pref": "島根県", "city": "出雲市", "town": "釜浦町", "full": "島根県出雲市釜浦町"}, {"postal_code": "6930022", "postal_hyphen": "693-0022", "pref": "島根県", "city": "出雲市", "town": "上塩冶町", "full": "島根県出雲市上塩冶町"}, {"postal_code": "6910064", "postal_hyphen": "691-0064", "pref": "島根県", "city": "出雲市", "town": "上岡田町", "full": "島根県出雲市上岡田町"}, {"postal_code": "6930101", "postal_hyphen": "693-0101", "pref": "島根県", "city": "出雲市", "town": "上島町", "full": "島根県出雲市上島町"}, {"postal_code": "6910023", "postal_hyphen": "691-0023", "pref": "島根県", "city": "出雲市", "town": "唐川町", "full": "島根県出雲市唐川町"}, {"postal_code": "6910025", "postal_hyphen": "691-0025", "pref": "島根県", "city": "出雲市", "town": "河下町", "full": "島根県出雲市河下町"}, {"postal_code": "6930034", "postal_hyphen": "693-0034", "pref": "島根県", "city": "出雲市", "town": "神門町", "full": "島根県出雲市神門町"}, {"postal_code": "6930072", "postal_hyphen": "693-0072", "pref": "島根県", "city": "出雲市", "town": "日下町", "full": "島根県出雲市日下町"}, {"postal_code": "6910034", "postal_hyphen": "691-0034", "pref": "島根県", "city": "出雲市", "town": "久多見町", "full": "島根県出雲市久多見町"}, {"postal_code": "6910014", "postal_hyphen": "691-0014", "pref": "島根県", "city": "出雲市", "town": "口宇賀町", "full": "島根県出雲市口宇賀町"}, {"postal_code": "6910011", "postal_hyphen": "691-0011", "pref": "島根県", "city": "出雲市", "town": "国富町", "full": "島根県出雲市国富町"}, {"postal_code": "6910052", "postal_hyphen": "691-0052", "pref": "島根県", "city": "出雲市", "town": "小伊津町", "full": "島根県出雲市小伊津町"}, {"postal_code": "6910074", "postal_hyphen": "691-0074", "pref": "島根県", "city": "出雲市", "town": "小境町", "full": "島根県出雲市小境町"}, {"postal_code": "6930031", "postal_hyphen": "693-0031", "pref": "島根県", "city": "出雲市", "town": "古志町", "full": "島根県出雲市古志町"}, {"postal_code": "6910041", "postal_hyphen": "691-0041", "pref": "島根県", "city": "出雲市", "town": "小津町", "full": "島根県出雲市小津町"}, {"postal_code": "6990817", "postal_hyphen": "699-0817", "pref": "島根県", "city": "出雲市", "town": "湖陵町板津", "full": "島根県出雲市湖陵町板津"}, {"postal_code": "6990816", "postal_hyphen": "699-0816", "pref": "島根県", "city": "出雲市", "town": "湖陵町大池", "full": "島根県出雲市湖陵町大池"}, {"postal_code": "6990811", "postal_hyphen": "699-0811", "pref": "島根県", "city": "出雲市", "town": "湖陵町差海", "full": "島根県出雲市湖陵町差海"}, {"postal_code": "6990813", "postal_hyphen": "699-0813", "pref": "島根県", "city": "出雲市", "town": "湖陵町三部", "full": "島根県出雲市湖陵町三部"}, {"postal_code": "6990814", "postal_hyphen": "699-0814", "pref": "島根県", "city": "出雲市", "town": "湖陵町常楽寺", "full": "島根県出雲市湖陵町常楽寺"}, {"postal_code": "6990812", "postal_hyphen": "699-0812", "pref": "島根県", "city": "出雲市", "town": "湖陵町二部", "full": "島根県出雲市湖陵町二部"}, {"postal_code": "6990815", "postal_hyphen": "699-0815", "pref": "島根県", "city": "出雲市", "town": "湖陵町畑村", "full": "島根県出雲市湖陵町畑村"}, {"postal_code": "6910015", "postal_hyphen": "691-0015", "pref": "島根県", "city": "出雲市", "town": "西郷町", "full": "島根県出雲市西郷町"}, {"postal_code": "6910051", "postal_hyphen": "691-0051", "pref": "島根県", "city": "出雲市", "town": "坂浦町", "full": "島根県出雲市坂浦町"}, {"postal_code": "6930501", "postal_hyphen": "693-0501", "pref": "島根県", "city": "出雲市", "town": "佐田町朝原", "full": "島根県出雲市佐田町朝原"}, {"postal_code": "6930504", "postal_hyphen": "693-0504", "pref": "島根県", "city": "出雲市", "town": "佐田町大呂", "full": "島根県出雲市佐田町大呂"}, {"postal_code": "6930526", "postal_hyphen": "693-0526", "pref": "島根県", "city": "出雲市", "town": "佐田町上橋波", "full": "島根県出雲市佐田町上橋波"}, {"postal_code": "6930521", "postal_hyphen": "693-0521", "pref": "島根県", "city": "出雲市", "town": "佐田町毛津", "full": "島根県出雲市佐田町毛津"}, {"postal_code": "6930523", "postal_hyphen": "693-0523", "pref": "島根県", "city": "出雲市", "town": "佐田町佐津目", "full": "島根県出雲市佐田町佐津目"}, {"postal_code": "6930525", "postal_hyphen": "693-0525", "pref": "島根県", "city": "出雲市", "town": "佐田町下橋波", "full": "島根県出雲市佐田町下橋波"}, {"postal_code": "6930503", "postal_hyphen": "693-0503", "pref": "島根県", "city": "出雲市", "town": "佐田町須佐", "full": "島根県出雲市佐田町須佐"}, {"postal_code": "6930524", "postal_hyphen": "693-0524", "pref": "島根県", "city": "出雲市", "town": "佐田町高津屋", "full": "島根県出雲市佐田町高津屋"}, {"postal_code": "6930506", "postal_hyphen": "693-0506", "pref": "島根県", "city": "出雲市", "town": "佐田町反辺", "full": "島根県出雲市佐田町反辺"}, {"postal_code": "6930502", "postal_hyphen": "693-0502", "pref": "島根県", "city": "出雲市", "town": "佐田町原田", "full": "島根県出雲市佐田町原田"}, {"postal_code": "6930512", "postal_hyphen": "693-0512", "pref": "島根県", "city": "出雲市", "town": "佐田町東村", "full": "島根県出雲市佐田町東村"}, {"postal_code": "6930522", "postal_hyphen": "693-0522", "pref": "島根県", "city": "出雲市", "town": "佐田町一窪田", "full": "島根県出雲市佐田町一窪田"}, {"postal_code": "6930511", "postal_hyphen": "693-0511", "pref": "島根県", "city": "出雲市", "town": "佐田町八幡原", "full": "島根県出雲市佐田町八幡原"}, {"postal_code": "6930505", "postal_hyphen": "693-0505", "pref": "島根県", "city": "出雲市", "town": "佐田町吉野", "full": "島根県出雲市佐田町吉野"}, {"postal_code": "6930064", "postal_hyphen": "693-0064", "pref": "島根県", "city": "出雲市", "town": "里方町", "full": "島根県出雲市里方町"}, {"postal_code": "6910044", "postal_hyphen": "691-0044", "pref": "島根県", "city": "出雲市", "town": "塩津町", "full": "島根県出雲市塩津町"}, {"postal_code": "6910004", "postal_hyphen": "691-0004", "pref": "島根県", "city": "出雲市", "town": "島村町", "full": "島根県出雲市島村町"}, {"postal_code": "6930032", "postal_hyphen": "693-0032", "pref": "島根県", "city": "出雲市", "town": "下古志町", "full": "島根県出雲市下古志町"}, {"postal_code": "6930046", "postal_hyphen": "693-0046", "pref": "島根県", "city": "出雲市", "town": "下横町", "full": "島根県出雲市下横町"}, {"postal_code": "6930006", "postal_hyphen": "693-0006", "pref": "島根県", "city": "出雲市", "town": "白枝町", "full": "島根県出雲市白枝町"}, {"postal_code": "6990822", "postal_hyphen": "699-0822", "pref": "島根県", "city": "出雲市", "town": "神西沖町", "full": "島根県出雲市神西沖町"}, {"postal_code": "6990825", "postal_hyphen": "699-0825", "pref": "島根県", "city": "出雲市", "town": "神西新町", "full": "島根県出雲市神西新町"}, {"postal_code": "6930042", "postal_hyphen": "693-0042", "pref": "島根県", "city": "出雲市", "town": "外園町", "full": "島根県出雲市外園町"}, {"postal_code": "6910076", "postal_hyphen": "691-0076", "pref": "島根県", "city": "出雲市", "town": "園町", "full": "島根県出雲市園町"}, {"postal_code": "6990762", "postal_hyphen": "699-0762", "pref": "島根県", "city": "出雲市", "town": "大社町鵜峠", "full": "島根県出雲市大社町鵜峠"}, {"postal_code": "6990764", "postal_hyphen": "699-0764", "pref": "島根県", "city": "出雲市", "town": "大社町宇龍", "full": "島根県出雲市大社町宇龍"}, {"postal_code": "6990722", "postal_hyphen": "699-0722", "pref": "島根県", "city": "出雲市", "town": "大社町北荒木", "full": "島根県出雲市大社町北荒木"}, {"postal_code": "6990702", "postal_hyphen": "699-0702", "pref": "島根県", "city": "出雲市", "town": "大社町杵築北", "full": "島根県出雲市大社町杵築北"}, {"postal_code": "6990751", "postal_hyphen": "699-0751", "pref": "島根県", "city": "出雲市", "town": "大社町杵築西", "full": "島根県出雲市大社町杵築西"}, {"postal_code": "6990701", "postal_hyphen": "699-0701", "pref": "島根県", "city": "出雲市", "town": "大社町杵築東", "full": "島根県出雲市大社町杵築東"}, {"postal_code": "6990711", "postal_hyphen": "699-0711", "pref": "島根県", "city": "出雲市", "town": "大社町杵築南", "full": "島根県出雲市大社町杵築南"}, {"postal_code": "6990761", "postal_hyphen": "699-0761", "pref": "島根県", "city": "出雲市", "town": "大社町鷺浦", "full": "島根県出雲市大社町鷺浦"}, {"postal_code": "6990721", "postal_hyphen": "699-0721", "pref": "島根県", "city": "出雲市", "town": "大社町修理免", "full": "島根県出雲市大社町修理免"}, {"postal_code": "6990741", "postal_hyphen": "699-0741", "pref": "島根県", "city": "出雲市", "town": "大社町中荒木", "full": "島根県出雲市大社町中荒木"}, {"postal_code": "6990732", "postal_hyphen": "699-0732", "pref": "島根県", "city": "出雲市", "town": "大社町入南", "full": "島根県出雲市大社町入南"}, {"postal_code": "6990733", "postal_hyphen": "699-0733", "pref": "島根県", "city": "出雲市", "town": "大社町菱根", "full": "島根県出雲市大社町菱根"}, {"postal_code": "6990763", "postal_hyphen": "699-0763", "pref": "島根県", "city": "出雲市", "town": "大社町日御碕", "full": "島根県出雲市大社町日御碕"}, {"postal_code": "6990731", "postal_hyphen": "699-0731", "pref": "島根県", "city": "出雲市", "town": "大社町遙堪", "full": "島根県出雲市大社町遙堪"}, {"postal_code": "6930066", "postal_hyphen": "693-0066", "pref": "島根県", "city": "出雲市", "town": "高岡町", "full": "島根県出雲市高岡町"}, {"postal_code": "6930053", "postal_hyphen": "693-0053", "pref": "島根県", "city": "出雲市", "town": "高松町", "full": "島根県出雲市高松町"}, {"postal_code": "6990905", "postal_hyphen": "699-0905", "pref": "島根県", "city": "出雲市", "town": "多伎町奥田儀", "full": "島根県出雲市多伎町奥田儀"}, {"postal_code": "6990903", "postal_hyphen": "699-0903", "pref": "島根県", "city": "出雲市", "town": "多伎町小田", "full": "島根県出雲市多伎町小田"}, {"postal_code": "6990906", "postal_hyphen": "699-0906", "pref": "島根県", "city": "出雲市", "town": "多伎町神原", "full": "島根県出雲市多伎町神原"}, {"postal_code": "6990904", "postal_hyphen": "699-0904", "pref": "島根県", "city": "出雲市", "town": "多伎町口田儀", "full": "島根県出雲市多伎町口田儀"}, {"postal_code": "6990901", "postal_hyphen": "699-0901", "pref": "島根県", "city": "出雲市", "town": "多伎町久村", "full": "島根県出雲市多伎町久村"}, {"postal_code": "6990902", "postal_hyphen": "699-0902", "pref": "島根県", "city": "出雲市", "town": "多伎町多岐", "full": "島根県出雲市多伎町多岐"}, {"postal_code": "6910062", "postal_hyphen": "691-0062", "pref": "島根県", "city": "出雲市", "town": "多久谷町", "full": "島根県出雲市多久谷町"}, {"postal_code": "6910061", "postal_hyphen": "691-0061", "pref": "島根県", "city": "出雲市", "town": "多久町", "full": "島根県出雲市多久町"}, {"postal_code": "6930014", "postal_hyphen": "693-0014", "pref": "島根県", "city": "出雲市", "town": "武志町", "full": "島根県出雲市武志町"}, {"postal_code": "6930033", "postal_hyphen": "693-0033", "pref": "島根県", "city": "出雲市", "town": "知井宮町", "full": "島根県出雲市知井宮町"}, {"postal_code": "6910071", "postal_hyphen": "691-0071", "pref": "島根県", "city": "出雲市", "town": "地合町", "full": "島根県出雲市地合町"}, {"postal_code": "6930029", "postal_hyphen": "693-0029", "pref": "島根県", "city": "出雲市", "town": "築山新町", "full": "島根県出雲市築山新町"}, {"postal_code": "6930057", "postal_hyphen": "693-0057", "pref": "島根県", "city": "出雲市", "town": "常松町", "full": "島根県出雲市常松町"}, {"postal_code": "6930005", "postal_hyphen": "693-0005", "pref": "島根県", "city": "出雲市", "town": "天神町", "full": "島根県出雲市天神町"}, {"postal_code": "6910065", "postal_hyphen": "691-0065", "pref": "島根県", "city": "出雲市", "town": "東郷町", "full": "島根県出雲市東郷町"}, {"postal_code": "6910031", "postal_hyphen": "691-0031", "pref": "島根県", "city": "出雲市", "town": "東福町", "full": "島根県出雲市東福町"}, {"postal_code": "6930214", "postal_hyphen": "693-0214", "pref": "島根県", "city": "出雲市", "town": "所原町", "full": "島根県出雲市所原町"}, {"postal_code": "6930062", "postal_hyphen": "693-0062", "pref": "島根県", "city": "出雲市", "town": "中野町", "full": "島根県出雲市中野町"}, {"postal_code": "6930081", "postal_hyphen": "693-0081", "pref": "島根県", "city": "出雲市", "town": "中野美保北", "full": "島根県出雲市中野美保北"}, {"postal_code": "6930082", "postal_hyphen": "693-0082", "pref": "島根県", "city": "出雲市", "town": "中野美保南", "full": "島根県出雲市中野美保南"}, {"postal_code": "6930043", "postal_hyphen": "693-0043", "pref": "島根県", "city": "出雲市", "town": "長浜町", "full": "島根県出雲市長浜町"}, {"postal_code": "6910003", "postal_hyphen": "691-0003", "pref": "島根県", "city": "出雲市", "town": "灘分町", "full": "島根県出雲市灘分町"}, {"postal_code": "6990824", "postal_hyphen": "699-0824", "pref": "島根県", "city": "出雲市", "town": "西神西町", "full": "島根県出雲市西神西町"}, {"postal_code": "6930037", "postal_hyphen": "693-0037", "pref": "島根県", "city": "出雲市", "town": "西新町", "full": "島根県出雲市西新町"}, {"postal_code": "6930041", "postal_hyphen": "693-0041", "pref": "島根県", "city": "出雲市", "town": "西園町", "full": "島根県出雲市西園町"}, {"postal_code": "6910012", "postal_hyphen": "691-0012", "pref": "島根県", "city": "出雲市", "town": "西代町", "full": "島根県出雲市西代町"}, {"postal_code": "6930102", "postal_hyphen": "693-0102", "pref": "島根県", "city": "出雲市", "town": "西谷町", "full": "島根県出雲市西谷町"}, {"postal_code": "6930073", "postal_hyphen": "693-0073", "pref": "島根県", "city": "出雲市", "town": "西林木町", "full": "島根県出雲市西林木町"}, {"postal_code": "6910002", "postal_hyphen": "691-0002", "pref": "島根県", "city": "出雲市", "town": "西平田町", "full": "島根県出雲市西平田町"}, {"postal_code": "6910066", "postal_hyphen": "691-0066", "pref": "島根県", "city": "出雲市", "town": "野石谷町", "full": "島根県出雲市野石谷町"}, {"postal_code": "6910072", "postal_hyphen": "691-0072", "pref": "島根県", "city": "出雲市", "town": "野郷町", "full": "島根県出雲市野郷町"}, {"postal_code": "6930103", "postal_hyphen": "693-0103", "pref": "島根県", "city": "出雲市", "town": "野尻町", "full": "島根県出雲市野尻町"}, {"postal_code": "6930054", "postal_hyphen": "693-0054", "pref": "島根県", "city": "出雲市", "town": "浜町", "full": "島根県出雲市浜町"}, {"postal_code": "6930104", "postal_hyphen": "693-0104", "pref": "島根県", "city": "出雲市", "town": "稗原町", "full": "島根県出雲市稗原町"}, {"postal_code": "6990823", "postal_hyphen": "699-0823", "pref": "島根県", "city": "出雲市", "town": "東神西町", "full": "島根県出雲市東神西町"}, {"postal_code": "6930045", "postal_hyphen": "693-0045", "pref": "島根県", "city": "出雲市", "town": "東園町", "full": "島根県出雲市東園町"}, {"postal_code": "6930074", "postal_hyphen": "693-0074", "pref": "島根県", "city": "出雲市", "town": "東林木町", "full": "島根県出雲市東林木町"}, {"postal_code": "6990615", "postal_hyphen": "699-0615", "pref": "島根県", "city": "出雲市", "town": "斐川町併川", "full": "島根県出雲市斐川町併川"}, {"postal_code": "6990611", "postal_hyphen": "699-0611", "pref": "島根県", "city": "出雲市", "town": "斐川町阿宮", "full": "島根県出雲市斐川町阿宮"}, {"postal_code": "6990644", "postal_hyphen": "699-0644", "pref": "島根県", "city": "出雲市", "town": "斐川町今在家", "full": "島根県出雲市斐川町今在家"}, {"postal_code": "6990551", "postal_hyphen": "699-0551", "pref": "島根県", "city": "出雲市", "town": "斐川町沖洲", "full": "島根県出雲市斐川町沖洲"}, {"postal_code": "6990501", "postal_hyphen": "699-0501", "pref": "島根県", "city": "出雲市", "town": "斐川町学頭", "full": "島根県出雲市斐川町学頭"}, {"postal_code": "6990505", "postal_hyphen": "699-0505", "pref": "島根県", "city": "出雲市", "town": "斐川町上庄原", "full": "島根県出雲市斐川町上庄原"}, {"postal_code": "6990624", "postal_hyphen": "699-0624", "pref": "島根県", "city": "出雲市", "town": "斐川町上直江", "full": "島根県出雲市斐川町上直江"}, {"postal_code": "6990503", "postal_hyphen": "699-0503", "pref": "島根県", "city": "出雲市", "town": "斐川町神庭", "full": "島根県出雲市斐川町神庭"}, {"postal_code": "6990613", "postal_hyphen": "699-0613", "pref": "島根県", "city": "出雲市", "town": "斐川町神氷", "full": "島根県出雲市斐川町神氷"}, {"postal_code": "6990614", "postal_hyphen": "699-0614", "pref": "島根県", "city": "出雲市", "town": "斐川町求院", "full": "島根県出雲市斐川町求院"}, {"postal_code": "6990553", "postal_hyphen": "699-0553", "pref": "島根県", "city": "出雲市", "town": "斐川町黒目", "full": "島根県出雲市斐川町黒目"}, {"postal_code": "6990555", "postal_hyphen": "699-0555", "pref": "島根県", "city": "出雲市", "town": "斐川町坂田", "full": "島根県出雲市斐川町坂田"}, {"postal_code": "6990554", "postal_hyphen": "699-0554", "pref": "島根県", "city": "出雲市", "town": "斐川町三分市", "full": "島根県出雲市斐川町三分市"}, {"postal_code": "6990612", "postal_hyphen": "699-0612", "pref": "島根県", "city": "出雲市", "town": "斐川町出西", "full": "島根県出雲市斐川町出西"}, {"postal_code": "6990502", "postal_hyphen": "699-0502", "pref": "島根県", "city": "出雲市", "town": "斐川町荘原", "full": "島根県出雲市斐川町荘原"}, {"postal_code": "6990621", "postal_hyphen": "699-0621", "pref": "島根県", "city": "出雲市", "town": "斐川町富村", "full": "島根県出雲市斐川町富村"}, {"postal_code": "6990623", "postal_hyphen": "699-0623", "pref": "島根県", "city": "出雲市", "town": "斐川町鳥井", "full": "島根県出雲市斐川町鳥井"}, {"postal_code": "6990631", "postal_hyphen": "699-0631", "pref": "島根県", "city": "出雲市", "town": "斐川町直江", "full": "島根県出雲市斐川町直江"}, {"postal_code": "6990552", "postal_hyphen": "699-0552", "pref": "島根県", "city": "出雲市", "town": "斐川町中洲", "full": "島根県出雲市斐川町中洲"}, {"postal_code": "6990622", "postal_hyphen": "699-0622", "pref": "島根県", "city": "出雲市", "town": "斐川町名島", "full": "島根県出雲市斐川町名島"}, {"postal_code": "6990643", "postal_hyphen": "699-0643", "pref": "島根県", "city": "出雲市", "town": "斐川町原鹿", "full": "島根県出雲市斐川町原鹿"}, {"postal_code": "6990642", "postal_hyphen": "699-0642", "pref": "島根県", "city": "出雲市", "town": "斐川町福富", "full": "島根県出雲市斐川町福富"}, {"postal_code": "6990504", "postal_hyphen": "699-0504", "pref": "島根県", "city": "出雲市", "town": "斐川町三絡", "full": "島根県出雲市斐川町三絡"}, {"postal_code": "6990641", "postal_hyphen": "699-0641", "pref": "島根県", "city": "出雲市", "town": "斐川町美南", "full": "島根県出雲市斐川町美南"}, {"postal_code": "6930068", "postal_hyphen": "693-0068", "pref": "島根県", "city": "出雲市", "town": "姫原（１〜４丁目）", "full": "島根県出雲市姫原（１〜４丁目）"}, {"postal_code": "6930061", "postal_hyphen": "693-0061", "pref": "島根県", "city": "出雲市", "town": "姫原町", "full": "島根県出雲市姫原町"}, {"postal_code": "6910001", "postal_hyphen": "691-0001", "pref": "島根県", "city": "出雲市", "town": "平田町", "full": "島根県出雲市平田町"}, {"postal_code": "6930065", "postal_hyphen": "693-0065", "pref": "島根県", "city": "出雲市", "town": "平野町", "full": "島根県出雲市平野町"}, {"postal_code": "6930106", "postal_hyphen": "693-0106", "pref": "島根県", "city": "出雲市", "town": "船津町", "full": "島根県出雲市船津町"}, {"postal_code": "6930036", "postal_hyphen": "693-0036", "pref": "島根県", "city": "出雲市", "town": "平成町", "full": "島根県出雲市平成町"}, {"postal_code": "6910022", "postal_hyphen": "691-0022", "pref": "島根県", "city": "出雲市", "town": "別所町", "full": "島根県出雲市別所町"}, {"postal_code": "6910032", "postal_hyphen": "691-0032", "pref": "島根県", "city": "出雲市", "town": "本庄町", "full": "島根県出雲市本庄町"}, {"postal_code": "6930211", "postal_hyphen": "693-0211", "pref": "島根県", "city": "出雲市", "town": "馬木北町", "full": "島根県出雲市馬木北町"}, {"postal_code": "6930212", "postal_hyphen": "693-0212", "pref": "島根県", "city": "出雲市", "town": "馬木町", "full": "島根県出雲市馬木町"}, {"postal_code": "6930052", "postal_hyphen": "693-0052", "pref": "島根県", "city": "出雲市", "town": "松寄下町", "full": "島根県出雲市松寄下町"}, {"postal_code": "6910033", "postal_hyphen": "691-0033", "pref": "島根県", "city": "出雲市", "town": "万田町", "full": "島根県出雲市万田町"}, {"postal_code": "6910013", "postal_hyphen": "691-0013", "pref": "島根県", "city": "出雲市", "town": "美談町", "full": "島根県出雲市美談町"}, {"postal_code": "6910053", "postal_hyphen": "691-0053", "pref": "島根県", "city": "出雲市", "town": "三津町", "full": "島根県出雲市三津町"}, {"postal_code": "6910045", "postal_hyphen": "691-0045", "pref": "島根県", "city": "出雲市", "town": "美保町", "full": "島根県出雲市美保町"}, {"postal_code": "6930215", "postal_hyphen": "693-0215", "pref": "島根県", "city": "出雲市", "town": "見々久町", "full": "島根県出雲市見々久町"}, {"postal_code": "6930055", "postal_hyphen": "693-0055", "pref": "島根県", "city": "出雲市", "town": "八島町", "full": "島根県出雲市八島町"}, {"postal_code": "6930058", "postal_hyphen": "693-0058", "pref": "島根県", "city": "出雲市", "town": "矢野町", "full": "島根県出雲市矢野町"}, {"postal_code": "6930067", "postal_hyphen": "693-0067", "pref": "島根県", "city": "出雲市", "town": "矢尾町", "full": "島根県出雲市矢尾町"}, {"postal_code": "6910073", "postal_hyphen": "691-0073", "pref": "島根県", "city": "出雲市", "town": "美野町", "full": "島根県出雲市美野町"}, {"postal_code": "6910075", "postal_hyphen": "691-0075", "pref": "島根県", "city": "出雲市", "town": "鹿園寺町", "full": "島根県出雲市鹿園寺町"}, {"postal_code": "6930004", "postal_hyphen": "693-0004", "pref": "島根県", "city": "出雲市", "town": "渡橋町", "full": "島根県出雲市渡橋町"}, {"postal_code": "6980000", "postal_hyphen": "698-0000", "pref": "島根県", "city": "益田市", "town": "", "full": "島根県益田市"}, {"postal_code": "6993672", "postal_hyphen": "699-3672", "pref": "島根県", "city": "益田市", "town": "赤雁町", "full": "島根県益田市赤雁町"}, {"postal_code": "6980034", "postal_hyphen": "698-0034", "pref": "島根県", "city": "益田市", "town": "赤城町", "full": "島根県益田市赤城町"}, {"postal_code": "6980027", "postal_hyphen": "698-0027", "pref": "島根県", "city": "益田市", "town": "あけぼの東町", "full": "島根県益田市あけぼの東町"}, {"postal_code": "6980025", "postal_hyphen": "698-0025", "pref": "島根県", "city": "益田市", "town": "あけぼの西町", "full": "島根県益田市あけぼの西町"}, {"postal_code": "6980026", "postal_hyphen": "698-0026", "pref": "島根県", "city": "益田市", "town": "あけぼの本町", "full": "島根県益田市あけぼの本町"}, {"postal_code": "6982253", "postal_hyphen": "698-2253", "pref": "島根県", "city": "益田市", "town": "愛栄町", "full": "島根県益田市愛栄町"}, {"postal_code": "6980022", "postal_hyphen": "698-0022", "pref": "島根県", "city": "益田市", "town": "有明町", "full": "島根県益田市有明町"}, {"postal_code": "6993765", "postal_hyphen": "699-3765", "pref": "島根県", "city": "益田市", "town": "有田町", "full": "島根県益田市有田町"}, {"postal_code": "6980037", "postal_hyphen": "698-0037", "pref": "島根県", "city": "益田市", "town": "飯田町", "full": "島根県益田市飯田町"}, {"postal_code": "6993761", "postal_hyphen": "699-3761", "pref": "島根県", "city": "益田市", "town": "飯浦町", "full": "島根県益田市飯浦町"}, {"postal_code": "6982142", "postal_hyphen": "698-2142", "pref": "島根県", "city": "益田市", "town": "市原町", "full": "島根県益田市市原町"}, {"postal_code": "6995123", "postal_hyphen": "699-5123", "pref": "島根県", "city": "益田市", "town": "猪木谷町", "full": "島根県益田市猪木谷町"}, {"postal_code": "6980014", "postal_hyphen": "698-0014", "pref": "島根県", "city": "益田市", "town": "岩倉町", "full": "島根県益田市岩倉町"}, {"postal_code": "6980051", "postal_hyphen": "698-0051", "pref": "島根県", "city": "益田市", "town": "内田町（石見空港）", "full": "島根県益田市内田町（石見空港）"}, {"postal_code": "6982143", "postal_hyphen": "698-2143", "pref": "島根県", "city": "益田市", "town": "内田町（その他）", "full": "島根県益田市内田町（その他）"}, {"postal_code": "6980413", "postal_hyphen": "698-0413", "pref": "島根県", "city": "益田市", "town": "馬谷町", "full": "島根県益田市馬谷町"}, {"postal_code": "6995127", "postal_hyphen": "699-5127", "pref": "島根県", "city": "益田市", "town": "梅月町", "full": "島根県益田市梅月町"}, {"postal_code": "6980024", "postal_hyphen": "698-0024", "pref": "島根県", "city": "益田市", "town": "駅前町", "full": "島根県益田市駅前町"}, {"postal_code": "6993674", "postal_hyphen": "699-3674", "pref": "島根県", "city": "益田市", "town": "大草町", "full": "島根県益田市大草町"}, {"postal_code": "6980012", "postal_hyphen": "698-0012", "pref": "島根県", "city": "益田市", "town": "大谷町", "full": "島根県益田市大谷町"}, {"postal_code": "6993675", "postal_hyphen": "699-3675", "pref": "島根県", "city": "益田市", "town": "乙子町", "full": "島根県益田市乙子町"}, {"postal_code": "6980003", "postal_hyphen": "698-0003", "pref": "島根県", "city": "益田市", "town": "乙吉町", "full": "島根県益田市乙吉町"}, {"postal_code": "6982252", "postal_hyphen": "698-2252", "pref": "島根県", "city": "益田市", "town": "柏原町", "full": "島根県益田市柏原町"}, {"postal_code": "6982254", "postal_hyphen": "698-2254", "pref": "島根県", "city": "益田市", "town": "桂平町", "full": "島根県益田市桂平町"}, {"postal_code": "6993501", "postal_hyphen": "699-3501", "pref": "島根県", "city": "益田市", "town": "金山町", "full": "島根県益田市金山町"}, {"postal_code": "6982255", "postal_hyphen": "698-2255", "pref": "島根県", "city": "益田市", "town": "上黒谷町", "full": "島根県益田市上黒谷町"}, {"postal_code": "6980045", "postal_hyphen": "698-0045", "pref": "島根県", "city": "益田市", "town": "かもしま北町", "full": "島根県益田市かもしま北町"}, {"postal_code": "6980047", "postal_hyphen": "698-0047", "pref": "島根県", "city": "益田市", "town": "かもしま西町", "full": "島根県益田市かもしま西町"}, {"postal_code": "6980046", "postal_hyphen": "698-0046", "pref": "島根県", "city": "益田市", "town": "かもしま東町", "full": "島根県益田市かもしま東町"}, {"postal_code": "6982145", "postal_hyphen": "698-2145", "pref": "島根県", "city": "益田市", "town": "川登町", "full": "島根県益田市川登町"}, {"postal_code": "6995133", "postal_hyphen": "699-5133", "pref": "島根県", "city": "益田市", "town": "神田町", "full": "島根県益田市神田町"}, {"postal_code": "6993764", "postal_hyphen": "699-3764", "pref": "島根県", "city": "益田市", "town": "喜阿弥町", "full": "島根県益田市喜阿弥町"}, {"postal_code": "6993502", "postal_hyphen": "699-3502", "pref": "島根県", "city": "益田市", "town": "木部町", "full": "島根県益田市木部町"}, {"postal_code": "6980013", "postal_hyphen": "698-0013", "pref": "島根県", "city": "益田市", "town": "久々茂町", "full": "島根県益田市久々茂町"}, {"postal_code": "6980001", "postal_hyphen": "698-0001", "pref": "島根県", "city": "益田市", "town": "久城町", "full": "島根県益田市久城町"}, {"postal_code": "6982251", "postal_hyphen": "698-2251", "pref": "島根県", "city": "益田市", "town": "黒周町", "full": "島根県益田市黒周町"}, {"postal_code": "6993762", "postal_hyphen": "699-3762", "pref": "島根県", "city": "益田市", "town": "小浜町", "full": "島根県益田市小浜町"}, {"postal_code": "6980021", "postal_hyphen": "698-0021", "pref": "島根県", "city": "益田市", "town": "幸町", "full": "島根県益田市幸町"}, {"postal_code": "6980035", "postal_hyphen": "698-0035", "pref": "島根県", "city": "益田市", "town": "栄町", "full": "島根県益田市栄町"}, {"postal_code": "6993503", "postal_hyphen": "699-3503", "pref": "島根県", "city": "益田市", "town": "下種町", "full": "島根県益田市下種町"}, {"postal_code": "6980414", "postal_hyphen": "698-0414", "pref": "島根県", "city": "益田市", "town": "下波田町", "full": "島根県益田市下波田町"}, {"postal_code": "6980002", "postal_hyphen": "698-0002", "pref": "島根県", "city": "益田市", "town": "下本郷町", "full": "島根県益田市下本郷町"}, {"postal_code": "6980007", "postal_hyphen": "698-0007", "pref": "島根県", "city": "益田市", "town": "昭和町", "full": "島根県益田市昭和町"}, {"postal_code": "6995125", "postal_hyphen": "699-5125", "pref": "島根県", "city": "益田市", "town": "白岩町", "full": "島根県益田市白岩町"}, {"postal_code": "6982141", "postal_hyphen": "698-2141", "pref": "島根県", "city": "益田市", "town": "白上町", "full": "島根県益田市白上町"}, {"postal_code": "6980036", "postal_hyphen": "698-0036", "pref": "島根県", "city": "益田市", "town": "須子町", "full": "島根県益田市須子町"}, {"postal_code": "6995124", "postal_hyphen": "699-5124", "pref": "島根県", "city": "益田市", "town": "薄原町", "full": "島根県益田市薄原町"}, {"postal_code": "6995126", "postal_hyphen": "699-5126", "pref": "島根県", "city": "益田市", "town": "隅村町", "full": "島根県益田市隅村町"}, {"postal_code": "6980011", "postal_hyphen": "698-0011", "pref": "島根県", "city": "益田市", "town": "染羽町", "full": "島根県益田市染羽町"}, {"postal_code": "6980041", "postal_hyphen": "698-0041", "pref": "島根県", "city": "益田市", "town": "高津", "full": "島根県益田市高津"}, {"postal_code": "6980041", "postal_hyphen": "698-0041", "pref": "島根県", "city": "益田市", "town": "高津町", "full": "島根県益田市高津町"}, {"postal_code": "6980031", "postal_hyphen": "698-0031", "pref": "島根県", "city": "益田市", "town": "多田町", "full": "島根県益田市多田町"}, {"postal_code": "6993504", "postal_hyphen": "699-3504", "pref": "島根県", "city": "益田市", "town": "種村町", "full": "島根県益田市種村町"}, {"postal_code": "6993671", "postal_hyphen": "699-3671", "pref": "島根県", "city": "益田市", "town": "津田町", "full": "島根県益田市津田町"}, {"postal_code": "6993505", "postal_hyphen": "699-3505", "pref": "島根県", "city": "益田市", "town": "土田町", "full": "島根県益田市土田町"}, {"postal_code": "6980016", "postal_hyphen": "698-0016", "pref": "島根県", "city": "益田市", "town": "土井町", "full": "島根県益田市土井町"}, {"postal_code": "6993676", "postal_hyphen": "699-3676", "pref": "島根県", "city": "益田市", "town": "遠田町", "full": "島根県益田市遠田町"}, {"postal_code": "6980023", "postal_hyphen": "698-0023", "pref": "島根県", "city": "益田市", "town": "常盤町", "full": "島根県益田市常盤町"}, {"postal_code": "6993763", "postal_hyphen": "699-3763", "pref": "島根県", "city": "益田市", "town": "戸田町", "full": "島根県益田市戸田町"}, {"postal_code": "6980015", "postal_hyphen": "698-0015", "pref": "島根県", "city": "益田市", "town": "栃山町", "full": "島根県益田市栃山町"}, {"postal_code": "6982146", "postal_hyphen": "698-2146", "pref": "島根県", "city": "益田市", "town": "中垣内町", "full": "島根県益田市中垣内町"}, {"postal_code": "6980044", "postal_hyphen": "698-0044", "pref": "島根県", "city": "益田市", "town": "中須町", "full": "島根県益田市中須町"}, {"postal_code": "6980043", "postal_hyphen": "698-0043", "pref": "島根県", "city": "益田市", "town": "中島町", "full": "島根県益田市中島町"}, {"postal_code": "6980042", "postal_hyphen": "698-0042", "pref": "島根県", "city": "益田市", "town": "中吉田町", "full": "島根県益田市中吉田町"}, {"postal_code": "6980412", "postal_hyphen": "698-0412", "pref": "島根県", "city": "益田市", "town": "長沢町", "full": "島根県益田市長沢町"}, {"postal_code": "6980017", "postal_hyphen": "698-0017", "pref": "島根県", "city": "益田市", "town": "七尾町", "full": "島根県益田市七尾町"}, {"postal_code": "6993506", "postal_hyphen": "699-3506", "pref": "島根県", "city": "益田市", "town": "西平原町", "full": "島根県益田市西平原町"}, {"postal_code": "6980411", "postal_hyphen": "698-0411", "pref": "島根県", "city": "益田市", "town": "波田町", "full": "島根県益田市波田町"}, {"postal_code": "6980004", "postal_hyphen": "698-0004", "pref": "島根県", "city": "益田市", "town": "東町", "full": "島根県益田市東町"}, {"postal_code": "6981223", "postal_hyphen": "698-1223", "pref": "島根県", "city": "益田市", "town": "匹見町石谷", "full": "島根県益田市匹見町石谷"}, {"postal_code": "6981213", "postal_hyphen": "698-1213", "pref": "島根県", "city": "益田市", "town": "匹見町落合", "full": "島根県益田市匹見町落合"}, {"postal_code": "6981212", "postal_hyphen": "698-1212", "pref": "島根県", "city": "益田市", "town": "匹見町紙祖", "full": "島根県益田市匹見町紙祖"}, {"postal_code": "6981221", "postal_hyphen": "698-1221", "pref": "島根県", "city": "益田市", "town": "匹見町澄川", "full": "島根県益田市匹見町澄川"}, {"postal_code": "6981211", "postal_hyphen": "698-1211", "pref": "島根県", "city": "益田市", "town": "匹見町匹見", "full": "島根県益田市匹見町匹見"}, {"postal_code": "6981222", "postal_hyphen": "698-1222", "pref": "島根県", "city": "益田市", "town": "匹見町広瀬", "full": "島根県益田市匹見町広瀬"}, {"postal_code": "6981201", "postal_hyphen": "698-1201", "pref": "島根県", "city": "益田市", "town": "匹見町道川", "full": "島根県益田市匹見町道川"}, {"postal_code": "6995121", "postal_hyphen": "699-5121", "pref": "島根県", "city": "益田市", "town": "左ケ山町", "full": "島根県益田市左ケ山町"}, {"postal_code": "6995122", "postal_hyphen": "699-5122", "pref": "島根県", "city": "益田市", "town": "本俣賀町", "full": "島根県益田市本俣賀町"}, {"postal_code": "6980005", "postal_hyphen": "698-0005", "pref": "島根県", "city": "益田市", "town": "本町", "full": "島根県益田市本町"}, {"postal_code": "6980032", "postal_hyphen": "698-0032", "pref": "島根県", "city": "益田市", "town": "水分町", "full": "島根県益田市水分町"}, {"postal_code": "6980213", "postal_hyphen": "698-0213", "pref": "島根県", "city": "益田市", "town": "美都町朝倉", "full": "島根県益田市美都町朝倉"}, {"postal_code": "6980201", "postal_hyphen": "698-0201", "pref": "島根県", "city": "益田市", "town": "美都町板井川", "full": "島根県益田市美都町板井川"}, {"postal_code": "6980202", "postal_hyphen": "698-0202", "pref": "島根県", "city": "益田市", "town": "美都町宇津川", "full": "島根県益田市美都町宇津川"}, {"postal_code": "6980206", "postal_hyphen": "698-0206", "pref": "島根県", "city": "益田市", "town": "美都町久原", "full": "島根県益田市美都町久原"}, {"postal_code": "6980211", "postal_hyphen": "698-0211", "pref": "島根県", "city": "益田市", "town": "美都町小原", "full": "島根県益田市美都町小原"}, {"postal_code": "6980214", "postal_hyphen": "698-0214", "pref": "島根県", "city": "益田市", "town": "美都町笹倉", "full": "島根県益田市美都町笹倉"}, {"postal_code": "6980212", "postal_hyphen": "698-0212", "pref": "島根県", "city": "益田市", "town": "美都町仙道", "full": "島根県益田市美都町仙道"}, {"postal_code": "6980203", "postal_hyphen": "698-0203", "pref": "島根県", "city": "益田市", "town": "美都町都茂", "full": "島根県益田市美都町都茂"}, {"postal_code": "6980207", "postal_hyphen": "698-0207", "pref": "島根県", "city": "益田市", "town": "美都町丸茂", "full": "島根県益田市美都町丸茂"}, {"postal_code": "6980205", "postal_hyphen": "698-0205", "pref": "島根県", "city": "益田市", "town": "美都町三谷", "full": "島根県益田市美都町三谷"}, {"postal_code": "6980204", "postal_hyphen": "698-0204", "pref": "島根県", "city": "益田市", "town": "美都町山本", "full": "島根県益田市美都町山本"}, {"postal_code": "6993766", "postal_hyphen": "699-3766", "pref": "島根県", "city": "益田市", "town": "美濃地町", "full": "島根県益田市美濃地町"}, {"postal_code": "6980006", "postal_hyphen": "698-0006", "pref": "島根県", "city": "益田市", "town": "三宅町", "full": "島根県益田市三宅町"}, {"postal_code": "6995134", "postal_hyphen": "699-5134", "pref": "島根県", "city": "益田市", "town": "向横田町", "full": "島根県益田市向横田町"}, {"postal_code": "6982144", "postal_hyphen": "698-2144", "pref": "島根県", "city": "益田市", "town": "虫追町", "full": "島根県益田市虫追町"}, {"postal_code": "6980033", "postal_hyphen": "698-0033", "pref": "島根県", "city": "益田市", "town": "元町", "full": "島根県益田市元町"}, {"postal_code": "6995131", "postal_hyphen": "699-5131", "pref": "島根県", "city": "益田市", "town": "安富町", "full": "島根県益田市安富町"}, {"postal_code": "6993673", "postal_hyphen": "699-3673", "pref": "島根県", "city": "益田市", "town": "山折町", "full": "島根県益田市山折町"}, {"postal_code": "6995132", "postal_hyphen": "699-5132", "pref": "島根県", "city": "益田市", "town": "横田町", "full": "島根県益田市横田町"}, {"postal_code": "6940000", "postal_hyphen": "694-0000", "pref": "島根県", "city": "大田市", "town": "", "full": "島根県大田市"}, {"postal_code": "6992213", "postal_hyphen": "699-2213", "pref": "島根県", "city": "大田市", "town": "朝山町朝倉", "full": "島根県大田市朝山町朝倉"}, {"postal_code": "6992212", "postal_hyphen": "699-2212", "pref": "島根県", "city": "大田市", "town": "朝山町仙山", "full": "島根県大田市朝山町仙山"}, {"postal_code": "6940035", "postal_hyphen": "694-0035", "pref": "島根県", "city": "大田市", "town": "五十猛町", "full": "島根県大田市五十猛町"}, {"postal_code": "6940433", "postal_hyphen": "694-0433", "pref": "島根県", "city": "大田市", "town": "大代町大家", "full": "島根県大田市大代町大家"}, {"postal_code": "6940432", "postal_hyphen": "694-0432", "pref": "島根県", "city": "大田市", "town": "大代町新屋", "full": "島根県大田市大代町新屋"}, {"postal_code": "6940064", "postal_hyphen": "694-0064", "pref": "島根県", "city": "大田市", "town": "大田町大田", "full": "島根県大田市大田町大田"}, {"postal_code": "6940062", "postal_hyphen": "694-0062", "pref": "島根県", "city": "大田市", "town": "大田町野城", "full": "島根県大田市大田町野城"}, {"postal_code": "6940063", "postal_hyphen": "694-0063", "pref": "島根県", "city": "大田市", "town": "大田町吉永", "full": "島根県大田市大田町吉永"}, {"postal_code": "6940305", "postal_hyphen": "694-0305", "pref": "島根県", "city": "大田市", "town": "大森町", "full": "島根県大田市大森町"}, {"postal_code": "6940033", "postal_hyphen": "694-0033", "pref": "島根県", "city": "大田市", "town": "大屋町大国", "full": "島根県大田市大屋町大国"}, {"postal_code": "6940034", "postal_hyphen": "694-0034", "pref": "島根県", "city": "大田市", "town": "大屋町大屋", "full": "島根県大田市大屋町大屋"}, {"postal_code": "6940032", "postal_hyphen": "694-0032", "pref": "島根県", "city": "大田市", "town": "大屋町鬼村", "full": "島根県大田市大屋町鬼村"}, {"postal_code": "6940012", "postal_hyphen": "694-0012", "pref": "島根県", "city": "大田市", "town": "川合町忍原", "full": "島根県大田市川合町忍原"}, {"postal_code": "6940011", "postal_hyphen": "694-0011", "pref": "島根県", "city": "大田市", "town": "川合町川合", "full": "島根県大田市川合町川合"}, {"postal_code": "6940013", "postal_hyphen": "694-0013", "pref": "島根県", "city": "大田市", "town": "川合町吉永", "full": "島根県大田市川合町吉永"}, {"postal_code": "6940052", "postal_hyphen": "694-0052", "pref": "島根県", "city": "大田市", "town": "久手町刺鹿", "full": "島根県大田市久手町刺鹿"}, {"postal_code": "6940051", "postal_hyphen": "694-0051", "pref": "島根県", "city": "大田市", "town": "久手町波根西", "full": "島根県大田市久手町波根西"}, {"postal_code": "6940022", "postal_hyphen": "694-0022", "pref": "島根県", "city": "大田市", "town": "久利町市原", "full": "島根県大田市久利町市原"}, {"postal_code": "6940024", "postal_hyphen": "694-0024", "pref": "島根県", "city": "大田市", "town": "久利町久利", "full": "島根県大田市久利町久利"}, {"postal_code": "6940023", "postal_hyphen": "694-0023", "pref": "島根県", "city": "大田市", "town": "久利町佐摩", "full": "島根県大田市久利町佐摩"}, {"postal_code": "6940025", "postal_hyphen": "694-0025", "pref": "島根県", "city": "大田市", "town": "久利町松代", "full": "島根県大田市久利町松代"}, {"postal_code": "6940021", "postal_hyphen": "694-0021", "pref": "島根県", "city": "大田市", "town": "久利町行恒", "full": "島根県大田市久利町行恒"}, {"postal_code": "6940223", "postal_hyphen": "694-0223", "pref": "島根県", "city": "大田市", "town": "三瓶町池田", "full": "島根県大田市三瓶町池田"}, {"postal_code": "6940221", "postal_hyphen": "694-0221", "pref": "島根県", "city": "大田市", "town": "三瓶町上山", "full": "島根県大田市三瓶町上山"}, {"postal_code": "6940224", "postal_hyphen": "694-0224", "pref": "島根県", "city": "大田市", "town": "三瓶町小屋原", "full": "島根県大田市三瓶町小屋原"}, {"postal_code": "6940222", "postal_hyphen": "694-0222", "pref": "島根県", "city": "大田市", "town": "三瓶町志学", "full": "島根県大田市三瓶町志学"}, {"postal_code": "6940003", "postal_hyphen": "694-0003", "pref": "島根県", "city": "大田市", "town": "三瓶町多根", "full": "島根県大田市三瓶町多根"}, {"postal_code": "6940004", "postal_hyphen": "694-0004", "pref": "島根県", "city": "大田市", "town": "三瓶町野城", "full": "島根県大田市三瓶町野城"}, {"postal_code": "6940031", "postal_hyphen": "694-0031", "pref": "島根県", "city": "大田市", "town": "静間町", "full": "島根県大田市静間町"}, {"postal_code": "6940431", "postal_hyphen": "694-0431", "pref": "島根県", "city": "大田市", "town": "祖式町", "full": "島根県大田市祖式町"}, {"postal_code": "6992214", "postal_hyphen": "699-2214", "pref": "島根県", "city": "大田市", "town": "富山町神原", "full": "島根県大田市富山町神原"}, {"postal_code": "6992215", "postal_hyphen": "699-2215", "pref": "島根県", "city": "大田市", "town": "富山町才坂", "full": "島根県大田市富山町才坂"}, {"postal_code": "6940061", "postal_hyphen": "694-0061", "pref": "島根県", "city": "大田市", "town": "富山町山中（押ケ峠）", "full": "島根県大田市富山町山中（押ケ峠）"}, {"postal_code": "6992216", "postal_hyphen": "699-2216", "pref": "島根県", "city": "大田市", "town": "富山町山中（その他）", "full": "島根県大田市富山町山中（その他）"}, {"postal_code": "6940054", "postal_hyphen": "694-0054", "pref": "島根県", "city": "大田市", "town": "鳥井町鳥井", "full": "島根県大田市鳥井町鳥井"}, {"postal_code": "6940053", "postal_hyphen": "694-0053", "pref": "島根県", "city": "大田市", "town": "鳥井町鳥越", "full": "島根県大田市鳥井町鳥越"}, {"postal_code": "6940042", "postal_hyphen": "694-0042", "pref": "島根県", "city": "大田市", "town": "長久町稲用", "full": "島根県大田市長久町稲用"}, {"postal_code": "6940044", "postal_hyphen": "694-0044", "pref": "島根県", "city": "大田市", "town": "長久町土江", "full": "島根県大田市長久町土江"}, {"postal_code": "6940041", "postal_hyphen": "694-0041", "pref": "島根県", "city": "大田市", "town": "長久町長久", "full": "島根県大田市長久町長久"}, {"postal_code": "6940043", "postal_hyphen": "694-0043", "pref": "島根県", "city": "大田市", "town": "長久町延里", "full": "島根県大田市長久町延里"}, {"postal_code": "6992305", "postal_hyphen": "699-2305", "pref": "島根県", "city": "大田市", "town": "仁摩町天河内", "full": "島根県大田市仁摩町天河内"}, {"postal_code": "6992303", "postal_hyphen": "699-2303", "pref": "島根県", "city": "大田市", "town": "仁摩町大国", "full": "島根県大田市仁摩町大国"}, {"postal_code": "6992302", "postal_hyphen": "699-2302", "pref": "島根県", "city": "大田市", "town": "仁摩町宅野", "full": "島根県大田市仁摩町宅野"}, {"postal_code": "6992301", "postal_hyphen": "699-2301", "pref": "島根県", "city": "大田市", "town": "仁摩町仁万", "full": "島根県大田市仁摩町仁万"}, {"postal_code": "6992304", "postal_hyphen": "699-2304", "pref": "島根県", "city": "大田市", "town": "仁摩町馬路", "full": "島根県大田市仁摩町馬路"}, {"postal_code": "6992211", "postal_hyphen": "699-2211", "pref": "島根県", "city": "大田市", "town": "波根町", "full": "島根県大田市波根町"}, {"postal_code": "6940301", "postal_hyphen": "694-0301", "pref": "島根県", "city": "大田市", "town": "水上町荻原", "full": "島根県大田市水上町荻原"}, {"postal_code": "6940303", "postal_hyphen": "694-0303", "pref": "島根県", "city": "大田市", "town": "水上町白坏", "full": "島根県大田市水上町白坏"}, {"postal_code": "6940302", "postal_hyphen": "694-0302", "pref": "島根県", "city": "大田市", "town": "水上町福原", "full": "島根県大田市水上町福原"}, {"postal_code": "6940304", "postal_hyphen": "694-0304", "pref": "島根県", "city": "大田市", "town": "水上町三久須", "full": "島根県大田市水上町三久須"}, {"postal_code": "6940001", "postal_hyphen": "694-0001", "pref": "島根県", "city": "大田市", "town": "山口町佐津目", "full": "島根県大田市山口町佐津目"}, {"postal_code": "6940002", "postal_hyphen": "694-0002", "pref": "島根県", "city": "大田市", "town": "山口町山口", "full": "島根県大田市山口町山口"}, {"postal_code": "6992507", "postal_hyphen": "699-2507", "pref": "島根県", "city": "大田市", "town": "温泉津町井田", "full": "島根県大田市温泉津町井田"}, {"postal_code": "6992515", "postal_hyphen": "699-2515", "pref": "島根県", "city": "大田市", "town": "温泉津町今浦", "full": "島根県大田市温泉津町今浦"}, {"postal_code": "6992505", "postal_hyphen": "699-2505", "pref": "島根県", "city": "大田市", "town": "温泉津町太田", "full": "島根県大田市温泉津町太田"}, {"postal_code": "6992504", "postal_hyphen": "699-2504", "pref": "島根県", "city": "大田市", "town": "温泉津町荻村", "full": "島根県大田市温泉津町荻村"}, {"postal_code": "6992513", "postal_hyphen": "699-2513", "pref": "島根県", "city": "大田市", "town": "温泉津町上村", "full": "島根県大田市温泉津町上村"}, {"postal_code": "6992511", "postal_hyphen": "699-2511", "pref": "島根県", "city": "大田市", "town": "温泉津町小浜", "full": "島根県大田市温泉津町小浜"}, {"postal_code": "6992503", "postal_hyphen": "699-2503", "pref": "島根県", "city": "大田市", "town": "温泉津町西田", "full": "島根県大田市温泉津町西田"}, {"postal_code": "6992512", "postal_hyphen": "699-2512", "pref": "島根県", "city": "大田市", "town": "温泉津町飯原", "full": "島根県大田市温泉津町飯原"}, {"postal_code": "6992506", "postal_hyphen": "699-2506", "pref": "島根県", "city": "大田市", "town": "温泉津町福田", "full": "島根県大田市温泉津町福田"}, {"postal_code": "6992514", "postal_hyphen": "699-2514", "pref": "島根県", "city": "大田市", "town": "温泉津町福光", "full": "島根県大田市温泉津町福光"}, {"postal_code": "6992502", "postal_hyphen": "699-2502", "pref": "島根県", "city": "大田市", "town": "温泉津町湯里", "full": "島根県大田市温泉津町湯里"}, {"postal_code": "6992501", "postal_hyphen": "699-2501", "pref": "島根県", "city": "大田市", "town": "温泉津町温泉津", "full": "島根県大田市温泉津町温泉津"}, {"postal_code": "6992516", "postal_hyphen": "699-2516", "pref": "島根県", "city": "大田市", "town": "温泉津町吉浦", "full": "島根県大田市温泉津町吉浦"}, {"postal_code": "6920000", "postal_hyphen": "692-0000", "pref": "島根県", "city": "安来市", "town": "", "full": "島根県安来市"}, {"postal_code": "6920001", "postal_hyphen": "692-0001", "pref": "島根県", "city": "安来市", "town": "赤江町", "full": "島根県安来市赤江町"}, {"postal_code": "6920052", "postal_hyphen": "692-0052", "pref": "島根県", "city": "安来市", "town": "赤崎町", "full": "島根県安来市赤崎町"}, {"postal_code": "6920007", "postal_hyphen": "692-0007", "pref": "島根県", "city": "安来市", "town": "荒島町", "full": "島根県安来市荒島町"}, {"postal_code": "6920066", "postal_hyphen": "692-0066", "pref": "島根県", "city": "安来市", "town": "飯梨町", "full": "島根県安来市飯梨町"}, {"postal_code": "6920055", "postal_hyphen": "692-0055", "pref": "島根県", "city": "安来市", "town": "飯生町", "full": "島根県安来市飯生町"}, {"postal_code": "6920015", "postal_hyphen": "692-0015", "pref": "島根県", "city": "安来市", "town": "今津町", "full": "島根県安来市今津町"}, {"postal_code": "6920065", "postal_hyphen": "692-0065", "pref": "島根県", "city": "安来市", "town": "岩舟町", "full": "島根県安来市岩舟町"}, {"postal_code": "6920063", "postal_hyphen": "692-0063", "pref": "島根県", "city": "安来市", "town": "植田町", "full": "島根県安来市植田町"}, {"postal_code": "6920034", "postal_hyphen": "692-0034", "pref": "島根県", "city": "安来市", "town": "宇賀荘町", "full": "島根県安来市宇賀荘町"}, {"postal_code": "6920057", "postal_hyphen": "692-0057", "pref": "島根県", "city": "安来市", "town": "恵乃島町", "full": "島根県安来市恵乃島町"}, {"postal_code": "6920042", "postal_hyphen": "692-0042", "pref": "島根県", "city": "安来市", "town": "大塚町", "full": "島根県安来市大塚町"}, {"postal_code": "6920046", "postal_hyphen": "692-0046", "pref": "島根県", "city": "安来市", "town": "折坂町", "full": "島根県安来市折坂町"}, {"postal_code": "6920045", "postal_hyphen": "692-0045", "pref": "島根県", "city": "安来市", "town": "柿谷町", "full": "島根県安来市柿谷町"}, {"postal_code": "6920027", "postal_hyphen": "692-0027", "pref": "島根県", "city": "安来市", "town": "門生町", "full": "島根県安来市門生町"}, {"postal_code": "6920002", "postal_hyphen": "692-0002", "pref": "島根県", "city": "安来市", "town": "上坂田町", "full": "島根県安来市上坂田町"}, {"postal_code": "6920043", "postal_hyphen": "692-0043", "pref": "島根県", "city": "安来市", "town": "上吉田町", "full": "島根県安来市上吉田町"}, {"postal_code": "6920071", "postal_hyphen": "692-0071", "pref": "島根県", "city": "安来市", "town": "亀島町", "full": "島根県安来市亀島町"}, {"postal_code": "6920075", "postal_hyphen": "692-0075", "pref": "島根県", "city": "安来市", "town": "神庭町", "full": "島根県安来市神庭町"}, {"postal_code": "6920026", "postal_hyphen": "692-0026", "pref": "島根県", "city": "安来市", "town": "吉佐町", "full": "島根県安来市吉佐町"}, {"postal_code": "6920056", "postal_hyphen": "692-0056", "pref": "島根県", "city": "安来市", "town": "清井町", "full": "島根県安来市清井町"}, {"postal_code": "6920035", "postal_hyphen": "692-0035", "pref": "島根県", "city": "安来市", "town": "清瀬町", "full": "島根県安来市清瀬町"}, {"postal_code": "6920033", "postal_hyphen": "692-0033", "pref": "島根県", "city": "安来市", "town": "清水町", "full": "島根県安来市清水町"}, {"postal_code": "6920051", "postal_hyphen": "692-0051", "pref": "島根県", "city": "安来市", "town": "切川町", "full": "島根県安来市切川町"}, {"postal_code": "6920004", "postal_hyphen": "692-0004", "pref": "島根県", "city": "安来市", "town": "久白町", "full": "島根県安来市久白町"}, {"postal_code": "6920032", "postal_hyphen": "692-0032", "pref": "島根県", "city": "安来市", "town": "九重町", "full": "島根県安来市九重町"}, {"postal_code": "6920023", "postal_hyphen": "692-0023", "pref": "島根県", "city": "安来市", "town": "黒井田町", "full": "島根県安来市黒井田町"}, {"postal_code": "6920031", "postal_hyphen": "692-0031", "pref": "島根県", "city": "安来市", "town": "佐久保町", "full": "島根県安来市佐久保町"}, {"postal_code": "6920062", "postal_hyphen": "692-0062", "pref": "島根県", "city": "安来市", "town": "実松町", "full": "島根県安来市実松町"}, {"postal_code": "6920053", "postal_hyphen": "692-0053", "pref": "島根県", "city": "安来市", "town": "沢町", "full": "島根県安来市沢町"}, {"postal_code": "6920028", "postal_hyphen": "692-0028", "pref": "島根県", "city": "安来市", "town": "汐手が丘", "full": "島根県安来市汐手が丘"}, {"postal_code": "6920024", "postal_hyphen": "692-0024", "pref": "島根県", "city": "安来市", "town": "島田町", "full": "島根県安来市島田町"}, {"postal_code": "6920017", "postal_hyphen": "692-0017", "pref": "島根県", "city": "安来市", "town": "下坂田町", "full": "島根県安来市下坂田町"}, {"postal_code": "6920044", "postal_hyphen": "692-0044", "pref": "島根県", "city": "安来市", "town": "下吉田町", "full": "島根県安来市下吉田町"}, {"postal_code": "6920021", "postal_hyphen": "692-0021", "pref": "島根県", "city": "安来市", "town": "新十神町", "full": "島根県安来市新十神町"}, {"postal_code": "6920047", "postal_hyphen": "692-0047", "pref": "島根県", "city": "安来市", "town": "早田町", "full": "島根県安来市早田町"}, {"postal_code": "6920067", "postal_hyphen": "692-0067", "pref": "島根県", "city": "安来市", "town": "田頼町", "full": "島根県安来市田頼町"}, {"postal_code": "6920013", "postal_hyphen": "692-0013", "pref": "島根県", "city": "安来市", "town": "月坂町", "full": "島根県安来市月坂町"}, {"postal_code": "6920054", "postal_hyphen": "692-0054", "pref": "島根県", "city": "安来市", "town": "利弘町", "full": "島根県安来市利弘町"}, {"postal_code": "6920041", "postal_hyphen": "692-0041", "pref": "島根県", "city": "安来市", "town": "鳥木町", "full": "島根県安来市鳥木町"}, {"postal_code": "6920074", "postal_hyphen": "692-0074", "pref": "島根県", "city": "安来市", "town": "中海町", "full": "島根県安来市中海町"}, {"postal_code": "6920061", "postal_hyphen": "692-0061", "pref": "島根県", "city": "安来市", "town": "中津町", "full": "島根県安来市中津町"}, {"postal_code": "6920003", "postal_hyphen": "692-0003", "pref": "島根県", "city": "安来市", "town": "西赤江町", "full": "島根県安来市西赤江町"}, {"postal_code": "6920006", "postal_hyphen": "692-0006", "pref": "島根県", "city": "安来市", "town": "西荒島町", "full": "島根県安来市西荒島町"}, {"postal_code": "6920058", "postal_hyphen": "692-0058", "pref": "島根県", "city": "安来市", "town": "西恵乃島町", "full": "島根県安来市西恵乃島町"}, {"postal_code": "6920077", "postal_hyphen": "692-0077", "pref": "島根県", "city": "安来市", "town": "西松井町", "full": "島根県安来市西松井町"}, {"postal_code": "6920036", "postal_hyphen": "692-0036", "pref": "島根県", "city": "安来市", "town": "野方町", "full": "島根県安来市野方町"}, {"postal_code": "6920072", "postal_hyphen": "692-0072", "pref": "島根県", "city": "安来市", "town": "能義町", "full": "島根県安来市能義町"}, {"postal_code": "6920321", "postal_hyphen": "692-0321", "pref": "島根県", "city": "安来市", "town": "伯太町赤屋", "full": "島根県安来市伯太町赤屋"}, {"postal_code": "6920213", "postal_hyphen": "692-0213", "pref": "島根県", "city": "安来市", "town": "伯太町井尻", "full": "島根県安来市伯太町井尻"}, {"postal_code": "6920322", "postal_hyphen": "692-0322", "pref": "島根県", "city": "安来市", "town": "伯太町上小竹", "full": "島根県安来市伯太町上小竹"}, {"postal_code": "6920325", "postal_hyphen": "692-0325", "pref": "島根県", "city": "安来市", "town": "伯太町上十年畑", "full": "島根県安来市伯太町上十年畑"}, {"postal_code": "6920324", "postal_hyphen": "692-0324", "pref": "島根県", "city": "安来市", "town": "伯太町草野", "full": "島根県安来市伯太町草野"}, {"postal_code": "6920323", "postal_hyphen": "692-0323", "pref": "島根県", "city": "安来市", "town": "伯太町下小竹", "full": "島根県安来市伯太町下小竹"}, {"postal_code": "6920326", "postal_hyphen": "692-0326", "pref": "島根県", "city": "安来市", "town": "伯太町下十年畑", "full": "島根県安来市伯太町下十年畑"}, {"postal_code": "6920214", "postal_hyphen": "692-0214", "pref": "島根県", "city": "安来市", "town": "伯太町須山福冨", "full": "島根県安来市伯太町須山福冨"}, {"postal_code": "6920215", "postal_hyphen": "692-0215", "pref": "島根県", "city": "安来市", "town": "伯太町高江寸次", "full": "島根県安来市伯太町高江寸次"}, {"postal_code": "6920218", "postal_hyphen": "692-0218", "pref": "島根県", "city": "安来市", "town": "伯太町峠之内", "full": "島根県安来市伯太町峠之内"}, {"postal_code": "6920212", "postal_hyphen": "692-0212", "pref": "島根県", "city": "安来市", "town": "伯太町西母里", "full": "島根県安来市伯太町西母里"}, {"postal_code": "6920207", "postal_hyphen": "692-0207", "pref": "島根県", "city": "安来市", "town": "伯太町東母里", "full": "島根県安来市伯太町東母里"}, {"postal_code": "6920216", "postal_hyphen": "692-0216", "pref": "島根県", "city": "安来市", "town": "伯太町日次", "full": "島根県安来市伯太町日次"}, {"postal_code": "6920203", "postal_hyphen": "692-0203", "pref": "島根県", "city": "安来市", "town": "伯太町未明", "full": "島根県安来市伯太町未明"}, {"postal_code": "6920211", "postal_hyphen": "692-0211", "pref": "島根県", "city": "安来市", "town": "伯太町母里", "full": "島根県安来市伯太町母里"}, {"postal_code": "6920206", "postal_hyphen": "692-0206", "pref": "島根県", "city": "安来市", "town": "伯太町安田", "full": "島根県安来市伯太町安田"}, {"postal_code": "6920202", "postal_hyphen": "692-0202", "pref": "島根県", "city": "安来市", "town": "伯太町安田関", "full": "島根県安来市伯太町安田関"}, {"postal_code": "6920205", "postal_hyphen": "692-0205", "pref": "島根県", "city": "安来市", "town": "伯太町安田中", "full": "島根県安来市伯太町安田中"}, {"postal_code": "6920204", "postal_hyphen": "692-0204", "pref": "島根県", "city": "安来市", "town": "伯太町安田宮内", "full": "島根県安来市伯太町安田宮内"}, {"postal_code": "6920201", "postal_hyphen": "692-0201", "pref": "島根県", "city": "安来市", "town": "伯太町安田山形", "full": "島根県安来市伯太町安田山形"}, {"postal_code": "6920217", "postal_hyphen": "692-0217", "pref": "島根県", "city": "安来市", "town": "伯太町横屋", "full": "島根県安来市伯太町横屋"}, {"postal_code": "6920014", "postal_hyphen": "692-0014", "pref": "島根県", "city": "安来市", "town": "飯島町", "full": "島根県安来市飯島町"}, {"postal_code": "6920016", "postal_hyphen": "692-0016", "pref": "島根県", "city": "安来市", "town": "東赤江町", "full": "島根県安来市東赤江町"}, {"postal_code": "6920005", "postal_hyphen": "692-0005", "pref": "島根県", "city": "安来市", "town": "日白町", "full": "島根県安来市日白町"}, {"postal_code": "6920401", "postal_hyphen": "692-0401", "pref": "島根県", "city": "安来市", "town": "広瀬町石原", "full": "島根県安来市広瀬町石原"}, {"postal_code": "6920622", "postal_hyphen": "692-0622", "pref": "島根県", "city": "安来市", "town": "広瀬町宇波", "full": "島根県安来市広瀬町宇波"}, {"postal_code": "6920625", "postal_hyphen": "692-0625", "pref": "島根県", "city": "安来市", "town": "広瀬町奥田原", "full": "島根県安来市広瀬町奥田原"}, {"postal_code": "6920405", "postal_hyphen": "692-0405", "pref": "島根県", "city": "安来市", "town": "広瀬町祖父谷", "full": "島根県安来市広瀬町祖父谷"}, {"postal_code": "6920732", "postal_hyphen": "692-0732", "pref": "島根県", "city": "安来市", "town": "広瀬町梶福留", "full": "島根県安来市広瀬町梶福留"}, {"postal_code": "6920413", "postal_hyphen": "692-0413", "pref": "島根県", "city": "安来市", "town": "広瀬町上山佐", "full": "島根県安来市広瀬町上山佐"}, {"postal_code": "6920412", "postal_hyphen": "692-0412", "pref": "島根県", "city": "安来市", "town": "広瀬町下山佐", "full": "島根県安来市広瀬町下山佐"}, {"postal_code": "6920411", "postal_hyphen": "692-0411", "pref": "島根県", "city": "安来市", "town": "広瀬町菅原（下田原）", "full": "島根県安来市広瀬町菅原（下田原）"}, {"postal_code": "6920621", "postal_hyphen": "692-0621", "pref": "島根県", "city": "安来市", "town": "広瀬町菅原（その他）", "full": "島根県安来市広瀬町菅原（その他）"}, {"postal_code": "6920403", "postal_hyphen": "692-0403", "pref": "島根県", "city": "安来市", "town": "広瀬町富田", "full": "島根県安来市広瀬町富田"}, {"postal_code": "6920624", "postal_hyphen": "692-0624", "pref": "島根県", "city": "安来市", "town": "広瀬町西谷", "full": "島根県安来市広瀬町西谷"}, {"postal_code": "6920731", "postal_hyphen": "692-0731", "pref": "島根県", "city": "安来市", "town": "広瀬町西比田", "full": "島根県安来市広瀬町西比田"}, {"postal_code": "6920733", "postal_hyphen": "692-0733", "pref": "島根県", "city": "安来市", "town": "広瀬町東比田", "full": "島根県安来市広瀬町東比田"}, {"postal_code": "6920404", "postal_hyphen": "692-0404", "pref": "島根県", "city": "安来市", "town": "広瀬町広瀬", "full": "島根県安来市広瀬町広瀬"}, {"postal_code": "6920623", "postal_hyphen": "692-0623", "pref": "島根県", "city": "安来市", "town": "広瀬町布部", "full": "島根県安来市広瀬町布部"}, {"postal_code": "6920402", "postal_hyphen": "692-0402", "pref": "島根県", "city": "安来市", "town": "広瀬町町帳", "full": "島根県安来市広瀬町町帳"}, {"postal_code": "6920064", "postal_hyphen": "692-0064", "pref": "島根県", "city": "安来市", "town": "古川町", "full": "島根県安来市古川町"}, {"postal_code": "6920025", "postal_hyphen": "692-0025", "pref": "島根県", "city": "安来市", "town": "穂日島町", "full": "島根県安来市穂日島町"}, {"postal_code": "6920022", "postal_hyphen": "692-0022", "pref": "島根県", "city": "安来市", "town": "南十神町", "full": "島根県安来市南十神町"}, {"postal_code": "6920012", "postal_hyphen": "692-0012", "pref": "島根県", "city": "安来市", "town": "宮内町", "full": "島根県安来市宮内町"}, {"postal_code": "6920011", "postal_hyphen": "692-0011", "pref": "島根県", "city": "安来市", "town": "安来町", "full": "島根県安来市安来町"}, {"postal_code": "6920073", "postal_hyphen": "692-0073", "pref": "島根県", "city": "安来市", "town": "矢田町", "full": "島根県安来市矢田町"}, {"postal_code": "6920037", "postal_hyphen": "692-0037", "pref": "島根県", "city": "安来市", "town": "吉岡町", "full": "島根県安来市吉岡町"}, {"postal_code": "6950000", "postal_hyphen": "695-0000", "pref": "島根県", "city": "江津市", "town": "", "full": "島根県江津市"}, {"postal_code": "6950002", "postal_hyphen": "695-0002", "pref": "島根県", "city": "江津市", "town": "浅利町", "full": "島根県江津市浅利町"}, {"postal_code": "6950152", "postal_hyphen": "695-0152", "pref": "島根県", "city": "江津市", "town": "跡市町", "full": "島根県江津市跡市町"}, {"postal_code": "6950156", "postal_hyphen": "695-0156", "pref": "島根県", "city": "江津市", "town": "有福温泉町", "full": "島根県江津市有福温泉町"}, {"postal_code": "6950155", "postal_hyphen": "695-0155", "pref": "島根県", "city": "江津市", "town": "有福温泉町本明", "full": "島根県江津市有福温泉町本明"}, {"postal_code": "6950154", "postal_hyphen": "695-0154", "pref": "島根県", "city": "江津市", "town": "井沢町", "full": "島根県江津市井沢町"}, {"postal_code": "6992841", "postal_hyphen": "699-2841", "pref": "島根県", "city": "江津市", "town": "後地町", "full": "島根県江津市後地町"}, {"postal_code": "6993162", "postal_hyphen": "699-3162", "pref": "島根県", "city": "江津市", "town": "敬川町", "full": "島根県江津市敬川町"}, {"postal_code": "6950016", "postal_hyphen": "695-0016", "pref": "島根県", "city": "江津市", "town": "嘉久志町", "full": "島根県江津市嘉久志町"}, {"postal_code": "6950012", "postal_hyphen": "695-0012", "pref": "島根県", "city": "江津市", "town": "金田町", "full": "島根県江津市金田町"}, {"postal_code": "6950014", "postal_hyphen": "695-0014", "pref": "島根県", "city": "江津市", "town": "川平町平田", "full": "島根県江津市川平町平田"}, {"postal_code": "6950013", "postal_hyphen": "695-0013", "pref": "島根県", "city": "江津市", "town": "川平町南川上", "full": "島根県江津市川平町南川上"}, {"postal_code": "6992831", "postal_hyphen": "699-2831", "pref": "島根県", "city": "江津市", "town": "黒松町", "full": "島根県江津市黒松町"}, {"postal_code": "6950011", "postal_hyphen": "695-0011", "pref": "島根県", "city": "江津市", "town": "江津町", "full": "島根県江津市江津町"}, {"postal_code": "6994221", "postal_hyphen": "699-4221", "pref": "島根県", "city": "江津市", "town": "桜江町市山", "full": "島根県江津市桜江町市山"}, {"postal_code": "6994222", "postal_hyphen": "699-4222", "pref": "島根県", "city": "江津市", "town": "桜江町今田", "full": "島根県江津市桜江町今田"}, {"postal_code": "6994223", "postal_hyphen": "699-4223", "pref": "島根県", "city": "江津市", "town": "桜江町後山", "full": "島根県江津市桜江町後山"}, {"postal_code": "6994224", "postal_hyphen": "699-4224", "pref": "島根県", "city": "江津市", "town": "桜江町江尾", "full": "島根県江津市桜江町江尾"}, {"postal_code": "6994504", "postal_hyphen": "699-4504", "pref": "島根県", "city": "江津市", "town": "桜江町大貫", "full": "島根県江津市桜江町大貫"}, {"postal_code": "6994225", "postal_hyphen": "699-4225", "pref": "島根県", "city": "江津市", "town": "桜江町小田", "full": "島根県江津市桜江町小田"}, {"postal_code": "6994502", "postal_hyphen": "699-4502", "pref": "島根県", "city": "江津市", "town": "桜江町川越", "full": "島根県江津市桜江町川越"}, {"postal_code": "6994226", "postal_hyphen": "699-4226", "pref": "島根県", "city": "江津市", "town": "桜江町川戸", "full": "島根県江津市桜江町川戸"}, {"postal_code": "6994505", "postal_hyphen": "699-4505", "pref": "島根県", "city": "江津市", "town": "桜江町坂本", "full": "島根県江津市桜江町坂本"}, {"postal_code": "6994501", "postal_hyphen": "699-4501", "pref": "島根県", "city": "江津市", "town": "桜江町鹿賀", "full": "島根県江津市桜江町鹿賀"}, {"postal_code": "6994503", "postal_hyphen": "699-4503", "pref": "島根県", "city": "江津市", "town": "桜江町田津", "full": "島根県江津市桜江町田津"}, {"postal_code": "6994111", "postal_hyphen": "699-4111", "pref": "島根県", "city": "江津市", "town": "桜江町谷住郷", "full": "島根県江津市桜江町谷住郷"}, {"postal_code": "6994431", "postal_hyphen": "699-4431", "pref": "島根県", "city": "江津市", "town": "桜江町長谷", "full": "島根県江津市桜江町長谷"}, {"postal_code": "6994432", "postal_hyphen": "699-4432", "pref": "島根県", "city": "江津市", "town": "桜江町八戸", "full": "島根県江津市桜江町八戸"}, {"postal_code": "6950015", "postal_hyphen": "695-0015", "pref": "島根県", "city": "江津市", "town": "島の星町", "full": "島根県江津市島の星町"}, {"postal_code": "6950153", "postal_hyphen": "695-0153", "pref": "島根県", "city": "江津市", "town": "清見町", "full": "島根県江津市清見町"}, {"postal_code": "6950151", "postal_hyphen": "695-0151", "pref": "島根県", "city": "江津市", "town": "千田町", "full": "島根県江津市千田町"}, {"postal_code": "6992842", "postal_hyphen": "699-2842", "pref": "島根県", "city": "江津市", "town": "都治町", "full": "島根県江津市都治町"}, {"postal_code": "6950021", "postal_hyphen": "695-0021", "pref": "島根県", "city": "江津市", "town": "都野津町", "full": "島根県江津市都野津町"}, {"postal_code": "6950023", "postal_hyphen": "695-0023", "pref": "島根県", "city": "江津市", "town": "二宮町神村", "full": "島根県江津市二宮町神村"}, {"postal_code": "6950024", "postal_hyphen": "695-0024", "pref": "島根県", "city": "江津市", "town": "二宮町神主", "full": "島根県江津市二宮町神主"}, {"postal_code": "6950022", "postal_hyphen": "695-0022", "pref": "島根県", "city": "江津市", "town": "二宮町羽代", "full": "島根県江津市二宮町羽代"}, {"postal_code": "6993161", "postal_hyphen": "699-3161", "pref": "島根県", "city": "江津市", "town": "波子町", "full": "島根県江津市波子町"}, {"postal_code": "6992833", "postal_hyphen": "699-2833", "pref": "島根県", "city": "江津市", "town": "波積町本郷", "full": "島根県江津市波積町本郷"}, {"postal_code": "6992834", "postal_hyphen": "699-2834", "pref": "島根県", "city": "江津市", "town": "波積町南", "full": "島根県江津市波積町南"}, {"postal_code": "6992832", "postal_hyphen": "699-2832", "pref": "島根県", "city": "江津市", "town": "波積町北", "full": "島根県江津市波積町北"}, {"postal_code": "6950004", "postal_hyphen": "695-0004", "pref": "島根県", "city": "江津市", "town": "松川町市村", "full": "島根県江津市松川町市村"}, {"postal_code": "6950007", "postal_hyphen": "695-0007", "pref": "島根県", "city": "江津市", "town": "松川町太田", "full": "島根県江津市松川町太田"}, {"postal_code": "6992837", "postal_hyphen": "699-2837", "pref": "島根県", "city": "江津市", "town": "松川町上河戸", "full": "島根県江津市松川町上河戸"}, {"postal_code": "6950003", "postal_hyphen": "695-0003", "pref": "島根県", "city": "江津市", "town": "松川町下河戸", "full": "島根県江津市松川町下河戸"}, {"postal_code": "6992835", "postal_hyphen": "699-2835", "pref": "島根県", "city": "江津市", "town": "松川町上津井", "full": "島根県江津市松川町上津井"}, {"postal_code": "6950005", "postal_hyphen": "695-0005", "pref": "島根県", "city": "江津市", "town": "松川町長良", "full": "島根県江津市松川町長良"}, {"postal_code": "6992836", "postal_hyphen": "699-2836", "pref": "島根県", "city": "江津市", "town": "松川町畑田", "full": "島根県江津市松川町畑田"}, {"postal_code": "6950006", "postal_hyphen": "695-0006", "pref": "島根県", "city": "江津市", "town": "松川町八神", "full": "島根県江津市松川町八神"}, {"postal_code": "6950017", "postal_hyphen": "695-0017", "pref": "島根県", "city": "江津市", "town": "和木町", "full": "島根県江津市和木町"}, {"postal_code": "6950001", "postal_hyphen": "695-0001", "pref": "島根県", "city": "江津市", "town": "渡津町", "full": "島根県江津市渡津町"}, {"postal_code": "6902400", "postal_hyphen": "690-2400", "pref": "島根県", "city": "雲南市", "town": "", "full": "島根県雲南市"}, {"postal_code": "6902704", "postal_hyphen": "690-2704", "pref": "島根県", "city": "雲南市", "town": "掛合町穴見", "full": "島根県雲南市掛合町穴見"}, {"postal_code": "6902702", "postal_hyphen": "690-2702", "pref": "島根県", "city": "雲南市", "town": "掛合町入間", "full": "島根県雲南市掛合町入間"}, {"postal_code": "6902701", "postal_hyphen": "690-2701", "pref": "島根県", "city": "雲南市", "town": "掛合町掛合", "full": "島根県雲南市掛合町掛合"}, {"postal_code": "6902706", "postal_hyphen": "690-2706", "pref": "島根県", "city": "雲南市", "town": "掛合町多根", "full": "島根県雲南市掛合町多根"}, {"postal_code": "6902703", "postal_hyphen": "690-2703", "pref": "島根県", "city": "雲南市", "town": "掛合町波多", "full": "島根県雲南市掛合町波多"}, {"postal_code": "6902705", "postal_hyphen": "690-2705", "pref": "島根県", "city": "雲南市", "town": "掛合町松笠", "full": "島根県雲南市掛合町松笠"}, {"postal_code": "6991114", "postal_hyphen": "699-1114", "pref": "島根県", "city": "雲南市", "town": "加茂町猪尾", "full": "島根県雲南市加茂町猪尾"}, {"postal_code": "6991115", "postal_hyphen": "699-1115", "pref": "島根県", "city": "雲南市", "town": "加茂町岩倉", "full": "島根県雲南市加茂町岩倉"}, {"postal_code": "6991105", "postal_hyphen": "699-1105", "pref": "島根県", "city": "雲南市", "town": "加茂町宇治", "full": "島根県雲南市加茂町宇治"}, {"postal_code": "6991125", "postal_hyphen": "699-1125", "pref": "島根県", "city": "雲南市", "town": "加茂町大崎", "full": "島根県雲南市加茂町大崎"}, {"postal_code": "6991123", "postal_hyphen": "699-1123", "pref": "島根県", "city": "雲南市", "town": "加茂町大竹", "full": "島根県雲南市加茂町大竹"}, {"postal_code": "6991106", "postal_hyphen": "699-1106", "pref": "島根県", "city": "雲南市", "town": "加茂町加茂中", "full": "島根県雲南市加茂町加茂中"}, {"postal_code": "6991121", "postal_hyphen": "699-1121", "pref": "島根県", "city": "雲南市", "town": "加茂町神原", "full": "島根県雲南市加茂町神原"}, {"postal_code": "6991112", "postal_hyphen": "699-1112", "pref": "島根県", "city": "雲南市", "town": "加茂町新宮", "full": "島根県雲南市加茂町新宮"}, {"postal_code": "6991111", "postal_hyphen": "699-1111", "pref": "島根県", "city": "雲南市", "town": "加茂町砂子原", "full": "島根県雲南市加茂町砂子原"}, {"postal_code": "6991101", "postal_hyphen": "699-1101", "pref": "島根県", "city": "雲南市", "town": "加茂町大西", "full": "島根県雲南市加茂町大西"}, {"postal_code": "6991102", "postal_hyphen": "699-1102", "pref": "島根県", "city": "雲南市", "town": "加茂町立原", "full": "島根県雲南市加茂町立原"}, {"postal_code": "6991103", "postal_hyphen": "699-1103", "pref": "島根県", "city": "雲南市", "town": "加茂町近松", "full": "島根県雲南市加茂町近松"}, {"postal_code": "6991124", "postal_hyphen": "699-1124", "pref": "島根県", "city": "雲南市", "town": "加茂町延野", "full": "島根県雲南市加茂町延野"}, {"postal_code": "6991113", "postal_hyphen": "699-1113", "pref": "島根県", "city": "雲南市", "town": "加茂町東谷", "full": "島根県雲南市加茂町東谷"}, {"postal_code": "6991122", "postal_hyphen": "699-1122", "pref": "島根県", "city": "雲南市", "town": "加茂町三代", "full": "島根県雲南市加茂町三代"}, {"postal_code": "6991104", "postal_hyphen": "699-1104", "pref": "島根県", "city": "雲南市", "town": "加茂町南加茂", "full": "島根県雲南市加茂町南加茂"}, {"postal_code": "6991321", "postal_hyphen": "699-1321", "pref": "島根県", "city": "雲南市", "town": "木次町宇谷", "full": "島根県雲南市木次町宇谷"}, {"postal_code": "6991331", "postal_hyphen": "699-1331", "pref": "島根県", "city": "雲南市", "town": "木次町上熊谷", "full": "島根県雲南市木次町上熊谷"}, {"postal_code": "6991332", "postal_hyphen": "699-1332", "pref": "島根県", "city": "雲南市", "town": "木次町木次", "full": "島根県雲南市木次町木次"}, {"postal_code": "6991401", "postal_hyphen": "699-1401", "pref": "島根県", "city": "雲南市", "town": "木次町北原（尾白）", "full": "島根県雲南市木次町北原（尾白）"}, {"postal_code": "6991341", "postal_hyphen": "699-1341", "pref": "島根県", "city": "雲南市", "town": "木次町北原（その他）", "full": "島根県雲南市木次町北原（その他）"}, {"postal_code": "6991311", "postal_hyphen": "699-1311", "pref": "島根県", "city": "雲南市", "town": "木次町里方", "full": "島根県雲南市木次町里方"}, {"postal_code": "6991333", "postal_hyphen": "699-1333", "pref": "島根県", "city": "雲南市", "town": "木次町下熊谷", "full": "島根県雲南市木次町下熊谷"}, {"postal_code": "6991322", "postal_hyphen": "699-1322", "pref": "島根県", "city": "雲南市", "town": "木次町寺領", "full": "島根県雲南市木次町寺領"}, {"postal_code": "6991334", "postal_hyphen": "699-1334", "pref": "島根県", "city": "雲南市", "town": "木次町新市", "full": "島根県雲南市木次町新市"}, {"postal_code": "6991324", "postal_hyphen": "699-1324", "pref": "島根県", "city": "雲南市", "town": "木次町西日登", "full": "島根県雲南市木次町西日登"}, {"postal_code": "6991323", "postal_hyphen": "699-1323", "pref": "島根県", "city": "雲南市", "town": "木次町東日登", "full": "島根県雲南市木次町東日登"}, {"postal_code": "6991342", "postal_hyphen": "699-1342", "pref": "島根県", "city": "雲南市", "town": "木次町平田", "full": "島根県雲南市木次町平田"}, {"postal_code": "6991312", "postal_hyphen": "699-1312", "pref": "島根県", "city": "雲南市", "town": "木次町山方", "full": "島根県雲南市木次町山方"}, {"postal_code": "6991343", "postal_hyphen": "699-1343", "pref": "島根県", "city": "雲南市", "town": "木次町湯村", "full": "島根県雲南市木次町湯村"}, {"postal_code": "6991221", "postal_hyphen": "699-1221", "pref": "島根県", "city": "雲南市", "town": "大東町飯田", "full": "島根県雲南市大東町飯田"}, {"postal_code": "6991231", "postal_hyphen": "699-1231", "pref": "島根県", "city": "雲南市", "town": "大東町遠所", "full": "島根県雲南市大東町遠所"}, {"postal_code": "6991213", "postal_hyphen": "699-1213", "pref": "島根県", "city": "雲南市", "town": "大東町大ケ谷", "full": "島根県雲南市大東町大ケ谷"}, {"postal_code": "6991221", "postal_hyphen": "699-1221", "pref": "島根県", "city": "雲南市", "town": "大東町岡村", "full": "島根県雲南市大東町岡村"}, {"postal_code": "6991201", "postal_hyphen": "699-1201", "pref": "島根県", "city": "雲南市", "town": "大東町小河内", "full": "島根県雲南市大東町小河内"}, {"postal_code": "6991261", "postal_hyphen": "699-1261", "pref": "島根県", "city": "雲南市", "town": "大東町金成", "full": "島根県雲南市大東町金成"}, {"postal_code": "6991211", "postal_hyphen": "699-1211", "pref": "島根県", "city": "雲南市", "town": "大東町上久野", "full": "島根県雲南市大東町上久野"}, {"postal_code": "6991214", "postal_hyphen": "699-1214", "pref": "島根県", "city": "雲南市", "town": "大東町上佐世", "full": "島根県雲南市大東町上佐世"}, {"postal_code": "6991202", "postal_hyphen": "699-1202", "pref": "島根県", "city": "雲南市", "town": "大東町刈畑", "full": "島根県雲南市大東町刈畑"}, {"postal_code": "6991222", "postal_hyphen": "699-1222", "pref": "島根県", "city": "雲南市", "town": "大東町川井", "full": "島根県雲南市大東町川井"}, {"postal_code": "6991203", "postal_hyphen": "699-1203", "pref": "島根県", "city": "雲南市", "town": "大東町北村", "full": "島根県雲南市大東町北村"}, {"postal_code": "6991204", "postal_hyphen": "699-1204", "pref": "島根県", "city": "雲南市", "town": "大東町薦澤", "full": "島根県雲南市大東町薦澤"}, {"postal_code": "6991241", "postal_hyphen": "699-1241", "pref": "島根県", "city": "雲南市", "town": "大東町山王寺", "full": "島根県雲南市大東町山王寺"}, {"postal_code": "6991262", "postal_hyphen": "699-1262", "pref": "島根県", "city": "雲南市", "town": "大東町塩田", "full": "島根県雲南市大東町塩田"}, {"postal_code": "6991263", "postal_hyphen": "699-1263", "pref": "島根県", "city": "雲南市", "town": "大東町篠淵", "full": "島根県雲南市大東町篠淵"}, {"postal_code": "6991223", "postal_hyphen": "699-1223", "pref": "島根県", "city": "雲南市", "town": "大東町下阿用", "full": "島根県雲南市大東町下阿用"}, {"postal_code": "6991212", "postal_hyphen": "699-1212", "pref": "島根県", "city": "雲南市", "town": "大東町下久野", "full": "島根県雲南市大東町下久野"}, {"postal_code": "6991215", "postal_hyphen": "699-1215", "pref": "島根県", "city": "雲南市", "town": "大東町下佐世", "full": "島根県雲南市大東町下佐世"}, {"postal_code": "6991251", "postal_hyphen": "699-1251", "pref": "島根県", "city": "雲南市", "town": "大東町新庄", "full": "島根県雲南市大東町新庄"}, {"postal_code": "6991205", "postal_hyphen": "699-1205", "pref": "島根県", "city": "雲南市", "town": "大東町須賀", "full": "島根県雲南市大東町須賀"}, {"postal_code": "6991264", "postal_hyphen": "699-1264", "pref": "島根県", "city": "雲南市", "town": "大東町清田", "full": "島根県雲南市大東町清田"}, {"postal_code": "6991251", "postal_hyphen": "699-1251", "pref": "島根県", "city": "雲南市", "town": "大東町大東", "full": "島根県雲南市大東町大東"}, {"postal_code": "6991242", "postal_hyphen": "699-1242", "pref": "島根県", "city": "雲南市", "town": "大東町大東下分", "full": "島根県雲南市大東町大東下分"}, {"postal_code": "6991252", "postal_hyphen": "699-1252", "pref": "島根県", "city": "雲南市", "town": "大東町田中", "full": "島根県雲南市大東町田中"}, {"postal_code": "6991253", "postal_hyphen": "699-1253", "pref": "島根県", "city": "雲南市", "town": "大東町中湯石", "full": "島根県雲南市大東町中湯石"}, {"postal_code": "6991216", "postal_hyphen": "699-1216", "pref": "島根県", "city": "雲南市", "town": "大東町西阿用", "full": "島根県雲南市大東町西阿用"}, {"postal_code": "6991232", "postal_hyphen": "699-1232", "pref": "島根県", "city": "雲南市", "town": "大東町仁和寺", "full": "島根県雲南市大東町仁和寺"}, {"postal_code": "6991243", "postal_hyphen": "699-1243", "pref": "島根県", "city": "雲南市", "town": "大東町畑鵯", "full": "島根県雲南市大東町畑鵯"}, {"postal_code": "6991233", "postal_hyphen": "699-1233", "pref": "島根県", "city": "雲南市", "town": "大東町幡屋", "full": "島根県雲南市大東町幡屋"}, {"postal_code": "6991224", "postal_hyphen": "699-1224", "pref": "島根県", "city": "雲南市", "town": "大東町東阿用", "full": "島根県雲南市大東町東阿用"}, {"postal_code": "6991234", "postal_hyphen": "699-1234", "pref": "島根県", "city": "雲南市", "town": "大東町前原", "full": "島根県雲南市大東町前原"}, {"postal_code": "6991206", "postal_hyphen": "699-1206", "pref": "島根県", "city": "雲南市", "town": "大東町南村", "full": "島根県雲南市大東町南村"}, {"postal_code": "6991244", "postal_hyphen": "699-1244", "pref": "島根県", "city": "雲南市", "town": "大東町山田", "full": "島根県雲南市大東町山田"}, {"postal_code": "6991245", "postal_hyphen": "699-1245", "pref": "島根県", "city": "雲南市", "town": "大東町養賀", "full": "島根県雲南市大東町養賀"}, {"postal_code": "6902513", "postal_hyphen": "690-2513", "pref": "島根県", "city": "雲南市", "town": "三刀屋町粟谷", "full": "島根県雲南市三刀屋町粟谷"}, {"postal_code": "6902401", "postal_hyphen": "690-2401", "pref": "島根県", "city": "雲南市", "town": "三刀屋町伊萱", "full": "島根県雲南市三刀屋町伊萱"}, {"postal_code": "6902634", "postal_hyphen": "690-2634", "pref": "島根県", "city": "雲南市", "town": "三刀屋町乙加宮", "full": "島根県雲南市三刀屋町乙加宮"}, {"postal_code": "6902511", "postal_hyphen": "690-2511", "pref": "島根県", "city": "雲南市", "town": "三刀屋町上熊谷", "full": "島根県雲南市三刀屋町上熊谷"}, {"postal_code": "6902402", "postal_hyphen": "690-2402", "pref": "島根県", "city": "雲南市", "town": "三刀屋町給下", "full": "島根県雲南市三刀屋町給下"}, {"postal_code": "6902521", "postal_hyphen": "690-2521", "pref": "島根県", "city": "雲南市", "town": "三刀屋町神代", "full": "島根県雲南市三刀屋町神代"}, {"postal_code": "6902405", "postal_hyphen": "690-2405", "pref": "島根県", "city": "雲南市", "town": "三刀屋町古城", "full": "島根県雲南市三刀屋町古城"}, {"postal_code": "6902525", "postal_hyphen": "690-2525", "pref": "島根県", "city": "雲南市", "town": "三刀屋町坂本（森谷）", "full": "島根県雲南市三刀屋町坂本（森谷）"}, {"postal_code": "6902625", "postal_hyphen": "690-2625", "pref": "島根県", "city": "雲南市", "town": "三刀屋町坂本（その他）", "full": "島根県雲南市三刀屋町坂本（その他）"}, {"postal_code": "6902632", "postal_hyphen": "690-2632", "pref": "島根県", "city": "雲南市", "town": "三刀屋町里坊", "full": "島根県雲南市三刀屋町里坊"}, {"postal_code": "6902403", "postal_hyphen": "690-2403", "pref": "島根県", "city": "雲南市", "town": "三刀屋町下熊谷", "full": "島根県雲南市三刀屋町下熊谷"}, {"postal_code": "6902524", "postal_hyphen": "690-2524", "pref": "島根県", "city": "雲南市", "town": "三刀屋町須所", "full": "島根県雲南市三刀屋町須所"}, {"postal_code": "6902406", "postal_hyphen": "690-2406", "pref": "島根県", "city": "雲南市", "town": "三刀屋町高窪", "full": "島根県雲南市三刀屋町高窪"}, {"postal_code": "6902512", "postal_hyphen": "690-2512", "pref": "島根県", "city": "雲南市", "town": "三刀屋町多久和", "full": "島根県雲南市三刀屋町多久和"}, {"postal_code": "6902633", "postal_hyphen": "690-2633", "pref": "島根県", "city": "雲南市", "town": "三刀屋町殿河内", "full": "島根県雲南市三刀屋町殿河内"}, {"postal_code": "6902523", "postal_hyphen": "690-2523", "pref": "島根県", "city": "雲南市", "town": "三刀屋町中野", "full": "島根県雲南市三刀屋町中野"}, {"postal_code": "6902631", "postal_hyphen": "690-2631", "pref": "島根県", "city": "雲南市", "town": "三刀屋町根波別所", "full": "島根県雲南市三刀屋町根波別所"}, {"postal_code": "6902404", "postal_hyphen": "690-2404", "pref": "島根県", "city": "雲南市", "town": "三刀屋町三刀屋", "full": "島根県雲南市三刀屋町三刀屋"}, {"postal_code": "6902522", "postal_hyphen": "690-2522", "pref": "島根県", "city": "雲南市", "town": "三刀屋町六重", "full": "島根県雲南市三刀屋町六重"}, {"postal_code": "6902311", "postal_hyphen": "690-2311", "pref": "島根県", "city": "雲南市", "town": "吉田町上山", "full": "島根県雲南市吉田町上山"}, {"postal_code": "6902314", "postal_hyphen": "690-2314", "pref": "島根県", "city": "雲南市", "town": "吉田町川手", "full": "島根県雲南市吉田町川手"}, {"postal_code": "6902312", "postal_hyphen": "690-2312", "pref": "島根県", "city": "雲南市", "town": "吉田町曽木", "full": "島根県雲南市吉田町曽木"}, {"postal_code": "6902313", "postal_hyphen": "690-2313", "pref": "島根県", "city": "雲南市", "town": "吉田町深野", "full": "島根県雲南市吉田町深野"}, {"postal_code": "6902802", "postal_hyphen": "690-2802", "pref": "島根県", "city": "雲南市", "town": "吉田町民谷", "full": "島根県雲南市吉田町民谷"}, {"postal_code": "6902801", "postal_hyphen": "690-2801", "pref": "島根県", "city": "雲南市", "town": "吉田町吉田", "full": "島根県雲南市吉田町吉田"}, {"postal_code": "6991500", "postal_hyphen": "699-1500", "pref": "島根県", "city": "仁多郡奥出雲町", "town": "", "full": "島根県仁多郡奥出雲町"}, {"postal_code": "6991821", "postal_hyphen": "699-1821", "pref": "島根県", "city": "仁多郡奥出雲町", "town": "稲原", "full": "島根県仁多郡奥出雲町稲原"}, {"postal_code": "6991812", "postal_hyphen": "699-1812", "pref": "島根県", "city": "仁多郡奥出雲町", "town": "大谷", "full": "島根県仁多郡奥出雲町大谷"}, {"postal_code": "6991941", "postal_hyphen": "699-1941", "pref": "島根県", "city": "仁多郡奥出雲町", "town": "大馬木", "full": "島根県仁多郡奥出雲町大馬木"}, {"postal_code": "6991802", "postal_hyphen": "699-1802", "pref": "島根県", "city": "仁多郡奥出雲町", "town": "大呂", "full": "島根県仁多郡奥出雲町大呂"}, {"postal_code": "6991621", "postal_hyphen": "699-1621", "pref": "島根県", "city": "仁多郡奥出雲町", "town": "上阿井", "full": "島根県仁多郡奥出雲町上阿井"}, {"postal_code": "6991431", "postal_hyphen": "699-1431", "pref": "島根県", "city": "仁多郡奥出雲町", "town": "上三所", "full": "島根県仁多郡奥出雲町上三所"}, {"postal_code": "6991701", "postal_hyphen": "699-1701", "pref": "島根県", "city": "仁多郡奥出雲町", "town": "亀嵩", "full": "島根県仁多郡奥出雲町亀嵩"}, {"postal_code": "6991515", "postal_hyphen": "699-1515", "pref": "島根県", "city": "仁多郡奥出雲町", "town": "鴨倉", "full": "島根県仁多郡奥出雲町鴨倉"}, {"postal_code": "6991514", "postal_hyphen": "699-1514", "pref": "島根県", "city": "仁多郡奥出雲町", "town": "河内", "full": "島根県仁多郡奥出雲町河内"}, {"postal_code": "6991702", "postal_hyphen": "699-1702", "pref": "島根県", "city": "仁多郡奥出雲町", "town": "郡", "full": "島根県仁多郡奥出雲町郡"}, {"postal_code": "6991942", "postal_hyphen": "699-1942", "pref": "島根県", "city": "仁多郡奥出雲町", "town": "小馬木", "full": "島根県仁多郡奥出雲町小馬木"}, {"postal_code": "6991434", "postal_hyphen": "699-1434", "pref": "島根県", "city": "仁多郡奥出雲町", "town": "佐白", "full": "島根県仁多郡奥出雲町佐白"}, {"postal_code": "6991517", "postal_hyphen": "699-1517", "pref": "島根県", "city": "仁多郡奥出雲町", "town": "下阿井（宇根路）", "full": "島根県仁多郡奥出雲町下阿井（宇根路）"}, {"postal_code": "6991622", "postal_hyphen": "699-1622", "pref": "島根県", "city": "仁多郡奥出雲町", "town": "下阿井（その他）", "full": "島根県仁多郡奥出雲町下阿井（その他）"}, {"postal_code": "6991822", "postal_hyphen": "699-1822", "pref": "島根県", "city": "仁多郡奥出雲町", "town": "下横田", "full": "島根県仁多郡奥出雲町下横田"}, {"postal_code": "6991512", "postal_hyphen": "699-1512", "pref": "島根県", "city": "仁多郡奥出雲町", "town": "高尾", "full": "島根県仁多郡奥出雲町高尾"}, {"postal_code": "6991703", "postal_hyphen": "699-1703", "pref": "島根県", "city": "仁多郡奥出雲町", "town": "高田", "full": "島根県仁多郡奥出雲町高田"}, {"postal_code": "6991801", "postal_hyphen": "699-1801", "pref": "島根県", "city": "仁多郡奥出雲町", "town": "竹崎", "full": "島根県仁多郡奥出雲町竹崎"}, {"postal_code": "6991831", "postal_hyphen": "699-1831", "pref": "島根県", "city": "仁多郡奥出雲町", "town": "中村", "full": "島根県仁多郡奥出雲町中村"}, {"postal_code": "6991432", "postal_hyphen": "699-1432", "pref": "島根県", "city": "仁多郡奥出雲町", "town": "馬馳", "full": "島根県仁多郡奥出雲町馬馳"}, {"postal_code": "6991513", "postal_hyphen": "699-1513", "pref": "島根県", "city": "仁多郡奥出雲町", "town": "三沢", "full": "島根県仁多郡奥出雲町三沢"}, {"postal_code": "6991516", "postal_hyphen": "699-1516", "pref": "島根県", "city": "仁多郡奥出雲町", "town": "三所", "full": "島根県仁多郡奥出雲町三所"}, {"postal_code": "6991511", "postal_hyphen": "699-1511", "pref": "島根県", "city": "仁多郡奥出雲町", "town": "三成", "full": "島根県仁多郡奥出雲町三成"}, {"postal_code": "6991811", "postal_hyphen": "699-1811", "pref": "島根県", "city": "仁多郡奥出雲町", "town": "八川", "full": "島根県仁多郡奥出雲町八川"}, {"postal_code": "6991433", "postal_hyphen": "699-1433", "pref": "島根県", "city": "仁多郡奥出雲町", "town": "八代", "full": "島根県仁多郡奥出雲町八代"}, {"postal_code": "6991832", "postal_hyphen": "699-1832", "pref": "島根県", "city": "仁多郡奥出雲町", "town": "横田", "full": "島根県仁多郡奥出雲町横田"}, {"postal_code": "6903200", "postal_hyphen": "690-3200", "pref": "島根県", "city": "飯石郡飯南町", "town": "", "full": "島根県飯石郡飯南町"}, {"postal_code": "6903511", "postal_hyphen": "690-3511", "pref": "島根県", "city": "飯石郡飯南町", "town": "赤名", "full": "島根県飯石郡飯南町赤名"}, {"postal_code": "6903514", "postal_hyphen": "690-3514", "pref": "島根県", "city": "飯石郡飯南町", "town": "井戸谷", "full": "島根県飯石郡飯南町井戸谷"}, {"postal_code": "6903403", "postal_hyphen": "690-3403", "pref": "島根県", "city": "飯石郡飯南町", "town": "小田", "full": "島根県飯石郡飯南町小田"}, {"postal_code": "6903512", "postal_hyphen": "690-3512", "pref": "島根県", "city": "飯石郡飯南町", "town": "上赤名", "full": "島根県飯石郡飯南町上赤名"}, {"postal_code": "6903405", "postal_hyphen": "690-3405", "pref": "島根県", "city": "飯石郡飯南町", "town": "上来島", "full": "島根県飯石郡飯南町上来島"}, {"postal_code": "6903204", "postal_hyphen": "690-3204", "pref": "島根県", "city": "飯石郡飯南町", "town": "佐見", "full": "島根県飯石郡飯南町佐見"}, {"postal_code": "6903515", "postal_hyphen": "690-3515", "pref": "島根県", "city": "飯石郡飯南町", "town": "塩谷", "full": "島根県飯石郡飯南町塩谷"}, {"postal_code": "6903311", "postal_hyphen": "690-3311", "pref": "島根県", "city": "飯石郡飯南町", "town": "獅子", "full": "島根県飯石郡飯南町獅子"}, {"postal_code": "6903313", "postal_hyphen": "690-3313", "pref": "島根県", "city": "飯石郡飯南町", "town": "志津見", "full": "島根県飯石郡飯南町志津見"}, {"postal_code": "6903513", "postal_hyphen": "690-3513", "pref": "島根県", "city": "飯石郡飯南町", "town": "下赤名", "full": "島根県飯石郡飯南町下赤名"}, {"postal_code": "6903402", "postal_hyphen": "690-3402", "pref": "島根県", "city": "飯石郡飯南町", "town": "下来島", "full": "島根県飯石郡飯南町下来島"}, {"postal_code": "6903203", "postal_hyphen": "690-3203", "pref": "島根県", "city": "飯石郡飯南町", "town": "都加賀", "full": "島根県飯石郡飯南町都加賀"}, {"postal_code": "6903314", "postal_hyphen": "690-3314", "pref": "島根県", "city": "飯石郡飯南町", "town": "角井", "full": "島根県飯石郡飯南町角井"}, {"postal_code": "6903207", "postal_hyphen": "690-3207", "pref": "島根県", "city": "飯石郡飯南町", "town": "頓原", "full": "島根県飯石郡飯南町頓原"}, {"postal_code": "6903205", "postal_hyphen": "690-3205", "pref": "島根県", "city": "飯石郡飯南町", "town": "長谷", "full": "島根県飯石郡飯南町長谷"}, {"postal_code": "6903401", "postal_hyphen": "690-3401", "pref": "島根県", "city": "飯石郡飯南町", "town": "野萱", "full": "島根県飯石郡飯南町野萱"}, {"postal_code": "6903312", "postal_hyphen": "690-3312", "pref": "島根県", "city": "飯石郡飯南町", "town": "八神", "full": "島根県飯石郡飯南町八神"}, {"postal_code": "6903516", "postal_hyphen": "690-3516", "pref": "島根県", "city": "飯石郡飯南町", "town": "畑田", "full": "島根県飯石郡飯南町畑田"}, {"postal_code": "6903206", "postal_hyphen": "690-3206", "pref": "島根県", "city": "飯石郡飯南町", "town": "花栗", "full": "島根県飯石郡飯南町花栗"}, {"postal_code": "6903404", "postal_hyphen": "690-3404", "pref": "島根県", "city": "飯石郡飯南町", "town": "真木", "full": "島根県飯石郡飯南町真木"}, {"postal_code": "6960000", "postal_hyphen": "696-0000", "pref": "島根県", "city": "邑智郡川本町", "town": "", "full": "島根県邑智郡川本町"}, {"postal_code": "6960003", "postal_hyphen": "696-0003", "pref": "島根県", "city": "邑智郡川本町", "town": "因原", "full": "島根県邑智郡川本町因原"}, {"postal_code": "6960011", "postal_hyphen": "696-0011", "pref": "島根県", "city": "邑智郡川本町", "town": "川内", "full": "島根県邑智郡川本町川内"}, {"postal_code": "6960004", "postal_hyphen": "696-0004", "pref": "島根県", "city": "邑智郡川本町", "town": "川下", "full": "島根県邑智郡川本町川下"}, {"postal_code": "6960001", "postal_hyphen": "696-0001", "pref": "島根県", "city": "邑智郡川本町", "town": "川本", "full": "島根県邑智郡川本町川本"}, {"postal_code": "6961221", "postal_hyphen": "696-1221", "pref": "島根県", "city": "邑智郡川本町", "town": "北佐木", "full": "島根県邑智郡川本町北佐木"}, {"postal_code": "6960006", "postal_hyphen": "696-0006", "pref": "島根県", "city": "邑智郡川本町", "town": "久座仁", "full": "島根県邑智郡川本町久座仁"}, {"postal_code": "6960012", "postal_hyphen": "696-0012", "pref": "島根県", "city": "邑智郡川本町", "town": "小谷", "full": "島根県邑智郡川本町小谷"}, {"postal_code": "6961226", "postal_hyphen": "696-1226", "pref": "島根県", "city": "邑智郡川本町", "town": "田窪", "full": "島根県邑智郡川本町田窪"}, {"postal_code": "6960007", "postal_hyphen": "696-0007", "pref": "島根県", "city": "邑智郡川本町", "town": "多田", "full": "島根県邑智郡川本町多田"}, {"postal_code": "6960005", "postal_hyphen": "696-0005", "pref": "島根県", "city": "邑智郡川本町", "town": "谷戸", "full": "島根県邑智郡川本町谷戸"}, {"postal_code": "6960002", "postal_hyphen": "696-0002", "pref": "島根県", "city": "邑智郡川本町", "town": "都賀行", "full": "島根県邑智郡川本町都賀行"}, {"postal_code": "6960013", "postal_hyphen": "696-0013", "pref": "島根県", "city": "邑智郡川本町", "town": "馬野原", "full": "島根県邑智郡川本町馬野原"}, {"postal_code": "6961225", "postal_hyphen": "696-1225", "pref": "島根県", "city": "邑智郡川本町", "town": "南佐木", "full": "島根県邑智郡川本町南佐木"}, {"postal_code": "6961224", "postal_hyphen": "696-1224", "pref": "島根県", "city": "邑智郡川本町", "town": "三原", "full": "島根県邑智郡川本町三原"}, {"postal_code": "6961223", "postal_hyphen": "696-1223", "pref": "島根県", "city": "邑智郡川本町", "town": "三俣", "full": "島根県邑智郡川本町三俣"}, {"postal_code": "6961222", "postal_hyphen": "696-1222", "pref": "島根県", "city": "邑智郡川本町", "town": "湯谷", "full": "島根県邑智郡川本町湯谷"}, {"postal_code": "6994600", "postal_hyphen": "699-4600", "pref": "島根県", "city": "邑智郡美郷町", "town": "", "full": "島根県邑智郡美郷町"}, {"postal_code": "6994624", "postal_hyphen": "699-4624", "pref": "島根県", "city": "邑智郡美郷町", "town": "明塚", "full": "島根県邑智郡美郷町明塚"}, {"postal_code": "6994627", "postal_hyphen": "699-4627", "pref": "島根県", "city": "邑智郡美郷町", "town": "吾郷", "full": "島根県邑智郡美郷町吾郷"}, {"postal_code": "6994715", "postal_hyphen": "699-4715", "pref": "島根県", "city": "邑智郡美郷町", "town": "石原", "full": "島根県邑智郡美郷町石原"}, {"postal_code": "6960701", "postal_hyphen": "696-0701", "pref": "島根県", "city": "邑智郡美郷町", "town": "潮村", "full": "島根県邑智郡美郷町潮村"}, {"postal_code": "6961136", "postal_hyphen": "696-1136", "pref": "島根県", "city": "邑智郡美郷町", "town": "内田", "full": "島根県邑智郡美郷町内田"}, {"postal_code": "6994631", "postal_hyphen": "699-4631", "pref": "島根県", "city": "邑智郡美郷町", "town": "奥山", "full": "島根県邑智郡美郷町奥山"}, {"postal_code": "6994626", "postal_hyphen": "699-4626", "pref": "島根県", "city": "邑智郡美郷町", "town": "乙原", "full": "島根県邑智郡美郷町乙原"}, {"postal_code": "6994621", "postal_hyphen": "699-4621", "pref": "島根県", "city": "邑智郡美郷町", "town": "粕渕", "full": "島根県邑智郡美郷町粕渕"}, {"postal_code": "6994714", "postal_hyphen": "699-4714", "pref": "島根県", "city": "邑智郡美郷町", "town": "片山", "full": "島根県邑智郡美郷町片山"}, {"postal_code": "6961137", "postal_hyphen": "696-1137", "pref": "島根県", "city": "邑智郡美郷町", "town": "櫨谷", "full": "島根県邑智郡美郷町櫨谷"}, {"postal_code": "6994702", "postal_hyphen": "699-4702", "pref": "島根県", "city": "邑智郡美郷町", "town": "上川戸", "full": "島根県邑智郡美郷町上川戸"}, {"postal_code": "6960702", "postal_hyphen": "696-0702", "pref": "島根県", "city": "邑智郡美郷町", "town": "上野", "full": "島根県邑智郡美郷町上野"}, {"postal_code": "6994707", "postal_hyphen": "699-4707", "pref": "島根県", "city": "邑智郡美郷町", "town": "亀村", "full": "島根県邑智郡美郷町亀村"}, {"postal_code": "6961141", "postal_hyphen": "696-1141", "pref": "島根県", "city": "邑智郡美郷町", "town": "京覧原", "full": "島根県邑智郡美郷町京覧原"}, {"postal_code": "6961142", "postal_hyphen": "696-1142", "pref": "島根県", "city": "邑智郡美郷町", "town": "久喜原", "full": "島根県邑智郡美郷町久喜原"}, {"postal_code": "6994622", "postal_hyphen": "699-4622", "pref": "島根県", "city": "邑智郡美郷町", "town": "久保", "full": "島根県邑智郡美郷町久保"}, {"postal_code": "6994703", "postal_hyphen": "699-4703", "pref": "島根県", "city": "邑智郡美郷町", "town": "熊見", "full": "島根県邑智郡美郷町熊見"}, {"postal_code": "6994712", "postal_hyphen": "699-4712", "pref": "島根県", "city": "邑智郡美郷町", "town": "九日市", "full": "島根県邑智郡美郷町九日市"}, {"postal_code": "6961144", "postal_hyphen": "696-1144", "pref": "島根県", "city": "邑智郡美郷町", "town": "小谷", "full": "島根県邑智郡美郷町小谷"}, {"postal_code": "6961133", "postal_hyphen": "696-1133", "pref": "島根県", "city": "邑智郡美郷町", "town": "小林", "full": "島根県邑智郡美郷町小林"}, {"postal_code": "6961135", "postal_hyphen": "696-1135", "pref": "島根県", "city": "邑智郡美郷町", "town": "小松地", "full": "島根県邑智郡美郷町小松地"}, {"postal_code": "6994713", "postal_hyphen": "699-4713", "pref": "島根県", "city": "邑智郡美郷町", "town": "酒谷", "full": "島根県邑智郡美郷町酒谷"}, {"postal_code": "6994704", "postal_hyphen": "699-4704", "pref": "島根県", "city": "邑智郡美郷町", "town": "信喜", "full": "島根県邑智郡美郷町信喜"}, {"postal_code": "6961132", "postal_hyphen": "696-1132", "pref": "島根県", "city": "邑智郡美郷町", "town": "志君", "full": "島根県邑智郡美郷町志君"}, {"postal_code": "6961143", "postal_hyphen": "696-1143", "pref": "島根県", "city": "邑智郡美郷町", "town": "地頭所", "full": "島根県邑智郡美郷町地頭所"}, {"postal_code": "6961134", "postal_hyphen": "696-1134", "pref": "島根県", "city": "邑智郡美郷町", "town": "惣森", "full": "島根県邑智郡美郷町惣森"}, {"postal_code": "6994632", "postal_hyphen": "699-4632", "pref": "島根県", "city": "邑智郡美郷町", "town": "高畑", "full": "島根県邑智郡美郷町高畑"}, {"postal_code": "6994605", "postal_hyphen": "699-4605", "pref": "島根県", "city": "邑智郡美郷町", "town": "高山", "full": "島根県邑智郡美郷町高山"}, {"postal_code": "6994706", "postal_hyphen": "699-4706", "pref": "島根県", "city": "邑智郡美郷町", "town": "滝原", "full": "島根県邑智郡美郷町滝原"}, {"postal_code": "6994711", "postal_hyphen": "699-4711", "pref": "島根県", "city": "邑智郡美郷町", "town": "千原", "full": "島根県邑智郡美郷町千原"}, {"postal_code": "6960703", "postal_hyphen": "696-0703", "pref": "島根県", "city": "邑智郡美郷町", "town": "都賀西", "full": "島根県邑智郡美郷町都賀西"}, {"postal_code": "6960704", "postal_hyphen": "696-0704", "pref": "島根県", "city": "邑智郡美郷町", "town": "都賀本郷", "full": "島根県邑智郡美郷町都賀本郷"}, {"postal_code": "6960705", "postal_hyphen": "696-0705", "pref": "島根県", "city": "邑智郡美郷町", "town": "都賀行", "full": "島根県邑智郡美郷町都賀行"}, {"postal_code": "6960706", "postal_hyphen": "696-0706", "pref": "島根県", "city": "邑智郡美郷町", "town": "長藤", "full": "島根県邑智郡美郷町長藤"}, {"postal_code": "6994623", "postal_hyphen": "699-4623", "pref": "島根県", "city": "邑智郡美郷町", "town": "野井", "full": "島根県邑智郡美郷町野井"}, {"postal_code": "6994701", "postal_hyphen": "699-4701", "pref": "島根県", "city": "邑智郡美郷町", "town": "浜原", "full": "島根県邑智郡美郷町浜原"}, {"postal_code": "6960712", "postal_hyphen": "696-0712", "pref": "島根県", "city": "邑智郡美郷町", "town": "比敷", "full": "島根県邑智郡美郷町比敷"}, {"postal_code": "6961131", "postal_hyphen": "696-1131", "pref": "島根県", "city": "邑智郡美郷町", "town": "別府", "full": "島根県邑智郡美郷町別府"}, {"postal_code": "6961145", "postal_hyphen": "696-1145", "pref": "島根県", "city": "邑智郡美郷町", "town": "港", "full": "島根県邑智郡美郷町港"}, {"postal_code": "6960711", "postal_hyphen": "696-0711", "pref": "島根県", "city": "邑智郡美郷町", "town": "宮内", "full": "島根県邑智郡美郷町宮内"}, {"postal_code": "6960713", "postal_hyphen": "696-0713", "pref": "島根県", "city": "邑智郡美郷町", "town": "村之郷", "full": "島根県邑智郡美郷町村之郷"}, {"postal_code": "6994625", "postal_hyphen": "699-4625", "pref": "島根県", "city": "邑智郡美郷町", "town": "簗瀬", "full": "島根県邑智郡美郷町簗瀬"}, {"postal_code": "6994633", "postal_hyphen": "699-4633", "pref": "島根県", "city": "邑智郡美郷町", "town": "湯抱", "full": "島根県邑智郡美郷町湯抱"}, {"postal_code": "6960100", "postal_hyphen": "696-0100", "pref": "島根県", "city": "邑智郡邑南町", "town": "", "full": "島根県邑智郡邑南町"}, {"postal_code": "6960501", "postal_hyphen": "696-0501", "pref": "島根県", "city": "邑智郡邑南町", "town": "阿須那", "full": "島根県邑智郡邑南町阿須那"}, {"postal_code": "6960312", "postal_hyphen": "696-0312", "pref": "島根県", "city": "邑智郡邑南町", "town": "出羽", "full": "島根県邑智郡邑南町出羽"}, {"postal_code": "6970631", "postal_hyphen": "697-0631", "pref": "島根県", "city": "邑智郡邑南町", "town": "市木", "full": "島根県邑智郡邑南町市木"}, {"postal_code": "6960101", "postal_hyphen": "696-0101", "pref": "島根県", "city": "邑智郡邑南町", "town": "井原", "full": "島根県邑智郡邑南町井原"}, {"postal_code": "6960504", "postal_hyphen": "696-0504", "pref": "島根県", "city": "邑智郡邑南町", "town": "今井", "full": "島根県邑智郡邑南町今井"}, {"postal_code": "6960314", "postal_hyphen": "696-0314", "pref": "島根県", "city": "邑智郡邑南町", "town": "岩屋", "full": "島根県邑智郡邑南町岩屋"}, {"postal_code": "6960601", "postal_hyphen": "696-0601", "pref": "島根県", "city": "邑智郡邑南町", "town": "上田", "full": "島根県邑智郡邑南町上田"}, {"postal_code": "6960503", "postal_hyphen": "696-0503", "pref": "島根県", "city": "邑智郡邑南町", "town": "宇都井", "full": "島根県邑智郡邑南町宇都井"}, {"postal_code": "6960315", "postal_hyphen": "696-0315", "pref": "島根県", "city": "邑智郡邑南町", "town": "大林", "full": "島根県邑智郡邑南町大林"}, {"postal_code": "6960224", "postal_hyphen": "696-0224", "pref": "島根県", "city": "邑智郡邑南町", "town": "上亀谷", "full": "島根県邑智郡邑南町上亀谷"}, {"postal_code": "6960602", "postal_hyphen": "696-0602", "pref": "島根県", "city": "邑智郡邑南町", "town": "上口羽", "full": "島根県邑智郡邑南町上口羽"}, {"postal_code": "6960225", "postal_hyphen": "696-0225", "pref": "島根県", "city": "邑智郡邑南町", "town": "上田所", "full": "島根県邑智郡邑南町上田所"}, {"postal_code": "6960405", "postal_hyphen": "696-0405", "pref": "島根県", "city": "邑智郡邑南町", "town": "上原", "full": "島根県邑智郡邑南町上原"}, {"postal_code": "6960502", "postal_hyphen": "696-0502", "pref": "島根県", "city": "邑智郡邑南町", "town": "木須田", "full": "島根県邑智郡邑南町木須田"}, {"postal_code": "6960316", "postal_hyphen": "696-0316", "pref": "島根県", "city": "邑智郡邑南町", "town": "久喜", "full": "島根県邑智郡邑南町久喜"}, {"postal_code": "6960131", "postal_hyphen": "696-0131", "pref": "島根県", "city": "邑智郡邑南町", "town": "高水", "full": "島根県邑智郡邑南町高水"}, {"postal_code": "6960223", "postal_hyphen": "696-0223", "pref": "島根県", "city": "邑智郡邑南町", "town": "下亀谷", "full": "島根県邑智郡邑南町下亀谷"}, {"postal_code": "6960603", "postal_hyphen": "696-0603", "pref": "島根県", "city": "邑智郡邑南町", "town": "下口羽", "full": "島根県邑智郡邑南町下口羽"}, {"postal_code": "6960222", "postal_hyphen": "696-0222", "pref": "島根県", "city": "邑智郡邑南町", "town": "下田所", "full": "島根県邑智郡邑南町下田所"}, {"postal_code": "6960406", "postal_hyphen": "696-0406", "pref": "島根県", "city": "邑智郡邑南町", "town": "高見", "full": "島根県邑智郡邑南町高見"}, {"postal_code": "6960505", "postal_hyphen": "696-0505", "pref": "島根県", "city": "邑智郡邑南町", "town": "戸河内", "full": "島根県邑智郡邑南町戸河内"}, {"postal_code": "6960102", "postal_hyphen": "696-0102", "pref": "島根県", "city": "邑智郡邑南町", "town": "中野", "full": "島根県邑智郡邑南町中野"}, {"postal_code": "6960404", "postal_hyphen": "696-0404", "pref": "島根県", "city": "邑智郡邑南町", "town": "原村", "full": "島根県邑智郡邑南町原村"}, {"postal_code": "6994311", "postal_hyphen": "699-4311", "pref": "島根県", "city": "邑智郡邑南町", "town": "日貫", "full": "島根県邑智郡邑南町日貫"}, {"postal_code": "6960104", "postal_hyphen": "696-0104", "pref": "島根県", "city": "邑智郡邑南町", "town": "日和", "full": "島根県邑智郡邑南町日和"}, {"postal_code": "6960402", "postal_hyphen": "696-0402", "pref": "島根県", "city": "邑智郡邑南町", "town": "伏谷", "full": "島根県邑智郡邑南町伏谷"}, {"postal_code": "6960401", "postal_hyphen": "696-0401", "pref": "島根県", "city": "邑智郡邑南町", "town": "布施", "full": "島根県邑智郡邑南町布施"}, {"postal_code": "6960221", "postal_hyphen": "696-0221", "pref": "島根県", "city": "邑智郡邑南町", "town": "鱒渕", "full": "島根県邑智郡邑南町鱒渕"}, {"postal_code": "6960311", "postal_hyphen": "696-0311", "pref": "島根県", "city": "邑智郡邑南町", "town": "三日市", "full": "島根県邑智郡邑南町三日市"}, {"postal_code": "6960407", "postal_hyphen": "696-0407", "pref": "島根県", "city": "邑智郡邑南町", "town": "八色石", "full": "島根県邑智郡邑南町八色石"}, {"postal_code": "6960103", "postal_hyphen": "696-0103", "pref": "島根県", "city": "邑智郡邑南町", "town": "矢上", "full": "島根県邑智郡邑南町矢上"}, {"postal_code": "6960313", "postal_hyphen": "696-0313", "pref": "島根県", "city": "邑智郡邑南町", "town": "山田", "full": "島根県邑智郡邑南町山田"}, {"postal_code": "6960506", "postal_hyphen": "696-0506", "pref": "島根県", "city": "邑智郡邑南町", "town": "雪田", "full": "島根県邑智郡邑南町雪田"}, {"postal_code": "6960317", "postal_hyphen": "696-0317", "pref": "島根県", "city": "邑智郡邑南町", "town": "淀原", "full": "島根県邑智郡邑南町淀原"}, {"postal_code": "6960403", "postal_hyphen": "696-0403", "pref": "島根県", "city": "邑智郡邑南町", "town": "和田", "full": "島根県邑智郡邑南町和田"}, {"postal_code": "6995600", "postal_hyphen": "699-5600", "pref": "島根県", "city": "鹿足郡津和野町", "town": "", "full": "島根県鹿足郡津和野町"}, {"postal_code": "6995211", "postal_hyphen": "699-5211", "pref": "島根県", "city": "鹿足郡津和野町", "town": "青原", "full": "島根県鹿足郡津和野町青原"}, {"postal_code": "6995201", "postal_hyphen": "699-5201", "pref": "島根県", "city": "鹿足郡津和野町", "town": "商人（９２９〜１１１７、１３４３〜１７３４番地）", "full": "島根県鹿足郡津和野町商人（９２９〜１１１７、１３４３〜１７３４番地）"}, {"postal_code": "6995601", "postal_hyphen": "699-5601", "pref": "島根県", "city": "鹿足郡津和野町", "town": "商人（その他）", "full": "島根県鹿足郡津和野町商人（その他）"}, {"postal_code": "6995216", "postal_hyphen": "699-5216", "pref": "島根県", "city": "鹿足郡津和野町", "town": "池村", "full": "島根県鹿足郡津和野町池村"}, {"postal_code": "6995605", "postal_hyphen": "699-5605", "pref": "島根県", "city": "鹿足郡津和野町", "town": "後田", "full": "島根県鹿足郡津和野町後田"}, {"postal_code": "6995212", "postal_hyphen": "699-5212", "pref": "島根県", "city": "鹿足郡津和野町", "town": "河村", "full": "島根県鹿足郡津和野町河村"}, {"postal_code": "6995607", "postal_hyphen": "699-5607", "pref": "島根県", "city": "鹿足郡津和野町", "town": "耕田", "full": "島根県鹿足郡津和野町耕田"}, {"postal_code": "6995603", "postal_hyphen": "699-5603", "pref": "島根県", "city": "鹿足郡津和野町", "town": "笹山", "full": "島根県鹿足郡津和野町笹山"}, {"postal_code": "6995202", "postal_hyphen": "699-5202", "pref": "島根県", "city": "鹿足郡津和野町", "town": "左鐙", "full": "島根県鹿足郡津和野町左鐙"}, {"postal_code": "6995204", "postal_hyphen": "699-5204", "pref": "島根県", "city": "鹿足郡津和野町", "town": "須川", "full": "島根県鹿足郡津和野町須川"}, {"postal_code": "6995203", "postal_hyphen": "699-5203", "pref": "島根県", "city": "鹿足郡津和野町", "town": "相撲ケ原", "full": "島根県鹿足郡津和野町相撲ケ原"}, {"postal_code": "6995213", "postal_hyphen": "699-5213", "pref": "島根県", "city": "鹿足郡津和野町", "town": "添谷", "full": "島根県鹿足郡津和野町添谷"}, {"postal_code": "6995614", "postal_hyphen": "699-5614", "pref": "島根県", "city": "鹿足郡津和野町", "town": "高峯", "full": "島根県鹿足郡津和野町高峯"}, {"postal_code": "6995205", "postal_hyphen": "699-5205", "pref": "島根県", "city": "鹿足郡津和野町", "town": "瀧谷", "full": "島根県鹿足郡津和野町瀧谷"}, {"postal_code": "6995206", "postal_hyphen": "699-5206", "pref": "島根県", "city": "鹿足郡津和野町", "town": "瀧元", "full": "島根県鹿足郡津和野町瀧元"}, {"postal_code": "6995602", "postal_hyphen": "699-5602", "pref": "島根県", "city": "鹿足郡津和野町", "town": "直地", "full": "島根県鹿足郡津和野町直地"}, {"postal_code": "6995617", "postal_hyphen": "699-5617", "pref": "島根県", "city": "鹿足郡津和野町", "town": "田二穂", "full": "島根県鹿足郡津和野町田二穂"}, {"postal_code": "6995214", "postal_hyphen": "699-5214", "pref": "島根県", "city": "鹿足郡津和野町", "town": "溪村", "full": "島根県鹿足郡津和野町溪村"}, {"postal_code": "6995606", "postal_hyphen": "699-5606", "pref": "島根県", "city": "鹿足郡津和野町", "town": "寺田", "full": "島根県鹿足郡津和野町寺田"}, {"postal_code": "6995215", "postal_hyphen": "699-5215", "pref": "島根県", "city": "鹿足郡津和野町", "town": "冨田", "full": "島根県鹿足郡津和野町冨田"}, {"postal_code": "6995632", "postal_hyphen": "699-5632", "pref": "島根県", "city": "鹿足郡津和野町", "town": "豊稼", "full": "島根県鹿足郡津和野町豊稼"}, {"postal_code": "6995621", "postal_hyphen": "699-5621", "pref": "島根県", "city": "鹿足郡津和野町", "town": "内美", "full": "島根県鹿足郡津和野町内美"}, {"postal_code": "6995634", "postal_hyphen": "699-5634", "pref": "島根県", "city": "鹿足郡津和野町", "town": "中川", "full": "島根県鹿足郡津和野町中川"}, {"postal_code": "6995612", "postal_hyphen": "699-5612", "pref": "島根県", "city": "鹿足郡津和野町", "town": "中座", "full": "島根県鹿足郡津和野町中座"}, {"postal_code": "6995636", "postal_hyphen": "699-5636", "pref": "島根県", "city": "鹿足郡津和野町", "town": "中曽野", "full": "島根県鹿足郡津和野町中曽野"}, {"postal_code": "6995631", "postal_hyphen": "699-5631", "pref": "島根県", "city": "鹿足郡津和野町", "town": "中山", "full": "島根県鹿足郡津和野町中山"}, {"postal_code": "6995633", "postal_hyphen": "699-5633", "pref": "島根県", "city": "鹿足郡津和野町", "town": "長福", "full": "島根県鹿足郡津和野町長福"}, {"postal_code": "6995615", "postal_hyphen": "699-5615", "pref": "島根県", "city": "鹿足郡津和野町", "town": "名賀", "full": "島根県鹿足郡津和野町名賀"}, {"postal_code": "6995221", "postal_hyphen": "699-5221", "pref": "島根県", "city": "鹿足郡津和野町", "town": "日原", "full": "島根県鹿足郡津和野町日原"}, {"postal_code": "6995637", "postal_hyphen": "699-5637", "pref": "島根県", "city": "鹿足郡津和野町", "town": "吹野", "full": "島根県鹿足郡津和野町吹野"}, {"postal_code": "6995616", "postal_hyphen": "699-5616", "pref": "島根県", "city": "鹿足郡津和野町", "town": "部栄", "full": "島根県鹿足郡津和野町部栄"}, {"postal_code": "6995207", "postal_hyphen": "699-5207", "pref": "島根県", "city": "鹿足郡津和野町", "town": "枕瀬", "full": "島根県鹿足郡津和野町枕瀬"}, {"postal_code": "6995611", "postal_hyphen": "699-5611", "pref": "島根県", "city": "鹿足郡津和野町", "town": "町田", "full": "島根県鹿足郡津和野町町田"}, {"postal_code": "6995622", "postal_hyphen": "699-5622", "pref": "島根県", "city": "鹿足郡津和野町", "town": "邑輝", "full": "島根県鹿足郡津和野町邑輝"}, {"postal_code": "6995604", "postal_hyphen": "699-5604", "pref": "島根県", "city": "鹿足郡津和野町", "town": "森村", "full": "島根県鹿足郡津和野町森村"}, {"postal_code": "6995217", "postal_hyphen": "699-5217", "pref": "島根県", "city": "鹿足郡津和野町", "town": "柳村", "full": "島根県鹿足郡津和野町柳村"}, {"postal_code": "6995635", "postal_hyphen": "699-5635", "pref": "島根県", "city": "鹿足郡津和野町", "town": "山下", "full": "島根県鹿足郡津和野町山下"}, {"postal_code": "6995613", "postal_hyphen": "699-5613", "pref": "島根県", "city": "鹿足郡津和野町", "town": "鷲原", "full": "島根県鹿足郡津和野町鷲原"}, {"postal_code": "6995500", "postal_hyphen": "699-5500", "pref": "島根県", "city": "鹿足郡吉賀町", "town": "", "full": "島根県鹿足郡吉賀町"}, {"postal_code": "6995523", "postal_hyphen": "699-5523", "pref": "島根県", "city": "鹿足郡吉賀町", "town": "朝倉", "full": "島根県鹿足郡吉賀町朝倉"}, {"postal_code": "6995506", "postal_hyphen": "699-5506", "pref": "島根県", "city": "鹿足郡吉賀町", "town": "有飯", "full": "島根県鹿足郡吉賀町有飯"}, {"postal_code": "6995306", "postal_hyphen": "699-5306", "pref": "島根県", "city": "鹿足郡吉賀町", "town": "大野原", "full": "島根県鹿足郡吉賀町大野原"}, {"postal_code": "6995301", "postal_hyphen": "699-5301", "pref": "島根県", "city": "鹿足郡吉賀町", "town": "柿木", "full": "島根県鹿足郡吉賀町柿木"}, {"postal_code": "6995303", "postal_hyphen": "699-5303", "pref": "島根県", "city": "鹿足郡吉賀町", "town": "椛谷", "full": "島根県鹿足郡吉賀町椛谷"}, {"postal_code": "6995501", "postal_hyphen": "699-5501", "pref": "島根県", "city": "鹿足郡吉賀町", "town": "上高尻", "full": "島根県鹿足郡吉賀町上高尻"}, {"postal_code": "6995307", "postal_hyphen": "699-5307", "pref": "島根県", "city": "鹿足郡吉賀町", "town": "木部谷", "full": "島根県鹿足郡吉賀町木部谷"}, {"postal_code": "6995504", "postal_hyphen": "699-5504", "pref": "島根県", "city": "鹿足郡吉賀町", "town": "蔵木", "full": "島根県鹿足郡吉賀町蔵木"}, {"postal_code": "6995505", "postal_hyphen": "699-5505", "pref": "島根県", "city": "鹿足郡吉賀町", "town": "九郎原", "full": "島根県鹿足郡吉賀町九郎原"}, {"postal_code": "6995515", "postal_hyphen": "699-5515", "pref": "島根県", "city": "鹿足郡吉賀町", "town": "幸地", "full": "島根県鹿足郡吉賀町幸地"}, {"postal_code": "6995521", "postal_hyphen": "699-5521", "pref": "島根県", "city": "鹿足郡吉賀町", "town": "真田", "full": "島根県鹿足郡吉賀町真田"}, {"postal_code": "6995516", "postal_hyphen": "699-5516", "pref": "島根県", "city": "鹿足郡吉賀町", "town": "沢田", "full": "島根県鹿足郡吉賀町沢田"}, {"postal_code": "6995517", "postal_hyphen": "699-5517", "pref": "島根県", "city": "鹿足郡吉賀町", "town": "注連川", "full": "島根県鹿足郡吉賀町注連川"}, {"postal_code": "6995305", "postal_hyphen": "699-5305", "pref": "島根県", "city": "鹿足郡吉賀町", "town": "下須", "full": "島根県鹿足郡吉賀町下須"}, {"postal_code": "6995507", "postal_hyphen": "699-5507", "pref": "島根県", "city": "鹿足郡吉賀町", "town": "下高尻", "full": "島根県鹿足郡吉賀町下高尻"}, {"postal_code": "6995304", "postal_hyphen": "699-5304", "pref": "島根県", "city": "鹿足郡吉賀町", "town": "白谷", "full": "島根県鹿足郡吉賀町白谷"}, {"postal_code": "6995514", "postal_hyphen": "699-5514", "pref": "島根県", "city": "鹿足郡吉賀町", "town": "立河内", "full": "島根県鹿足郡吉賀町立河内"}, {"postal_code": "6995511", "postal_hyphen": "699-5511", "pref": "島根県", "city": "鹿足郡吉賀町", "town": "立戸", "full": "島根県鹿足郡吉賀町立戸"}, {"postal_code": "6995524", "postal_hyphen": "699-5524", "pref": "島根県", "city": "鹿足郡吉賀町", "town": "蓼野", "full": "島根県鹿足郡吉賀町蓼野"}, {"postal_code": "6995502", "postal_hyphen": "699-5502", "pref": "島根県", "city": "鹿足郡吉賀町", "town": "田野原", "full": "島根県鹿足郡吉賀町田野原"}, {"postal_code": "6995522", "postal_hyphen": "699-5522", "pref": "島根県", "city": "鹿足郡吉賀町", "town": "七日市", "full": "島根県鹿足郡吉賀町七日市"}, {"postal_code": "6995525", "postal_hyphen": "699-5525", "pref": "島根県", "city": "鹿足郡吉賀町", "town": "抜月", "full": "島根県鹿足郡吉賀町抜月"}, {"postal_code": "6995503", "postal_hyphen": "699-5503", "pref": "島根県", "city": "鹿足郡吉賀町", "town": "樋口", "full": "島根県鹿足郡吉賀町樋口"}, {"postal_code": "6995512", "postal_hyphen": "699-5512", "pref": "島根県", "city": "鹿足郡吉賀町", "town": "広石", "full": "島根県鹿足郡吉賀町広石"}, {"postal_code": "6995302", "postal_hyphen": "699-5302", "pref": "島根県", "city": "鹿足郡吉賀町", "town": "福川", "full": "島根県鹿足郡吉賀町福川"}, {"postal_code": "6995513", "postal_hyphen": "699-5513", "pref": "島根県", "city": "鹿足郡吉賀町", "town": "六日市", "full": "島根県鹿足郡吉賀町六日市"}, {"postal_code": "6840400", "postal_hyphen": "684-0400", "pref": "島根県", "city": "隠岐郡海士町", "town": "", "full": "島根県隠岐郡海士町"}, {"postal_code": "6840403", "postal_hyphen": "684-0403", "pref": "島根県", "city": "隠岐郡海士町", "town": "海士", "full": "島根県隠岐郡海士町海士"}, {"postal_code": "6840401", "postal_hyphen": "684-0401", "pref": "島根県", "city": "隠岐郡海士町", "town": "宇受賀", "full": "島根県隠岐郡海士町宇受賀"}, {"postal_code": "6840413", "postal_hyphen": "684-0413", "pref": "島根県", "city": "隠岐郡海士町", "town": "崎", "full": "島根県隠岐郡海士町崎"}, {"postal_code": "6840411", "postal_hyphen": "684-0411", "pref": "島根県", "city": "隠岐郡海士町", "town": "知々井", "full": "島根県隠岐郡海士町知々井"}, {"postal_code": "6840402", "postal_hyphen": "684-0402", "pref": "島根県", "city": "隠岐郡海士町", "town": "豊田", "full": "島根県隠岐郡海士町豊田"}, {"postal_code": "6840404", "postal_hyphen": "684-0404", "pref": "島根県", "city": "隠岐郡海士町", "town": "福井", "full": "島根県隠岐郡海士町福井"}, {"postal_code": "6840412", "postal_hyphen": "684-0412", "pref": "島根県", "city": "隠岐郡海士町", "town": "御波", "full": "島根県隠岐郡海士町御波"}, {"postal_code": "6840300", "postal_hyphen": "684-0300", "pref": "島根県", "city": "隠岐郡西ノ島町", "town": "", "full": "島根県隠岐郡西ノ島町"}, {"postal_code": "6840301", "postal_hyphen": "684-0301", "pref": "島根県", "city": "隠岐郡西ノ島町", "town": "宇賀", "full": "島根県隠岐郡西ノ島町宇賀"}, {"postal_code": "6840211", "postal_hyphen": "684-0211", "pref": "島根県", "city": "隠岐郡西ノ島町", "town": "浦郷", "full": "島根県隠岐郡西ノ島町浦郷"}, {"postal_code": "6840302", "postal_hyphen": "684-0302", "pref": "島根県", "city": "隠岐郡西ノ島町", "town": "別府", "full": "島根県隠岐郡西ノ島町別府"}, {"postal_code": "6840303", "postal_hyphen": "684-0303", "pref": "島根県", "city": "隠岐郡西ノ島町", "town": "美田", "full": "島根県隠岐郡西ノ島町美田"}, {"postal_code": "6840100", "postal_hyphen": "684-0100", "pref": "島根県", "city": "隠岐郡知夫村", "town": "", "full": "島根県隠岐郡知夫村"}, {"postal_code": "6840104", "postal_hyphen": "684-0104", "pref": "島根県", "city": "隠岐郡知夫村", "town": "薄毛", "full": "島根県隠岐郡知夫村薄毛"}, {"postal_code": "6840107", "postal_hyphen": "684-0107", "pref": "島根県", "city": "隠岐郡知夫村", "town": "古海", "full": "島根県隠岐郡知夫村古海"}, {"postal_code": "6840101", "postal_hyphen": "684-0101", "pref": "島根県", "city": "隠岐郡知夫村", "town": "大江", "full": "島根県隠岐郡知夫村大江"}, {"postal_code": "6840106", "postal_hyphen": "684-0106", "pref": "島根県", "city": "隠岐郡知夫村", "town": "来居", "full": "島根県隠岐郡知夫村来居"}, {"postal_code": "6840102", "postal_hyphen": "684-0102", "pref": "島根県", "city": "隠岐郡知夫村", "town": "郡", "full": "島根県隠岐郡知夫村郡"}, {"postal_code": "6840103", "postal_hyphen": "684-0103", "pref": "島根県", "city": "隠岐郡知夫村", "town": "多沢", "full": "島根県隠岐郡知夫村多沢"}, {"postal_code": "6840105", "postal_hyphen": "684-0105", "pref": "島根県", "city": "隠岐郡知夫村", "town": "仁夫", "full": "島根県隠岐郡知夫村仁夫"}, {"postal_code": "6850000", "postal_hyphen": "685-0000", "pref": "島根県", "city": "隠岐郡隠岐の島町", "town": "", "full": "島根県隠岐郡隠岐の島町"}, {"postal_code": "6850006", "postal_hyphen": "685-0006", "pref": "島根県", "city": "隠岐郡隠岐の島町", "town": "有木", "full": "島根県隠岐郡隠岐の島町有木"}, {"postal_code": "6850004", "postal_hyphen": "685-0004", "pref": "島根県", "city": "隠岐郡隠岐の島町", "town": "飯田", "full": "島根県隠岐郡隠岐の島町飯田"}, {"postal_code": "6850411", "postal_hyphen": "685-0411", "pref": "島根県", "city": "隠岐郡隠岐の島町", "town": "飯美", "full": "島根県隠岐郡隠岐の島町飯美"}, {"postal_code": "6850007", "postal_hyphen": "685-0007", "pref": "島根県", "city": "隠岐郡隠岐の島町", "town": "池田", "full": "島根県隠岐郡隠岐の島町池田"}, {"postal_code": "6850431", "postal_hyphen": "685-0431", "pref": "島根県", "city": "隠岐郡隠岐の島町", "town": "伊後（その他）", "full": "島根県隠岐郡隠岐の島町伊後（その他）"}, {"postal_code": "6850306", "postal_hyphen": "685-0306", "pref": "島根県", "city": "隠岐郡隠岐の島町", "town": "伊後（向ケ丘）", "full": "島根県隠岐郡隠岐の島町伊後（向ケ丘）"}, {"postal_code": "6850003", "postal_hyphen": "685-0003", "pref": "島根県", "city": "隠岐郡隠岐の島町", "town": "犬来", "full": "島根県隠岐郡隠岐の島町犬来"}, {"postal_code": "6850022", "postal_hyphen": "685-0022", "pref": "島根県", "city": "隠岐郡隠岐の島町", "town": "今津", "full": "島根県隠岐郡隠岐の島町今津"}, {"postal_code": "6850413", "postal_hyphen": "685-0413", "pref": "島根県", "city": "隠岐郡隠岐の島町", "town": "卯敷", "full": "島根県隠岐郡隠岐の島町卯敷"}, {"postal_code": "6850001", "postal_hyphen": "685-0001", "pref": "島根県", "city": "隠岐郡隠岐の島町", "town": "大久", "full": "島根県隠岐郡隠岐の島町大久"}, {"postal_code": "6850002", "postal_hyphen": "685-0002", "pref": "島根県", "city": "隠岐郡隠岐の島町", "town": "釜", "full": "島根県隠岐郡隠岐の島町釜"}, {"postal_code": "6850026", "postal_hyphen": "685-0026", "pref": "島根県", "city": "隠岐郡隠岐の島町", "town": "上西", "full": "島根県隠岐郡隠岐の島町上西"}, {"postal_code": "6850024", "postal_hyphen": "685-0024", "pref": "島根県", "city": "隠岐郡隠岐の島町", "town": "加茂", "full": "島根県隠岐郡隠岐の島町加茂"}, {"postal_code": "6850435", "postal_hyphen": "685-0435", "pref": "島根県", "city": "隠岐郡隠岐の島町", "town": "元屋", "full": "島根県隠岐郡隠岐の島町元屋"}, {"postal_code": "6850301", "postal_hyphen": "685-0301", "pref": "島根県", "city": "隠岐郡隠岐の島町", "town": "北方", "full": "島根県隠岐郡隠岐の島町北方"}, {"postal_code": "6850305", "postal_hyphen": "685-0305", "pref": "島根県", "city": "隠岐郡隠岐の島町", "town": "久見", "full": "島根県隠岐郡隠岐の島町久見"}, {"postal_code": "6850101", "postal_hyphen": "685-0101", "pref": "島根県", "city": "隠岐郡隠岐の島町", "town": "蔵田", "full": "島根県隠岐郡隠岐の島町蔵田"}, {"postal_code": "6850312", "postal_hyphen": "685-0312", "pref": "島根県", "city": "隠岐郡隠岐の島町", "town": "小路", "full": "島根県隠岐郡隠岐の島町小路"}, {"postal_code": "6850311", "postal_hyphen": "685-0311", "pref": "島根県", "city": "隠岐郡隠岐の島町", "town": "郡", "full": "島根県隠岐郡隠岐の島町郡"}, {"postal_code": "6850011", "postal_hyphen": "685-0011", "pref": "島根県", "city": "隠岐郡隠岐の島町", "town": "栄町", "full": "島根県隠岐郡隠岐の島町栄町"}, {"postal_code": "6850017", "postal_hyphen": "685-0017", "pref": "島根県", "city": "隠岐郡隠岐の島町", "town": "下西", "full": "島根県隠岐郡隠岐の島町下西"}, {"postal_code": "6850016", "postal_hyphen": "685-0016", "pref": "島根県", "city": "隠岐郡隠岐の島町", "town": "城北町", "full": "島根県隠岐郡隠岐の島町城北町"}, {"postal_code": "6850304", "postal_hyphen": "685-0304", "pref": "島根県", "city": "隠岐郡隠岐の島町", "town": "代", "full": "島根県隠岐郡隠岐の島町代"}, {"postal_code": "6850106", "postal_hyphen": "685-0106", "pref": "島根県", "city": "隠岐郡隠岐の島町", "town": "蛸木", "full": "島根県隠岐郡隠岐の島町蛸木"}, {"postal_code": "6850105", "postal_hyphen": "685-0105", "pref": "島根県", "city": "隠岐郡隠岐の島町", "town": "津戸", "full": "島根県隠岐郡隠岐の島町津戸"}, {"postal_code": "6850104", "postal_hyphen": "685-0104", "pref": "島根県", "city": "隠岐郡隠岐の島町", "town": "都万", "full": "島根県隠岐郡隠岐の島町都万"}, {"postal_code": "6850005", "postal_hyphen": "685-0005", "pref": "島根県", "city": "隠岐郡隠岐の島町", "town": "東郷", "full": "島根県隠岐郡隠岐の島町東郷"}, {"postal_code": "6850013", "postal_hyphen": "685-0013", "pref": "島根県", "city": "隠岐郡隠岐の島町", "town": "中町", "full": "島根県隠岐郡隠岐の島町中町"}, {"postal_code": "6850434", "postal_hyphen": "685-0434", "pref": "島根県", "city": "隠岐郡隠岐の島町", "town": "中村", "full": "島根県隠岐郡隠岐の島町中村"}, {"postal_code": "6850103", "postal_hyphen": "685-0103", "pref": "島根県", "city": "隠岐郡隠岐の島町", "town": "那久", "full": "島根県隠岐郡隠岐の島町那久"}, {"postal_code": "6850313", "postal_hyphen": "685-0313", "pref": "島根県", "city": "隠岐郡隠岐の島町", "town": "那久路", "full": "島根県隠岐郡隠岐の島町那久路"}, {"postal_code": "6850302", "postal_hyphen": "685-0302", "pref": "島根県", "city": "隠岐郡隠岐の島町", "town": "苗代田", "full": "島根県隠岐郡隠岐の島町苗代田"}, {"postal_code": "6850023", "postal_hyphen": "685-0023", "pref": "島根県", "city": "隠岐郡隠岐の島町", "town": "西田", "full": "島根県隠岐郡隠岐の島町西田"}, {"postal_code": "6850014", "postal_hyphen": "685-0014", "pref": "島根県", "city": "隠岐郡隠岐の島町", "town": "西町", "full": "島根県隠岐郡隠岐の島町西町"}, {"postal_code": "6850432", "postal_hyphen": "685-0432", "pref": "島根県", "city": "隠岐郡隠岐の島町", "town": "西村", "full": "島根県隠岐郡隠岐の島町西村"}, {"postal_code": "6850027", "postal_hyphen": "685-0027", "pref": "島根県", "city": "隠岐郡隠岐の島町", "town": "原田", "full": "島根県隠岐郡隠岐の島町原田"}, {"postal_code": "6850012", "postal_hyphen": "685-0012", "pref": "島根県", "city": "隠岐郡隠岐の島町", "town": "東町", "full": "島根県隠岐郡隠岐の島町東町"}, {"postal_code": "6850412", "postal_hyphen": "685-0412", "pref": "島根県", "city": "隠岐郡隠岐の島町", "town": "布施", "full": "島根県隠岐郡隠岐の島町布施"}, {"postal_code": "6850025", "postal_hyphen": "685-0025", "pref": "島根県", "city": "隠岐郡隠岐の島町", "town": "平", "full": "島根県隠岐郡隠岐の島町平"}, {"postal_code": "6850021", "postal_hyphen": "685-0021", "pref": "島根県", "city": "隠岐郡隠岐の島町", "town": "岬町", "full": "島根県隠岐郡隠岐の島町岬町"}, {"postal_code": "6850433", "postal_hyphen": "685-0433", "pref": "島根県", "city": "隠岐郡隠岐の島町", "town": "湊", "full": "島根県隠岐郡隠岐の島町湊"}, {"postal_code": "6850015", "postal_hyphen": "685-0015", "pref": "島根県", "city": "隠岐郡隠岐の島町", "town": "港町", "full": "島根県隠岐郡隠岐の島町港町"}, {"postal_code": "6850303", "postal_hyphen": "685-0303", "pref": "島根県", "city": "隠岐郡隠岐の島町", "town": "南方", "full": "島根県隠岐郡隠岐の島町南方"}, {"postal_code": "6850314", "postal_hyphen": "685-0314", "pref": "島根県", "city": "隠岐郡隠岐の島町", "town": "山田", "full": "島根県隠岐郡隠岐の島町山田"}, {"postal_code": "6850102", "postal_hyphen": "685-0102", "pref": "島根県", "city": "隠岐郡隠岐の島町", "town": "油井", "full": "島根県隠岐郡隠岐の島町油井"}]