[{"postal_code": "7700000", "postal_hyphen": "770-0000", "pref": "徳島県", "city": "徳島市", "town": "", "full": "徳島県徳島市"}, {"postal_code": "7700835", "postal_hyphen": "770-0835", "pref": "徳島県", "city": "徳島市", "town": "藍場町", "full": "徳島県徳島市藍場町"}, {"postal_code": "7700934", "postal_hyphen": "770-0934", "pref": "徳島県", "city": "徳島市", "town": "秋田町", "full": "徳島県徳島市秋田町"}, {"postal_code": "7700046", "postal_hyphen": "770-0046", "pref": "徳島県", "city": "徳島市", "town": "鮎喰町", "full": "徳島県徳島市鮎喰町"}, {"postal_code": "7700863", "postal_hyphen": "770-0863", "pref": "徳島県", "city": "徳島市", "town": "安宅", "full": "徳島県徳島市安宅"}, {"postal_code": "7714265", "postal_hyphen": "771-4265", "pref": "徳島県", "city": "徳島市", "town": "飯谷町", "full": "徳島県徳島市飯谷町"}, {"postal_code": "7700926", "postal_hyphen": "770-0926", "pref": "徳島県", "city": "徳島市", "town": "伊賀町", "full": "徳島県徳島市伊賀町"}, {"postal_code": "7793132", "postal_hyphen": "779-3132", "pref": "徳島県", "city": "徳島市", "town": "一宮町", "full": "徳島県徳島市一宮町"}, {"postal_code": "7700833", "postal_hyphen": "770-0833", "pref": "徳島県", "city": "徳島市", "town": "一番町", "full": "徳島県徳島市一番町"}, {"postal_code": "7700935", "postal_hyphen": "770-0935", "pref": "徳島県", "city": "徳島市", "town": "伊月町", "full": "徳島県徳島市伊月町"}, {"postal_code": "7711156", "postal_hyphen": "771-1156", "pref": "徳島県", "city": "徳島市", "town": "応神町応神産業団地", "full": "徳島県徳島市応神町応神産業団地"}, {"postal_code": "7711152", "postal_hyphen": "771-1152", "pref": "徳島県", "city": "徳島市", "town": "応神町中原", "full": "徳島県徳島市応神町中原"}, {"postal_code": "7711154", "postal_hyphen": "771-1154", "pref": "徳島県", "city": "徳島市", "town": "応神町東貞方", "full": "徳島県徳島市応神町東貞方"}, {"postal_code": "7711155", "postal_hyphen": "771-1155", "pref": "徳島県", "city": "徳島市", "town": "応神町西貞方", "full": "徳島県徳島市応神町西貞方"}, {"postal_code": "7711151", "postal_hyphen": "771-1151", "pref": "徳島県", "city": "徳島市", "town": "応神町古川", "full": "徳島県徳島市応神町古川"}, {"postal_code": "7711153", "postal_hyphen": "771-1153", "pref": "徳島県", "city": "徳島市", "town": "応神町吉成", "full": "徳島県徳島市応神町吉成"}, {"postal_code": "7708031", "postal_hyphen": "770-8031", "pref": "徳島県", "city": "徳島市", "town": "大谷町", "full": "徳島県徳島市大谷町"}, {"postal_code": "7730070", "postal_hyphen": "773-0070", "pref": "徳島県", "city": "徳島市", "town": "大原町（小神子、小神子山）", "full": "徳島県徳島市大原町（小神子、小神子山）"}, {"postal_code": "7708012", "postal_hyphen": "770-8012", "pref": "徳島県", "city": "徳島市", "town": "大原町（その他）", "full": "徳島県徳島市大原町（その他）"}, {"postal_code": "7708022", "postal_hyphen": "770-8022", "pref": "徳島県", "city": "徳島市", "town": "大松町", "full": "徳島県徳島市大松町"}, {"postal_code": "7700923", "postal_hyphen": "770-0923", "pref": "徳島県", "city": "徳島市", "town": "大道", "full": "徳島県徳島市大道"}, {"postal_code": "7708052", "postal_hyphen": "770-8052", "pref": "徳島県", "city": "徳島市", "town": "沖浜", "full": "徳島県徳島市沖浜"}, {"postal_code": "7708051", "postal_hyphen": "770-8051", "pref": "徳島県", "city": "徳島市", "town": "沖浜町", "full": "徳島県徳島市沖浜町"}, {"postal_code": "7708053", "postal_hyphen": "770-8053", "pref": "徳島県", "city": "徳島市", "town": "沖浜東", "full": "徳島県徳島市沖浜東"}, {"postal_code": "7700914", "postal_hyphen": "770-0914", "pref": "徳島県", "city": "徳島市", "town": "籠屋町", "full": "徳島県徳島市籠屋町"}, {"postal_code": "7700002", "postal_hyphen": "770-0002", "pref": "徳島県", "city": "徳島市", "town": "春日", "full": "徳島県徳島市春日"}, {"postal_code": "7700001", "postal_hyphen": "770-0001", "pref": "徳島県", "city": "徳島市", "town": "春日町", "full": "徳島県徳島市春日町"}, {"postal_code": "7708033", "postal_hyphen": "770-8033", "pref": "徳島県", "city": "徳島市", "town": "方上町", "full": "徳島県徳島市方上町"}, {"postal_code": "7700939", "postal_hyphen": "770-0939", "pref": "徳島県", "city": "徳島市", "town": "かちどき橋", "full": "徳島県徳島市かちどき橋"}, {"postal_code": "7708023", "postal_hyphen": "770-8023", "pref": "徳島県", "city": "徳島市", "town": "勝占町", "full": "徳島県徳島市勝占町"}, {"postal_code": "7700871", "postal_hyphen": "770-0871", "pref": "徳島県", "city": "徳島市", "town": "金沢", "full": "徳島県徳島市金沢"}, {"postal_code": "7700801", "postal_hyphen": "770-0801", "pref": "徳島県", "city": "徳島市", "town": "上助任町", "full": "徳島県徳島市上助任町"}, {"postal_code": "7708041", "postal_hyphen": "770-8041", "pref": "徳島県", "city": "徳島市", "town": "上八万町西山（しらさぎ台）", "full": "徳島県徳島市上八万町西山（しらさぎ台）"}, {"postal_code": "7708040", "postal_hyphen": "770-8040", "pref": "徳島県", "city": "徳島市", "town": "上八万町（その他）", "full": "徳島県徳島市上八万町（その他）"}, {"postal_code": "7700803", "postal_hyphen": "770-0803", "pref": "徳島県", "city": "徳島市", "town": "上吉野町", "full": "徳島県徳島市上吉野町"}, {"postal_code": "7700048", "postal_hyphen": "770-0048", "pref": "徳島県", "city": "徳島市", "town": "加茂名町", "full": "徳島県徳島市加茂名町"}, {"postal_code": "7710101", "postal_hyphen": "771-0101", "pref": "徳島県", "city": "徳島市", "town": "川内町（旭野）", "full": "徳島県徳島市川内町（旭野）"}, {"postal_code": "7710144", "postal_hyphen": "771-0144", "pref": "徳島県", "city": "徳島市", "town": "川内町（榎瀬）", "full": "徳島県徳島市川内町（榎瀬）"}, {"postal_code": "7710131", "postal_hyphen": "771-0131", "pref": "徳島県", "city": "徳島市", "town": "川内町（大松）", "full": "徳島県徳島市川内町（大松）"}, {"postal_code": "7710142", "postal_hyphen": "771-0142", "pref": "徳島県", "city": "徳島市", "town": "川内町（沖島）", "full": "徳島県徳島市川内町（沖島）"}, {"postal_code": "7710130", "postal_hyphen": "771-0130", "pref": "徳島県", "city": "徳島市", "town": "川内町（加賀須野）", "full": "徳島県徳島市川内町（加賀須野）"}, {"postal_code": "7710125", "postal_hyphen": "771-0125", "pref": "徳島県", "city": "徳島市", "town": "川内町（金岡）", "full": "徳島県徳島市川内町（金岡）"}, {"postal_code": "7710126", "postal_hyphen": "771-0126", "pref": "徳島県", "city": "徳島市", "town": "川内町（上別宮東）", "full": "徳島県徳島市川内町（上別宮東）"}, {"postal_code": "7710127", "postal_hyphen": "771-0127", "pref": "徳島県", "city": "徳島市", "town": "川内町（上別宮南）", "full": "徳島県徳島市川内町（上別宮南）"}, {"postal_code": "7710128", "postal_hyphen": "771-0128", "pref": "徳島県", "city": "徳島市", "town": "川内町（上別宮北）", "full": "徳島県徳島市川内町（上別宮北）"}, {"postal_code": "7710129", "postal_hyphen": "771-0129", "pref": "徳島県", "city": "徳島市", "town": "川内町（北原）", "full": "徳島県徳島市川内町（北原）"}, {"postal_code": "7710103", "postal_hyphen": "771-0103", "pref": "徳島県", "city": "徳島市", "town": "川内町（小松東）", "full": "徳島県徳島市川内町（小松東）"}, {"postal_code": "7710104", "postal_hyphen": "771-0104", "pref": "徳島県", "city": "徳島市", "town": "川内町（小松西）", "full": "徳島県徳島市川内町（小松西）"}, {"postal_code": "7710102", "postal_hyphen": "771-0102", "pref": "徳島県", "city": "徳島市", "town": "川内町（小松北）", "full": "徳島県徳島市川内町（小松北）"}, {"postal_code": "7710106", "postal_hyphen": "771-0106", "pref": "徳島県", "city": "徳島市", "town": "川内町（下別宮東）", "full": "徳島県徳島市川内町（下別宮東）"}, {"postal_code": "7710105", "postal_hyphen": "771-0105", "pref": "徳島県", "city": "徳島市", "town": "川内町（下別宮西）", "full": "徳島県徳島市川内町（下別宮西）"}, {"postal_code": "7710121", "postal_hyphen": "771-0121", "pref": "徳島県", "city": "徳島市", "town": "川内町（鈴江東）", "full": "徳島県徳島市川内町（鈴江東）"}, {"postal_code": "7710122", "postal_hyphen": "771-0122", "pref": "徳島県", "city": "徳島市", "town": "川内町（鈴江西）", "full": "徳島県徳島市川内町（鈴江西）"}, {"postal_code": "7710124", "postal_hyphen": "771-0124", "pref": "徳島県", "city": "徳島市", "town": "川内町（鈴江南）", "full": "徳島県徳島市川内町（鈴江南）"}, {"postal_code": "7710123", "postal_hyphen": "771-0123", "pref": "徳島県", "city": "徳島市", "town": "川内町（鈴江北）", "full": "徳島県徳島市川内町（鈴江北）"}, {"postal_code": "7710141", "postal_hyphen": "771-0141", "pref": "徳島県", "city": "徳島市", "town": "川内町（竹須賀）", "full": "徳島県徳島市川内町（竹須賀）"}, {"postal_code": "7710117", "postal_hyphen": "771-0117", "pref": "徳島県", "city": "徳島市", "town": "川内町（鶴島）", "full": "徳島県徳島市川内町（鶴島）"}, {"postal_code": "7710111", "postal_hyphen": "771-0111", "pref": "徳島県", "city": "徳島市", "town": "川内町（富久）", "full": "徳島県徳島市川内町（富久）"}, {"postal_code": "7710112", "postal_hyphen": "771-0112", "pref": "徳島県", "city": "徳島市", "town": "川内町（富吉）", "full": "徳島県徳島市川内町（富吉）"}, {"postal_code": "7710143", "postal_hyphen": "771-0143", "pref": "徳島県", "city": "徳島市", "town": "川内町（中島）", "full": "徳島県徳島市川内町（中島）"}, {"postal_code": "7710132", "postal_hyphen": "771-0132", "pref": "徳島県", "city": "徳島市", "town": "川内町（平石夷野）", "full": "徳島県徳島市川内町（平石夷野）"}, {"postal_code": "7710133", "postal_hyphen": "771-0133", "pref": "徳島県", "city": "徳島市", "town": "川内町（平石夷野番外）", "full": "徳島県徳島市川内町（平石夷野番外）"}, {"postal_code": "7710136", "postal_hyphen": "771-0136", "pref": "徳島県", "city": "徳島市", "town": "川内町（平石古田）", "full": "徳島県徳島市川内町（平石古田）"}, {"postal_code": "7710134", "postal_hyphen": "771-0134", "pref": "徳島県", "city": "徳島市", "town": "川内町（平石住吉）", "full": "徳島県徳島市川内町（平石住吉）"}, {"postal_code": "7710138", "postal_hyphen": "771-0138", "pref": "徳島県", "city": "徳島市", "town": "川内町（平石流通団地）", "full": "徳島県徳島市川内町（平石流通団地）"}, {"postal_code": "7710135", "postal_hyphen": "771-0135", "pref": "徳島県", "city": "徳島市", "town": "川内町（平石若松）", "full": "徳島県徳島市川内町（平石若松）"}, {"postal_code": "7710137", "postal_hyphen": "771-0137", "pref": "徳島県", "city": "徳島市", "town": "川内町（平石若宮）", "full": "徳島県徳島市川内町（平石若宮）"}, {"postal_code": "7710113", "postal_hyphen": "771-0113", "pref": "徳島県", "city": "徳島市", "town": "川内町（松岡）", "full": "徳島県徳島市川内町（松岡）"}, {"postal_code": "7710116", "postal_hyphen": "771-0116", "pref": "徳島県", "city": "徳島市", "town": "川内町（宮島錦野）", "full": "徳島県徳島市川内町（宮島錦野）"}, {"postal_code": "7710115", "postal_hyphen": "771-0115", "pref": "徳島県", "city": "徳島市", "town": "川内町（宮島浜）", "full": "徳島県徳島市川内町（宮島浜）"}, {"postal_code": "7710114", "postal_hyphen": "771-0114", "pref": "徳島県", "city": "徳島市", "town": "川内町（宮島本浦）", "full": "徳島県徳島市川内町（宮島本浦）"}, {"postal_code": "7710139", "postal_hyphen": "771-0139", "pref": "徳島県", "city": "徳島市", "town": "川内町（米津）", "full": "徳島県徳島市川内町（米津）"}, {"postal_code": "7700872", "postal_hyphen": "770-0872", "pref": "徳島県", "city": "徳島市", "town": "北沖洲", "full": "徳島県徳島市北沖洲"}, {"postal_code": "7700011", "postal_hyphen": "770-0011", "pref": "徳島県", "city": "徳島市", "town": "北佐古一番町", "full": "徳島県徳島市北佐古一番町"}, {"postal_code": "7700012", "postal_hyphen": "770-0012", "pref": "徳島県", "city": "徳島市", "town": "北佐古二番町", "full": "徳島県徳島市北佐古二番町"}, {"postal_code": "7700051", "postal_hyphen": "770-0051", "pref": "徳島県", "city": "徳島市", "town": "北島田町", "full": "徳島県徳島市北島田町"}, {"postal_code": "7700812", "postal_hyphen": "770-0812", "pref": "徳島県", "city": "徳島市", "town": "北常三島町", "full": "徳島県徳島市北常三島町"}, {"postal_code": "7700003", "postal_hyphen": "770-0003", "pref": "徳島県", "city": "徳島市", "town": "北田宮", "full": "徳島県徳島市北田宮"}, {"postal_code": "7700821", "postal_hyphen": "770-0821", "pref": "徳島県", "city": "徳島市", "town": "北出来島町", "full": "徳島県徳島市北出来島町"}, {"postal_code": "7700806", "postal_hyphen": "770-0806", "pref": "徳島県", "city": "徳島市", "town": "北前川町", "full": "徳島県徳島市北前川町"}, {"postal_code": "7700006", "postal_hyphen": "770-0006", "pref": "徳島県", "city": "徳島市", "town": "北矢三町", "full": "徳島県徳島市北矢三町"}, {"postal_code": "7708032", "postal_hyphen": "770-8032", "pref": "徳島県", "city": "徳島市", "town": "北山町", "full": "徳島県徳島市北山町"}, {"postal_code": "7700916", "postal_hyphen": "770-0916", "pref": "徳島県", "city": "徳島市", "town": "銀座", "full": "徳島県徳島市銀座"}, {"postal_code": "7700042", "postal_hyphen": "770-0042", "pref": "徳島県", "city": "徳島市", "town": "蔵本町", "full": "徳島県徳島市蔵本町"}, {"postal_code": "7700041", "postal_hyphen": "770-0041", "pref": "徳島県", "city": "徳島市", "town": "蔵本元町", "full": "徳島県徳島市蔵本元町"}, {"postal_code": "7793116", "postal_hyphen": "779-3116", "pref": "徳島県", "city": "徳島市", "town": "国府町池尻", "full": "徳島県徳島市国府町池尻"}, {"postal_code": "7793118", "postal_hyphen": "779-3118", "pref": "徳島県", "city": "徳島市", "town": "国府町井戸", "full": "徳島県徳島市国府町井戸"}, {"postal_code": "7793128", "postal_hyphen": "779-3128", "pref": "徳島県", "city": "徳島市", "town": "国府町延命", "full": "徳島県徳島市国府町延命"}, {"postal_code": "7793113", "postal_hyphen": "779-3113", "pref": "徳島県", "city": "徳島市", "town": "国府町川原田", "full": "徳島県徳島市国府町川原田"}, {"postal_code": "7793123", "postal_hyphen": "779-3123", "pref": "徳島県", "city": "徳島市", "town": "国府町観音寺", "full": "徳島県徳島市国府町観音寺"}, {"postal_code": "7793122", "postal_hyphen": "779-3122", "pref": "徳島県", "city": "徳島市", "town": "国府町府中", "full": "徳島県徳島市国府町府中"}, {"postal_code": "7793114", "postal_hyphen": "779-3114", "pref": "徳島県", "city": "徳島市", "town": "国府町桜間", "full": "徳島県徳島市国府町桜間"}, {"postal_code": "7793101", "postal_hyphen": "779-3101", "pref": "徳島県", "city": "徳島市", "town": "国府町佐野塚", "full": "徳島県徳島市国府町佐野塚"}, {"postal_code": "7793115", "postal_hyphen": "779-3115", "pref": "徳島県", "city": "徳島市", "town": "国府町敷地", "full": "徳島県徳島市国府町敷地"}, {"postal_code": "7793112", "postal_hyphen": "779-3112", "pref": "徳島県", "city": "徳島市", "town": "国府町芝原", "full": "徳島県徳島市国府町芝原"}, {"postal_code": "7793124", "postal_hyphen": "779-3124", "pref": "徳島県", "city": "徳島市", "town": "国府町中", "full": "徳島県徳島市国府町中"}, {"postal_code": "7793127", "postal_hyphen": "779-3127", "pref": "徳島県", "city": "徳島市", "town": "国府町西矢野", "full": "徳島県徳島市国府町西矢野"}, {"postal_code": "7793106", "postal_hyphen": "779-3106", "pref": "徳島県", "city": "徳島市", "town": "国府町花園", "full": "徳島県徳島市国府町花園"}, {"postal_code": "7793125", "postal_hyphen": "779-3125", "pref": "徳島県", "city": "徳島市", "town": "国府町早淵", "full": "徳島県徳島市国府町早淵"}, {"postal_code": "7793117", "postal_hyphen": "779-3117", "pref": "徳島県", "city": "徳島市", "town": "国府町日開", "full": "徳島県徳島市国府町日開"}, {"postal_code": "7793103", "postal_hyphen": "779-3103", "pref": "徳島県", "city": "徳島市", "town": "国府町東黒田", "full": "徳島県徳島市国府町東黒田"}, {"postal_code": "7793102", "postal_hyphen": "779-3102", "pref": "徳島県", "city": "徳島市", "town": "国府町西黒田", "full": "徳島県徳島市国府町西黒田"}, {"postal_code": "7793120", "postal_hyphen": "779-3120", "pref": "徳島県", "city": "徳島市", "town": "国府町南岩延", "full": "徳島県徳島市国府町南岩延"}, {"postal_code": "7793119", "postal_hyphen": "779-3119", "pref": "徳島県", "city": "徳島市", "town": "国府町北岩延", "full": "徳島県徳島市国府町北岩延"}, {"postal_code": "7793105", "postal_hyphen": "779-3105", "pref": "徳島県", "city": "徳島市", "town": "国府町東高輪", "full": "徳島県徳島市国府町東高輪"}, {"postal_code": "7793104", "postal_hyphen": "779-3104", "pref": "徳島県", "city": "徳島市", "town": "国府町西高輪", "full": "徳島県徳島市国府町西高輪"}, {"postal_code": "7793126", "postal_hyphen": "779-3126", "pref": "徳島県", "city": "徳島市", "town": "国府町矢野", "full": "徳島県徳島市国府町矢野"}, {"postal_code": "7793111", "postal_hyphen": "779-3111", "pref": "徳島県", "city": "徳島市", "town": "国府町竜王", "full": "徳島県徳島市国府町竜王"}, {"postal_code": "7793121", "postal_hyphen": "779-3121", "pref": "徳島県", "city": "徳島市", "town": "国府町和田", "full": "徳島県徳島市国府町和田"}, {"postal_code": "7700918", "postal_hyphen": "770-0918", "pref": "徳島県", "city": "徳島市", "town": "紺屋町", "full": "徳島県徳島市紺屋町"}, {"postal_code": "7708021", "postal_hyphen": "770-8021", "pref": "徳島県", "city": "徳島市", "town": "雑賀町", "full": "徳島県徳島市雑賀町"}, {"postal_code": "7700847", "postal_hyphen": "770-0847", "pref": "徳島県", "city": "徳島市", "town": "幸町", "full": "徳島県徳島市幸町"}, {"postal_code": "7700921", "postal_hyphen": "770-0921", "pref": "徳島県", "city": "徳島市", "town": "栄町", "full": "徳島県徳島市栄町"}, {"postal_code": "7700021", "postal_hyphen": "770-0021", "pref": "徳島県", "city": "徳島市", "town": "佐古一番町", "full": "徳島県徳島市佐古一番町"}, {"postal_code": "7700022", "postal_hyphen": "770-0022", "pref": "徳島県", "city": "徳島市", "town": "佐古二番町", "full": "徳島県徳島市佐古二番町"}, {"postal_code": "7700023", "postal_hyphen": "770-0023", "pref": "徳島県", "city": "徳島市", "town": "佐古三番町", "full": "徳島県徳島市佐古三番町"}, {"postal_code": "7700024", "postal_hyphen": "770-0024", "pref": "徳島県", "city": "徳島市", "town": "佐古四番町", "full": "徳島県徳島市佐古四番町"}, {"postal_code": "7700025", "postal_hyphen": "770-0025", "pref": "徳島県", "city": "徳島市", "town": "佐古五番町", "full": "徳島県徳島市佐古五番町"}, {"postal_code": "7700026", "postal_hyphen": "770-0026", "pref": "徳島県", "city": "徳島市", "town": "佐古六番町", "full": "徳島県徳島市佐古六番町"}, {"postal_code": "7700027", "postal_hyphen": "770-0027", "pref": "徳島県", "city": "徳島市", "town": "佐古七番町", "full": "徳島県徳島市佐古七番町"}, {"postal_code": "7700028", "postal_hyphen": "770-0028", "pref": "徳島県", "city": "徳島市", "town": "佐古八番町", "full": "徳島県徳島市佐古八番町"}, {"postal_code": "7700039", "postal_hyphen": "770-0039", "pref": "徳島県", "city": "徳島市", "town": "佐古山町", "full": "徳島県徳島市佐古山町"}, {"postal_code": "7708025", "postal_hyphen": "770-8025", "pref": "徳島県", "city": "徳島市", "town": "三軒屋町", "full": "徳島県徳島市三軒屋町"}, {"postal_code": "7714267", "postal_hyphen": "771-4267", "pref": "徳島県", "city": "徳島市", "town": "渋野町", "full": "徳島県徳島市渋野町"}, {"postal_code": "7700805", "postal_hyphen": "770-0805", "pref": "徳島県", "city": "徳島市", "town": "下助任町", "full": "徳島県徳島市下助任町"}, {"postal_code": "7793131", "postal_hyphen": "779-3131", "pref": "徳島県", "city": "徳島市", "town": "下町", "full": "徳島県徳島市下町"}, {"postal_code": "7700862", "postal_hyphen": "770-0862", "pref": "徳島県", "city": "徳島市", "town": "城東町", "full": "徳島県徳島市城東町"}, {"postal_code": "7708064", "postal_hyphen": "770-8064", "pref": "徳島県", "city": "徳島市", "town": "城南町", "full": "徳島県徳島市城南町"}, {"postal_code": "7700044", "postal_hyphen": "770-0044", "pref": "徳島県", "city": "徳島市", "town": "庄町", "full": "徳島県徳島市庄町"}, {"postal_code": "7714263", "postal_hyphen": "771-4263", "pref": "徳島県", "city": "徳島市", "town": "丈六町（丈領）", "full": "徳島県徳島市丈六町（丈領）"}, {"postal_code": "7714262", "postal_hyphen": "771-4262", "pref": "徳島県", "city": "徳島市", "town": "丈六町（長尾）", "full": "徳島県徳島市丈六町（長尾）"}, {"postal_code": "7714261", "postal_hyphen": "771-4261", "pref": "徳島県", "city": "徳島市", "town": "丈六町（その他）", "full": "徳島県徳島市丈六町（その他）"}, {"postal_code": "7700942", "postal_hyphen": "770-0942", "pref": "徳島県", "city": "徳島市", "town": "昭和町", "full": "徳島県徳島市昭和町"}, {"postal_code": "7700845", "postal_hyphen": "770-0845", "pref": "徳島県", "city": "徳島市", "town": "新内町", "full": "徳島県徳島市新内町"}, {"postal_code": "7700855", "postal_hyphen": "770-0855", "pref": "徳島県", "city": "徳島市", "town": "新蔵町", "full": "徳島県徳島市新蔵町"}, {"postal_code": "7708006", "postal_hyphen": "770-8006", "pref": "徳島県", "city": "徳島市", "town": "新浜町", "full": "徳島県徳島市新浜町"}, {"postal_code": "7708007", "postal_hyphen": "770-8007", "pref": "徳島県", "city": "徳島市", "town": "新浜本町", "full": "徳島県徳島市新浜本町"}, {"postal_code": "7700904", "postal_hyphen": "770-0904", "pref": "徳島県", "city": "徳島市", "town": "新町橋", "full": "徳島県徳島市新町橋"}, {"postal_code": "7700867", "postal_hyphen": "770-0867", "pref": "徳島県", "city": "徳島市", "town": "新南福島", "full": "徳島県徳島市新南福島"}, {"postal_code": "7700866", "postal_hyphen": "770-0866", "pref": "徳島県", "city": "徳島市", "town": "末広", "full": "徳島県徳島市末広"}, {"postal_code": "7700815", "postal_hyphen": "770-0815", "pref": "徳島県", "city": "徳島市", "town": "助任橋", "full": "徳島県徳島市助任橋"}, {"postal_code": "7700816", "postal_hyphen": "770-0816", "pref": "徳島県", "city": "徳島市", "town": "助任本町", "full": "徳島県徳島市助任本町"}, {"postal_code": "7700861", "postal_hyphen": "770-0861", "pref": "徳島県", "city": "徳島市", "town": "住吉", "full": "徳島県徳島市住吉"}, {"postal_code": "7700927", "postal_hyphen": "770-0927", "pref": "徳島県", "city": "徳島市", "town": "勢見町", "full": "徳島県徳島市勢見町"}, {"postal_code": "7700922", "postal_hyphen": "770-0922", "pref": "徳島県", "city": "徳島市", "town": "鷹匠町", "full": "徳島県徳島市鷹匠町"}, {"postal_code": "7714264", "postal_hyphen": "771-4264", "pref": "徳島県", "city": "徳島市", "town": "多家良町", "full": "徳島県徳島市多家良町"}, {"postal_code": "7700936", "postal_hyphen": "770-0936", "pref": "徳島県", "city": "徳島市", "town": "中央通", "full": "徳島県徳島市中央通"}, {"postal_code": "7708001", "postal_hyphen": "770-8001", "pref": "徳島県", "city": "徳島市", "town": "津田海岸町", "full": "徳島県徳島市津田海岸町"}, {"postal_code": "7708004", "postal_hyphen": "770-8004", "pref": "徳島県", "city": "徳島市", "town": "津田西町", "full": "徳島県徳島市津田西町"}, {"postal_code": "7708005", "postal_hyphen": "770-8005", "pref": "徳島県", "city": "徳島市", "town": "津田浜之町", "full": "徳島県徳島市津田浜之町"}, {"postal_code": "7708003", "postal_hyphen": "770-8003", "pref": "徳島県", "city": "徳島市", "town": "津田本町", "full": "徳島県徳島市津田本町"}, {"postal_code": "7708002", "postal_hyphen": "770-8002", "pref": "徳島県", "city": "徳島市", "town": "津田町", "full": "徳島県徳島市津田町"}, {"postal_code": "7700823", "postal_hyphen": "770-0823", "pref": "徳島県", "city": "徳島市", "town": "出来島本町", "full": "徳島県徳島市出来島本町"}, {"postal_code": "7700832", "postal_hyphen": "770-0832", "pref": "徳島県", "city": "徳島市", "town": "寺島本町東", "full": "徳島県徳島市寺島本町東"}, {"postal_code": "7700831", "postal_hyphen": "770-0831", "pref": "徳島県", "city": "徳島市", "town": "寺島本町西", "full": "徳島県徳島市寺島本町西"}, {"postal_code": "7700909", "postal_hyphen": "770-0909", "pref": "徳島県", "city": "徳島市", "town": "寺町", "full": "徳島県徳島市寺町"}, {"postal_code": "7708056", "postal_hyphen": "770-8056", "pref": "徳島県", "city": "徳島市", "town": "問屋町", "full": "徳島県徳島市問屋町"}, {"postal_code": "7700842", "postal_hyphen": "770-0842", "pref": "徳島県", "city": "徳島市", "town": "通町", "full": "徳島県徳島市通町"}, {"postal_code": "7700852", "postal_hyphen": "770-0852", "pref": "徳島県", "city": "徳島市", "town": "徳島町", "full": "徳島県徳島市徳島町"}, {"postal_code": "7700851", "postal_hyphen": "770-0851", "pref": "徳島県", "city": "徳島市", "town": "徳島町城内", "full": "徳島県徳島市徳島町城内"}, {"postal_code": "7700854", "postal_hyphen": "770-0854", "pref": "徳島県", "city": "徳島市", "town": "徳島本町", "full": "徳島県徳島市徳島本町"}, {"postal_code": "7700931", "postal_hyphen": "770-0931", "pref": "徳島県", "city": "徳島市", "town": "富田浜", "full": "徳島県徳島市富田浜"}, {"postal_code": "7700937", "postal_hyphen": "770-0937", "pref": "徳島県", "city": "徳島市", "town": "富田橋", "full": "徳島県徳島市富田橋"}, {"postal_code": "7700915", "postal_hyphen": "770-0915", "pref": "徳島県", "city": "徳島市", "town": "富田町", "full": "徳島県徳島市富田町"}, {"postal_code": "7700052", "postal_hyphen": "770-0052", "pref": "徳島県", "city": "徳島市", "town": "中島田町", "full": "徳島県徳島市中島田町"}, {"postal_code": "7700943", "postal_hyphen": "770-0943", "pref": "徳島県", "city": "徳島市", "town": "中昭和町", "full": "徳島県徳島市中昭和町"}, {"postal_code": "7700813", "postal_hyphen": "770-0813", "pref": "徳島県", "city": "徳島市", "town": "中常三島町", "full": "徳島県徳島市中常三島町"}, {"postal_code": "7700856", "postal_hyphen": "770-0856", "pref": "徳島県", "city": "徳島市", "town": "中洲町", "full": "徳島県徳島市中洲町"}, {"postal_code": "7700844", "postal_hyphen": "770-0844", "pref": "徳島県", "city": "徳島市", "town": "中通町", "full": "徳島県徳島市中通町"}, {"postal_code": "7700853", "postal_hyphen": "770-0853", "pref": "徳島県", "city": "徳島市", "town": "中徳島町", "full": "徳島県徳島市中徳島町"}, {"postal_code": "7700932", "postal_hyphen": "770-0932", "pref": "徳島県", "city": "徳島市", "town": "仲之町", "full": "徳島県徳島市仲之町"}, {"postal_code": "7700807", "postal_hyphen": "770-0807", "pref": "徳島県", "city": "徳島市", "town": "中前川町", "full": "徳島県徳島市中前川町"}, {"postal_code": "7700804", "postal_hyphen": "770-0804", "pref": "徳島県", "city": "徳島市", "town": "中吉野町", "full": "徳島県徳島市中吉野町"}, {"postal_code": "7700928", "postal_hyphen": "770-0928", "pref": "徳島県", "city": "徳島市", "town": "二軒屋町", "full": "徳島県徳島市二軒屋町"}, {"postal_code": "7708008", "postal_hyphen": "770-8008", "pref": "徳島県", "city": "徳島市", "town": "西新浜町", "full": "徳島県徳島市西新浜町"}, {"postal_code": "7700902", "postal_hyphen": "770-0902", "pref": "徳島県", "city": "徳島市", "town": "西新町", "full": "徳島県徳島市西新町"}, {"postal_code": "7708024", "postal_hyphen": "770-8024", "pref": "徳島県", "city": "徳島市", "town": "西須賀町", "full": "徳島県徳島市西須賀町"}, {"postal_code": "7700901", "postal_hyphen": "770-0901", "pref": "徳島県", "city": "徳島市", "town": "西船場町", "full": "徳島県徳島市西船場町"}, {"postal_code": "7700903", "postal_hyphen": "770-0903", "pref": "徳島県", "city": "徳島市", "town": "西大工町", "full": "徳島県徳島市西大工町"}, {"postal_code": "7700929", "postal_hyphen": "770-0929", "pref": "徳島県", "city": "徳島市", "town": "西富田町", "full": "徳島県徳島市西富田町"}, {"postal_code": "7708061", "postal_hyphen": "770-8061", "pref": "徳島県", "city": "徳島市", "town": "西二軒屋町", "full": "徳島県徳島市西二軒屋町"}, {"postal_code": "7700907", "postal_hyphen": "770-0907", "pref": "徳島県", "city": "徳島市", "town": "西山手町", "full": "徳島県徳島市西山手町"}, {"postal_code": "7793133", "postal_hyphen": "779-3133", "pref": "徳島県", "city": "徳島市", "town": "入田町", "full": "徳島県徳島市入田町"}, {"postal_code": "7700924", "postal_hyphen": "770-0924", "pref": "徳島県", "city": "徳島市", "town": "幟町", "full": "徳島県徳島市幟町"}, {"postal_code": "7714266", "postal_hyphen": "771-4266", "pref": "徳島県", "city": "徳島市", "town": "八多町", "full": "徳島県徳島市八多町"}, {"postal_code": "7708076", "postal_hyphen": "770-8076", "pref": "徳島県", "city": "徳島市", "town": "八万町（内浜）", "full": "徳島県徳島市八万町（内浜）"}, {"postal_code": "7708077", "postal_hyphen": "770-8077", "pref": "徳島県", "city": "徳島市", "town": "八万町（夷山）", "full": "徳島県徳島市八万町（夷山）"}, {"postal_code": "7708079", "postal_hyphen": "770-8079", "pref": "徳島県", "city": "徳島市", "town": "八万町（大坪）", "full": "徳島県徳島市八万町（大坪）"}, {"postal_code": "7708073", "postal_hyphen": "770-8073", "pref": "徳島県", "city": "徳島市", "town": "八万町（上福万）", "full": "徳島県徳島市八万町（上福万）"}, {"postal_code": "7708074", "postal_hyphen": "770-8074", "pref": "徳島県", "city": "徳島市", "town": "八万町（下福万）", "full": "徳島県徳島市八万町（下福万）"}, {"postal_code": "7708082", "postal_hyphen": "770-8082", "pref": "徳島県", "city": "徳島市", "town": "八万町（川南）", "full": "徳島県徳島市八万町（川南）"}, {"postal_code": "7708075", "postal_hyphen": "770-8075", "pref": "徳島県", "city": "徳島市", "town": "八万町（千鳥）", "full": "徳島県徳島市八万町（千鳥）"}, {"postal_code": "7708072", "postal_hyphen": "770-8072", "pref": "徳島県", "city": "徳島市", "town": "八万町（中津浦）", "full": "徳島県徳島市八万町（中津浦）"}, {"postal_code": "7708071", "postal_hyphen": "770-8071", "pref": "徳島県", "city": "徳島市", "town": "八万町（中津山）", "full": "徳島県徳島市八万町（中津山）"}, {"postal_code": "7708081", "postal_hyphen": "770-8081", "pref": "徳島県", "city": "徳島市", "town": "八万町（弐丈）", "full": "徳島県徳島市八万町（弐丈）"}, {"postal_code": "7708078", "postal_hyphen": "770-8078", "pref": "徳島県", "city": "徳島市", "town": "八万町（橋本）", "full": "徳島県徳島市八万町（橋本）"}, {"postal_code": "7708083", "postal_hyphen": "770-8083", "pref": "徳島県", "city": "徳島市", "town": "八万町（法花）", "full": "徳島県徳島市八万町（法花）"}, {"postal_code": "7708084", "postal_hyphen": "770-8084", "pref": "徳島県", "city": "徳島市", "town": "八万町（法花谷）", "full": "徳島県徳島市八万町（法花谷）"}, {"postal_code": "7708070", "postal_hyphen": "770-8070", "pref": "徳島県", "city": "徳島市", "town": "八万町（その他）", "full": "徳島県徳島市八万町（その他）"}, {"postal_code": "7700941", "postal_hyphen": "770-0941", "pref": "徳島県", "city": "徳島市", "town": "万代町", "full": "徳島県徳島市万代町"}, {"postal_code": "7700873", "postal_hyphen": "770-0873", "pref": "徳島県", "city": "徳島市", "town": "東沖洲", "full": "徳島県徳島市東沖洲"}, {"postal_code": "7700912", "postal_hyphen": "770-0912", "pref": "徳島県", "city": "徳島市", "town": "東新町", "full": "徳島県徳島市東新町"}, {"postal_code": "7700911", "postal_hyphen": "770-0911", "pref": "徳島県", "city": "徳島市", "town": "東船場町", "full": "徳島県徳島市東船場町"}, {"postal_code": "7700905", "postal_hyphen": "770-0905", "pref": "徳島県", "city": "徳島市", "town": "東大工町", "full": "徳島県徳島市東大工町"}, {"postal_code": "7700822", "postal_hyphen": "770-0822", "pref": "徳島県", "city": "徳島市", "town": "東出来島町", "full": "徳島県徳島市東出来島町"}, {"postal_code": "7700906", "postal_hyphen": "770-0906", "pref": "徳島県", "city": "徳島市", "town": "東山手町", "full": "徳島県徳島市東山手町"}, {"postal_code": "7700811", "postal_hyphen": "770-0811", "pref": "徳島県", "city": "徳島市", "town": "東吉野町", "full": "徳島県徳島市東吉野町"}, {"postal_code": "7700908", "postal_hyphen": "770-0908", "pref": "徳島県", "city": "徳島市", "town": "眉山町", "full": "徳島県徳島市眉山町"}, {"postal_code": "7700868", "postal_hyphen": "770-0868", "pref": "徳島県", "city": "徳島市", "town": "福島", "full": "徳島県徳島市福島"}, {"postal_code": "7700062", "postal_hyphen": "770-0062", "pref": "徳島県", "city": "徳島市", "town": "不動東町", "full": "徳島県徳島市不動東町"}, {"postal_code": "7700064", "postal_hyphen": "770-0064", "pref": "徳島県", "city": "徳島市", "town": "不動西町", "full": "徳島県徳島市不動西町"}, {"postal_code": "7700061", "postal_hyphen": "770-0061", "pref": "徳島県", "city": "徳島市", "town": "不動北町", "full": "徳島県徳島市不動北町"}, {"postal_code": "7700063", "postal_hyphen": "770-0063", "pref": "徳島県", "city": "徳島市", "town": "不動本町", "full": "徳島県徳島市不動本町"}, {"postal_code": "7700846", "postal_hyphen": "770-0846", "pref": "徳島県", "city": "徳島市", "town": "南内町", "full": "徳島県徳島市南内町"}, {"postal_code": "7700874", "postal_hyphen": "770-0874", "pref": "徳島県", "city": "徳島市", "town": "南沖洲", "full": "徳島県徳島市南沖洲"}, {"postal_code": "7700043", "postal_hyphen": "770-0043", "pref": "徳島県", "city": "徳島市", "town": "南蔵本町", "full": "徳島県徳島市南蔵本町"}, {"postal_code": "7700031", "postal_hyphen": "770-0031", "pref": "徳島県", "city": "徳島市", "town": "南佐古一番町", "full": "徳島県徳島市南佐古一番町"}, {"postal_code": "7700032", "postal_hyphen": "770-0032", "pref": "徳島県", "city": "徳島市", "town": "南佐古二番町", "full": "徳島県徳島市南佐古二番町"}, {"postal_code": "7700033", "postal_hyphen": "770-0033", "pref": "徳島県", "city": "徳島市", "town": "南佐古三番町", "full": "徳島県徳島市南佐古三番町"}, {"postal_code": "7700034", "postal_hyphen": "770-0034", "pref": "徳島県", "city": "徳島市", "town": "南佐古四番町", "full": "徳島県徳島市南佐古四番町"}, {"postal_code": "7700035", "postal_hyphen": "770-0035", "pref": "徳島県", "city": "徳島市", "town": "南佐古五番町", "full": "徳島県徳島市南佐古五番町"}, {"postal_code": "7700036", "postal_hyphen": "770-0036", "pref": "徳島県", "city": "徳島市", "town": "南佐古六番町", "full": "徳島県徳島市南佐古六番町"}, {"postal_code": "7700037", "postal_hyphen": "770-0037", "pref": "徳島県", "city": "徳島市", "town": "南佐古七番町", "full": "徳島県徳島市南佐古七番町"}, {"postal_code": "7700038", "postal_hyphen": "770-0038", "pref": "徳島県", "city": "徳島市", "town": "南佐古八番町", "full": "徳島県徳島市南佐古八番町"}, {"postal_code": "7700053", "postal_hyphen": "770-0053", "pref": "徳島県", "city": "徳島市", "town": "南島田町", "full": "徳島県徳島市南島田町"}, {"postal_code": "7700045", "postal_hyphen": "770-0045", "pref": "徳島県", "city": "徳島市", "town": "南庄町", "full": "徳島県徳島市南庄町"}, {"postal_code": "7700944", "postal_hyphen": "770-0944", "pref": "徳島県", "city": "徳島市", "town": "南昭和町", "full": "徳島県徳島市南昭和町"}, {"postal_code": "7700913", "postal_hyphen": "770-0913", "pref": "徳島県", "city": "徳島市", "town": "南新町", "full": "徳島県徳島市南新町"}, {"postal_code": "7700814", "postal_hyphen": "770-0814", "pref": "徳島県", "city": "徳島市", "town": "南常三島町", "full": "徳島県徳島市南常三島町"}, {"postal_code": "7700865", "postal_hyphen": "770-0865", "pref": "徳島県", "city": "徳島市", "town": "南末広町", "full": "徳島県徳島市南末広町"}, {"postal_code": "7700004", "postal_hyphen": "770-0004", "pref": "徳島県", "city": "徳島市", "town": "南田宮", "full": "徳島県徳島市南田宮"}, {"postal_code": "7700824", "postal_hyphen": "770-0824", "pref": "徳島県", "city": "徳島市", "town": "南出来島町", "full": "徳島県徳島市南出来島町"}, {"postal_code": "7700933", "postal_hyphen": "770-0933", "pref": "徳島県", "city": "徳島市", "town": "南仲之町", "full": "徳島県徳島市南仲之町"}, {"postal_code": "7708063", "postal_hyphen": "770-8063", "pref": "徳島県", "city": "徳島市", "town": "南二軒屋町", "full": "徳島県徳島市南二軒屋町"}, {"postal_code": "7700808", "postal_hyphen": "770-0808", "pref": "徳島県", "city": "徳島市", "town": "南前川町", "full": "徳島県徳島市南前川町"}, {"postal_code": "7700005", "postal_hyphen": "770-0005", "pref": "徳島県", "city": "徳島市", "town": "南矢三町", "full": "徳島県徳島市南矢三町"}, {"postal_code": "7700938", "postal_hyphen": "770-0938", "pref": "徳島県", "city": "徳島市", "town": "明神町", "full": "徳島県徳島市明神町"}, {"postal_code": "7700047", "postal_hyphen": "770-0047", "pref": "徳島県", "city": "徳島市", "town": "名東町", "full": "徳島県徳島市名東町"}, {"postal_code": "7700834", "postal_hyphen": "770-0834", "pref": "徳島県", "city": "徳島市", "town": "元町", "full": "徳島県徳島市元町"}, {"postal_code": "7700841", "postal_hyphen": "770-0841", "pref": "徳島県", "city": "徳島市", "town": "八百屋町", "full": "徳島県徳島市八百屋町"}, {"postal_code": "7708055", "postal_hyphen": "770-8055", "pref": "徳島県", "city": "徳島市", "town": "山城町", "full": "徳島県徳島市山城町"}, {"postal_code": "7708054", "postal_hyphen": "770-8054", "pref": "徳島県", "city": "徳島市", "town": "山城西", "full": "徳島県徳島市山城西"}, {"postal_code": "7700864", "postal_hyphen": "770-0864", "pref": "徳島県", "city": "徳島市", "town": "大和町", "full": "徳島県徳島市大和町"}, {"postal_code": "7700925", "postal_hyphen": "770-0925", "pref": "徳島県", "city": "徳島市", "town": "弓町", "full": "徳島県徳島市弓町"}, {"postal_code": "7700802", "postal_hyphen": "770-0802", "pref": "徳島県", "city": "徳島市", "town": "吉野本町", "full": "徳島県徳島市吉野本町"}, {"postal_code": "7700917", "postal_hyphen": "770-0917", "pref": "徳島県", "city": "徳島市", "town": "両国橋", "full": "徳島県徳島市両国橋"}, {"postal_code": "7700843", "postal_hyphen": "770-0843", "pref": "徳島県", "city": "徳島市", "town": "両国本町", "full": "徳島県徳島市両国本町"}, {"postal_code": "7708011", "postal_hyphen": "770-8011", "pref": "徳島県", "city": "徳島市", "town": "論田町", "full": "徳島県徳島市論田町"}, {"postal_code": "7720000", "postal_hyphen": "772-0000", "pref": "徳島県", "city": "鳴門市", "town": "", "full": "徳島県鳴門市"}, {"postal_code": "7790303", "postal_hyphen": "779-0303", "pref": "徳島県", "city": "鳴門市", "town": "大麻町池谷", "full": "徳島県鳴門市大麻町池谷"}, {"postal_code": "7790315", "postal_hyphen": "779-0315", "pref": "徳島県", "city": "鳴門市", "town": "大麻町市場", "full": "徳島県鳴門市大麻町市場"}, {"postal_code": "7790311", "postal_hyphen": "779-0311", "pref": "徳島県", "city": "鳴門市", "town": "大麻町牛屋島", "full": "徳島県鳴門市大麻町牛屋島"}, {"postal_code": "7790302", "postal_hyphen": "779-0302", "pref": "徳島県", "city": "鳴門市", "town": "大麻町大谷", "full": "徳島県鳴門市大麻町大谷"}, {"postal_code": "7790223", "postal_hyphen": "779-0223", "pref": "徳島県", "city": "鳴門市", "town": "大麻町川崎", "full": "徳島県鳴門市大麻町川崎"}, {"postal_code": "7790305", "postal_hyphen": "779-0305", "pref": "徳島県", "city": "鳴門市", "town": "大麻町高畑", "full": "徳島県鳴門市大麻町高畑"}, {"postal_code": "7790224", "postal_hyphen": "779-0224", "pref": "徳島県", "city": "鳴門市", "town": "大麻町津慈", "full": "徳島県鳴門市大麻町津慈"}, {"postal_code": "7790313", "postal_hyphen": "779-0313", "pref": "徳島県", "city": "鳴門市", "town": "大麻町中馬詰", "full": "徳島県鳴門市大麻町中馬詰"}, {"postal_code": "7790314", "postal_hyphen": "779-0314", "pref": "徳島県", "city": "鳴門市", "town": "大麻町西馬詰", "full": "徳島県鳴門市大麻町西馬詰"}, {"postal_code": "7790221", "postal_hyphen": "779-0221", "pref": "徳島県", "city": "鳴門市", "town": "大麻町萩原", "full": "徳島県鳴門市大麻町萩原"}, {"postal_code": "7790234", "postal_hyphen": "779-0234", "pref": "徳島県", "city": "鳴門市", "town": "大麻町板東（采女）", "full": "徳島県鳴門市大麻町板東（采女）"}, {"postal_code": "7790231", "postal_hyphen": "779-0231", "pref": "徳島県", "city": "鳴門市", "town": "大麻町板東（大林）", "full": "徳島県鳴門市大麻町板東（大林）"}, {"postal_code": "7790232", "postal_hyphen": "779-0232", "pref": "徳島県", "city": "鳴門市", "town": "大麻町板東（辻見堂）", "full": "徳島県鳴門市大麻町板東（辻見堂）"}, {"postal_code": "7790235", "postal_hyphen": "779-0235", "pref": "徳島県", "city": "鳴門市", "town": "大麻町板東（永井）", "full": "徳島県鳴門市大麻町板東（永井）"}, {"postal_code": "7790238", "postal_hyphen": "779-0238", "pref": "徳島県", "city": "鳴門市", "town": "大麻町板東（東山田）", "full": "徳島県鳴門市大麻町板東（東山田）"}, {"postal_code": "7790236", "postal_hyphen": "779-0236", "pref": "徳島県", "city": "鳴門市", "town": "大麻町板東（西山田）", "full": "徳島県鳴門市大麻町板東（西山田）"}, {"postal_code": "7790237", "postal_hyphen": "779-0237", "pref": "徳島県", "city": "鳴門市", "town": "大麻町板東（北条）", "full": "徳島県鳴門市大麻町板東（北条）"}, {"postal_code": "7790233", "postal_hyphen": "779-0233", "pref": "徳島県", "city": "鳴門市", "town": "大麻町板東（宝蔵）", "full": "徳島県鳴門市大麻町板東（宝蔵）"}, {"postal_code": "7790230", "postal_hyphen": "779-0230", "pref": "徳島県", "city": "鳴門市", "town": "大麻町板東（その他）", "full": "徳島県鳴門市大麻町板東（その他）"}, {"postal_code": "7790312", "postal_hyphen": "779-0312", "pref": "徳島県", "city": "鳴門市", "town": "大麻町東馬詰", "full": "徳島県鳴門市大麻町東馬詰"}, {"postal_code": "7790225", "postal_hyphen": "779-0225", "pref": "徳島県", "city": "鳴門市", "town": "大麻町檜", "full": "徳島県鳴門市大麻町檜"}, {"postal_code": "7790301", "postal_hyphen": "779-0301", "pref": "徳島県", "city": "鳴門市", "town": "大麻町姫田", "full": "徳島県鳴門市大麻町姫田"}, {"postal_code": "7790304", "postal_hyphen": "779-0304", "pref": "徳島県", "city": "鳴門市", "town": "大麻町松村", "full": "徳島県鳴門市大麻町松村"}, {"postal_code": "7790222", "postal_hyphen": "779-0222", "pref": "徳島県", "city": "鳴門市", "town": "大麻町三俣", "full": "徳島県鳴門市大麻町三俣"}, {"postal_code": "7720041", "postal_hyphen": "772-0041", "pref": "徳島県", "city": "鳴門市", "town": "大津町大代", "full": "徳島県鳴門市大津町大代"}, {"postal_code": "7720031", "postal_hyphen": "772-0031", "pref": "徳島県", "city": "鳴門市", "town": "大津町木津野", "full": "徳島県鳴門市大津町木津野"}, {"postal_code": "7720044", "postal_hyphen": "772-0044", "pref": "徳島県", "city": "鳴門市", "town": "大津町大幸", "full": "徳島県鳴門市大津町大幸"}, {"postal_code": "7720043", "postal_hyphen": "772-0043", "pref": "徳島県", "city": "鳴門市", "town": "大津町段関", "full": "徳島県鳴門市大津町段関"}, {"postal_code": "7720034", "postal_hyphen": "772-0034", "pref": "徳島県", "city": "鳴門市", "town": "大津町徳長", "full": "徳島県鳴門市大津町徳長"}, {"postal_code": "7720033", "postal_hyphen": "772-0033", "pref": "徳島県", "city": "鳴門市", "town": "大津町長江", "full": "徳島県鳴門市大津町長江"}, {"postal_code": "7720042", "postal_hyphen": "772-0042", "pref": "徳島県", "city": "鳴門市", "town": "大津町備前島", "full": "徳島県鳴門市大津町備前島"}, {"postal_code": "7720035", "postal_hyphen": "772-0035", "pref": "徳島県", "city": "鳴門市", "town": "大津町矢倉", "full": "徳島県鳴門市大津町矢倉"}, {"postal_code": "7720032", "postal_hyphen": "772-0032", "pref": "徳島県", "city": "鳴門市", "town": "大津町吉永", "full": "徳島県鳴門市大津町吉永"}, {"postal_code": "7710372", "postal_hyphen": "771-0372", "pref": "徳島県", "city": "鳴門市", "town": "北灘町粟田", "full": "徳島県鳴門市北灘町粟田"}, {"postal_code": "7710373", "postal_hyphen": "771-0373", "pref": "徳島県", "city": "鳴門市", "town": "北灘町大浦", "full": "徳島県鳴門市北灘町大浦"}, {"postal_code": "7710377", "postal_hyphen": "771-0377", "pref": "徳島県", "city": "鳴門市", "town": "北灘町大須", "full": "徳島県鳴門市北灘町大須"}, {"postal_code": "7710376", "postal_hyphen": "771-0376", "pref": "徳島県", "city": "鳴門市", "town": "北灘町折野", "full": "徳島県鳴門市北灘町折野"}, {"postal_code": "7710371", "postal_hyphen": "771-0371", "pref": "徳島県", "city": "鳴門市", "town": "北灘町櫛木", "full": "徳島県鳴門市北灘町櫛木"}, {"postal_code": "7710378", "postal_hyphen": "771-0378", "pref": "徳島県", "city": "鳴門市", "town": "北灘町碁浦", "full": "徳島県鳴門市北灘町碁浦"}, {"postal_code": "7710374", "postal_hyphen": "771-0374", "pref": "徳島県", "city": "鳴門市", "town": "北灘町宿毛谷", "full": "徳島県鳴門市北灘町宿毛谷"}, {"postal_code": "7710375", "postal_hyphen": "771-0375", "pref": "徳島県", "city": "鳴門市", "town": "北灘町鳥ケ丸", "full": "徳島県鳴門市北灘町鳥ケ丸"}, {"postal_code": "7720022", "postal_hyphen": "772-0022", "pref": "徳島県", "city": "鳴門市", "town": "里浦町粟津", "full": "徳島県鳴門市里浦町粟津"}, {"postal_code": "7720021", "postal_hyphen": "772-0021", "pref": "徳島県", "city": "鳴門市", "town": "里浦町里浦", "full": "徳島県鳴門市里浦町里浦"}, {"postal_code": "7720060", "postal_hyphen": "772-0060", "pref": "徳島県", "city": "鳴門市", "town": "瀬戸町明神（楠谷、弐軒家、水汲谷）", "full": "徳島県鳴門市瀬戸町明神（楠谷、弐軒家、水汲谷）"}, {"postal_code": "7710360", "postal_hyphen": "771-0360", "pref": "徳島県", "city": "鳴門市", "town": "瀬戸町明神（その他）", "full": "徳島県鳴門市瀬戸町明神（その他）"}, {"postal_code": "7710362", "postal_hyphen": "771-0362", "pref": "徳島県", "city": "鳴門市", "town": "瀬戸町北泊（小海）", "full": "徳島県鳴門市瀬戸町北泊（小海）"}, {"postal_code": "7710364", "postal_hyphen": "771-0364", "pref": "徳島県", "city": "鳴門市", "town": "瀬戸町北泊（その他）", "full": "徳島県鳴門市瀬戸町北泊（その他）"}, {"postal_code": "7710367", "postal_hyphen": "771-0367", "pref": "徳島県", "city": "鳴門市", "town": "瀬戸町大島田", "full": "徳島県鳴門市瀬戸町大島田"}, {"postal_code": "7710366", "postal_hyphen": "771-0366", "pref": "徳島県", "city": "鳴門市", "town": "瀬戸町中島田", "full": "徳島県鳴門市瀬戸町中島田"}, {"postal_code": "7710365", "postal_hyphen": "771-0365", "pref": "徳島県", "city": "鳴門市", "town": "瀬戸町小島田", "full": "徳島県鳴門市瀬戸町小島田"}, {"postal_code": "7710361", "postal_hyphen": "771-0361", "pref": "徳島県", "city": "鳴門市", "town": "瀬戸町堂浦", "full": "徳島県鳴門市瀬戸町堂浦"}, {"postal_code": "7710363", "postal_hyphen": "771-0363", "pref": "徳島県", "city": "鳴門市", "town": "瀬戸町湊谷", "full": "徳島県鳴門市瀬戸町湊谷"}, {"postal_code": "7710369", "postal_hyphen": "771-0369", "pref": "徳島県", "city": "鳴門市", "town": "瀬戸町撫佐", "full": "徳島県鳴門市瀬戸町撫佐"}, {"postal_code": "7710368", "postal_hyphen": "771-0368", "pref": "徳島県", "city": "鳴門市", "town": "瀬戸町室", "full": "徳島県鳴門市瀬戸町室"}, {"postal_code": "7720051", "postal_hyphen": "772-0051", "pref": "徳島県", "city": "鳴門市", "town": "鳴門町高島", "full": "徳島県鳴門市鳴門町高島"}, {"postal_code": "7720053", "postal_hyphen": "772-0053", "pref": "徳島県", "city": "鳴門市", "town": "鳴門町土佐泊浦", "full": "徳島県鳴門市鳴門町土佐泊浦"}, {"postal_code": "7720052", "postal_hyphen": "772-0052", "pref": "徳島県", "city": "鳴門市", "town": "鳴門町三ツ石", "full": "徳島県鳴門市鳴門町三ツ石"}, {"postal_code": "7720011", "postal_hyphen": "772-0011", "pref": "徳島県", "city": "鳴門市", "town": "撫養町大桑島", "full": "徳島県鳴門市撫養町大桑島"}, {"postal_code": "7720012", "postal_hyphen": "772-0012", "pref": "徳島県", "city": "鳴門市", "town": "撫養町小桑島", "full": "徳島県鳴門市撫養町小桑島"}, {"postal_code": "7720013", "postal_hyphen": "772-0013", "pref": "徳島県", "city": "鳴門市", "town": "撫養町岡崎", "full": "徳島県鳴門市撫養町岡崎"}, {"postal_code": "7720004", "postal_hyphen": "772-0004", "pref": "徳島県", "city": "鳴門市", "town": "撫養町木津", "full": "徳島県鳴門市撫養町木津"}, {"postal_code": "7720001", "postal_hyphen": "772-0001", "pref": "徳島県", "city": "鳴門市", "town": "撫養町黒崎", "full": "徳島県鳴門市撫養町黒崎"}, {"postal_code": "7720002", "postal_hyphen": "772-0002", "pref": "徳島県", "city": "鳴門市", "town": "撫養町斎田", "full": "徳島県鳴門市撫養町斎田"}, {"postal_code": "7720017", "postal_hyphen": "772-0017", "pref": "徳島県", "city": "鳴門市", "town": "撫養町立岩", "full": "徳島県鳴門市撫養町立岩"}, {"postal_code": "7720016", "postal_hyphen": "772-0016", "pref": "徳島県", "city": "鳴門市", "town": "撫養町林崎", "full": "徳島県鳴門市撫養町林崎"}, {"postal_code": "7720014", "postal_hyphen": "772-0014", "pref": "徳島県", "city": "鳴門市", "town": "撫養町弁財天", "full": "徳島県鳴門市撫養町弁財天"}, {"postal_code": "7720003", "postal_hyphen": "772-0003", "pref": "徳島県", "city": "鳴門市", "town": "撫養町南浜", "full": "徳島県鳴門市撫養町南浜"}, {"postal_code": "7720015", "postal_hyphen": "772-0015", "pref": "徳島県", "city": "鳴門市", "town": "撫養町北浜", "full": "徳島県鳴門市撫養町北浜"}, {"postal_code": "7730000", "postal_hyphen": "773-0000", "pref": "徳島県", "city": "小松島市", "town": "", "full": "徳島県小松島市"}, {"postal_code": "7730024", "postal_hyphen": "773-0024", "pref": "徳島県", "city": "小松島市", "town": "間新田町", "full": "徳島県小松島市間新田町"}, {"postal_code": "7730021", "postal_hyphen": "773-0021", "pref": "徳島県", "city": "小松島市", "town": "赤石町", "full": "徳島県小松島市赤石町"}, {"postal_code": "7730014", "postal_hyphen": "773-0014", "pref": "徳島県", "city": "小松島市", "town": "江田町", "full": "徳島県小松島市江田町"}, {"postal_code": "7730022", "postal_hyphen": "773-0022", "pref": "徳島県", "city": "小松島市", "town": "大林町", "full": "徳島県小松島市大林町"}, {"postal_code": "7730007", "postal_hyphen": "773-0007", "pref": "徳島県", "city": "小松島市", "town": "金磯町", "full": "徳島県小松島市金磯町"}, {"postal_code": "7730002", "postal_hyphen": "773-0002", "pref": "徳島県", "city": "小松島市", "town": "神田瀬町", "full": "徳島県小松島市神田瀬町"}, {"postal_code": "7730018", "postal_hyphen": "773-0018", "pref": "徳島県", "city": "小松島市", "town": "櫛淵町", "full": "徳島県小松島市櫛淵町"}, {"postal_code": "7730001", "postal_hyphen": "773-0001", "pref": "徳島県", "city": "小松島市", "town": "小松島町", "full": "徳島県小松島市小松島町"}, {"postal_code": "7730023", "postal_hyphen": "773-0023", "pref": "徳島県", "city": "小松島市", "town": "坂野町", "full": "徳島県小松島市坂野町"}, {"postal_code": "7730009", "postal_hyphen": "773-0009", "pref": "徳島県", "city": "小松島市", "town": "芝生町", "full": "徳島県小松島市芝生町"}, {"postal_code": "7730012", "postal_hyphen": "773-0012", "pref": "徳島県", "city": "小松島市", "town": "田浦町", "full": "徳島県小松島市田浦町"}, {"postal_code": "7730017", "postal_hyphen": "773-0017", "pref": "徳島県", "city": "小松島市", "town": "立江町", "full": "徳島県小松島市立江町"}, {"postal_code": "7730008", "postal_hyphen": "773-0008", "pref": "徳島県", "city": "小松島市", "town": "田野町", "full": "徳島県小松島市田野町"}, {"postal_code": "7730015", "postal_hyphen": "773-0015", "pref": "徳島県", "city": "小松島市", "town": "中田町", "full": "徳島県小松島市中田町"}, {"postal_code": "7730019", "postal_hyphen": "773-0019", "pref": "徳島県", "city": "小松島市", "town": "豊浦町", "full": "徳島県小松島市豊浦町"}, {"postal_code": "7730016", "postal_hyphen": "773-0016", "pref": "徳島県", "city": "小松島市", "town": "中郷町", "full": "徳島県小松島市中郷町"}, {"postal_code": "7730011", "postal_hyphen": "773-0011", "pref": "徳島県", "city": "小松島市", "town": "新居見町", "full": "徳島県小松島市新居見町"}, {"postal_code": "7730010", "postal_hyphen": "773-0010", "pref": "徳島県", "city": "小松島市", "town": "日開野町", "full": "徳島県小松島市日開野町"}, {"postal_code": "7730004", "postal_hyphen": "773-0004", "pref": "徳島県", "city": "小松島市", "town": "堀川町", "full": "徳島県小松島市堀川町"}, {"postal_code": "7730013", "postal_hyphen": "773-0013", "pref": "徳島県", "city": "小松島市", "town": "前原町", "full": "徳島県小松島市前原町"}, {"postal_code": "7730003", "postal_hyphen": "773-0003", "pref": "徳島県", "city": "小松島市", "town": "松島町", "full": "徳島県小松島市松島町"}, {"postal_code": "7730005", "postal_hyphen": "773-0005", "pref": "徳島県", "city": "小松島市", "town": "南小松島町", "full": "徳島県小松島市南小松島町"}, {"postal_code": "7730006", "postal_hyphen": "773-0006", "pref": "徳島県", "city": "小松島市", "town": "横須町", "full": "徳島県小松島市横須町"}, {"postal_code": "7730031", "postal_hyphen": "773-0031", "pref": "徳島県", "city": "小松島市", "town": "和田島町（松田新田）", "full": "徳島県小松島市和田島町（松田新田）"}, {"postal_code": "7730025", "postal_hyphen": "773-0025", "pref": "徳島県", "city": "小松島市", "town": "和田島町（その他）", "full": "徳島県小松島市和田島町（その他）"}, {"postal_code": "7730020", "postal_hyphen": "773-0020", "pref": "徳島県", "city": "小松島市", "town": "和田津開町", "full": "徳島県小松島市和田津開町"}, {"postal_code": "7740000", "postal_hyphen": "774-0000", "pref": "徳島県", "city": "阿南市", "town": "", "full": "徳島県阿南市"}, {"postal_code": "7791404", "postal_hyphen": "779-1404", "pref": "徳島県", "city": "阿南市", "town": "阿瀬比町", "full": "徳島県阿南市阿瀬比町"}, {"postal_code": "7791510", "postal_hyphen": "779-1510", "pref": "徳島県", "city": "阿南市", "town": "新野町", "full": "徳島県阿南市新野町"}, {"postal_code": "7741760", "postal_hyphen": "774-1760", "pref": "徳島県", "city": "阿南市", "town": "伊島町", "full": "徳島県阿南市伊島町"}, {"postal_code": "7791401", "postal_hyphen": "779-1401", "pref": "徳島県", "city": "阿南市", "town": "内原町", "full": "徳島県阿南市内原町"}, {"postal_code": "7715177", "postal_hyphen": "771-5177", "pref": "徳島県", "city": "阿南市", "town": "大井町", "full": "徳島県阿南市大井町"}, {"postal_code": "7740022", "postal_hyphen": "774-0022", "pref": "徳島県", "city": "阿南市", "town": "大潟町", "full": "徳島県阿南市大潟町"}, {"postal_code": "7715176", "postal_hyphen": "771-5176", "pref": "徳島県", "city": "阿南市", "town": "大田井町", "full": "徳島県阿南市大田井町"}, {"postal_code": "7740014", "postal_hyphen": "774-0014", "pref": "徳島県", "city": "阿南市", "town": "学原町", "full": "徳島県阿南市学原町"}, {"postal_code": "7740049", "postal_hyphen": "774-0049", "pref": "徳島県", "city": "阿南市", "town": "上大野町", "full": "徳島県阿南市上大野町"}, {"postal_code": "7740044", "postal_hyphen": "774-0044", "pref": "徳島県", "city": "阿南市", "town": "上中町", "full": "徳島県阿南市上中町"}, {"postal_code": "7715173", "postal_hyphen": "771-5173", "pref": "徳島県", "city": "阿南市", "town": "加茂町", "full": "徳島県阿南市加茂町"}, {"postal_code": "7715170", "postal_hyphen": "771-5170", "pref": "徳島県", "city": "阿南市", "town": "楠根町", "full": "徳島県阿南市楠根町"}, {"postal_code": "7715171", "postal_hyphen": "771-5171", "pref": "徳島県", "city": "阿南市", "town": "熊谷町", "full": "徳島県阿南市熊谷町"}, {"postal_code": "7740006", "postal_hyphen": "774-0006", "pref": "徳島県", "city": "阿南市", "town": "黒津地町", "full": "徳島県阿南市黒津地町"}, {"postal_code": "7791402", "postal_hyphen": "779-1402", "pref": "徳島県", "city": "阿南市", "town": "桑野町", "full": "徳島県阿南市桑野町"}, {"postal_code": "7740015", "postal_hyphen": "774-0015", "pref": "徳島県", "city": "阿南市", "town": "才見町", "full": "徳島県阿南市才見町"}, {"postal_code": "7740009", "postal_hyphen": "774-0009", "pref": "徳島県", "city": "阿南市", "town": "西路見町", "full": "徳島県阿南市西路見町"}, {"postal_code": "7715178", "postal_hyphen": "771-5178", "pref": "徳島県", "city": "阿南市", "town": "十八女町", "full": "徳島県阿南市十八女町"}, {"postal_code": "7740047", "postal_hyphen": "774-0047", "pref": "徳島県", "city": "阿南市", "town": "下大野町", "full": "徳島県阿南市下大野町"}, {"postal_code": "7715174", "postal_hyphen": "771-5174", "pref": "徳島県", "city": "阿南市", "town": "水井町", "full": "徳島県阿南市水井町"}, {"postal_code": "7740041", "postal_hyphen": "774-0041", "pref": "徳島県", "city": "阿南市", "town": "住吉町", "full": "徳島県阿南市住吉町"}, {"postal_code": "7740045", "postal_hyphen": "774-0045", "pref": "徳島県", "city": "阿南市", "town": "宝田町", "full": "徳島県阿南市宝田町"}, {"postal_code": "7791631", "postal_hyphen": "779-1631", "pref": "徳島県", "city": "阿南市", "town": "橘町（小勝）", "full": "徳島県阿南市橘町（小勝）"}, {"postal_code": "7791630", "postal_hyphen": "779-1630", "pref": "徳島県", "city": "阿南市", "town": "橘町（タテアジロ、袴、袴傍示、棒面）", "full": "徳島県阿南市橘町（タテアジロ、袴、袴傍示、棒面）"}, {"postal_code": "7740023", "postal_hyphen": "774-0023", "pref": "徳島県", "city": "阿南市", "town": "橘町（その他）", "full": "徳島県阿南市橘町（その他）"}, {"postal_code": "7740001", "postal_hyphen": "774-0001", "pref": "徳島県", "city": "阿南市", "town": "辰巳町", "full": "徳島県阿南市辰巳町"}, {"postal_code": "7740021", "postal_hyphen": "774-0021", "pref": "徳島県", "city": "阿南市", "town": "津乃峰町", "full": "徳島県阿南市津乃峰町"}, {"postal_code": "7791750", "postal_hyphen": "779-1750", "pref": "徳島県", "city": "阿南市", "town": "椿町", "full": "徳島県阿南市椿町"}, {"postal_code": "7791740", "postal_hyphen": "779-1740", "pref": "徳島県", "city": "阿南市", "town": "椿泊町", "full": "徳島県阿南市椿泊町"}, {"postal_code": "7740007", "postal_hyphen": "774-0007", "pref": "徳島県", "city": "阿南市", "town": "出来町", "full": "徳島県阿南市出来町"}, {"postal_code": "7740030", "postal_hyphen": "774-0030", "pref": "徳島県", "city": "阿南市", "town": "富岡町", "full": "徳島県阿南市富岡町"}, {"postal_code": "7740002", "postal_hyphen": "774-0002", "pref": "徳島県", "city": "阿南市", "town": "豊益町", "full": "徳島県阿南市豊益町"}, {"postal_code": "7740046", "postal_hyphen": "774-0046", "pref": "徳島県", "city": "阿南市", "town": "長生町", "full": "徳島県阿南市長生町"}, {"postal_code": "7740048", "postal_hyphen": "774-0048", "pref": "徳島県", "city": "阿南市", "town": "中大野町", "full": "徳島県阿南市中大野町"}, {"postal_code": "7791242", "postal_hyphen": "779-1242", "pref": "徳島県", "city": "阿南市", "town": "那賀川町赤池", "full": "徳島県阿南市那賀川町赤池"}, {"postal_code": "7791114", "postal_hyphen": "779-1114", "pref": "徳島県", "city": "阿南市", "town": "那賀川町今津浦", "full": "徳島県阿南市那賀川町今津浦"}, {"postal_code": "7791112", "postal_hyphen": "779-1112", "pref": "徳島県", "city": "阿南市", "town": "那賀川町色ケ島", "full": "徳島県阿南市那賀川町色ケ島"}, {"postal_code": "7791111", "postal_hyphen": "779-1111", "pref": "徳島県", "city": "阿南市", "town": "那賀川町江野島", "full": "徳島県阿南市那賀川町江野島"}, {"postal_code": "7791243", "postal_hyphen": "779-1243", "pref": "徳島県", "city": "阿南市", "town": "那賀川町上福井", "full": "徳島県阿南市那賀川町上福井"}, {"postal_code": "7791235", "postal_hyphen": "779-1235", "pref": "徳島県", "city": "阿南市", "town": "那賀川町苅屋", "full": "徳島県阿南市那賀川町苅屋"}, {"postal_code": "7791246", "postal_hyphen": "779-1246", "pref": "徳島県", "city": "阿南市", "town": "那賀川町北中島", "full": "徳島県阿南市那賀川町北中島"}, {"postal_code": "7791121", "postal_hyphen": "779-1121", "pref": "徳島県", "city": "阿南市", "town": "那賀川町黒地", "full": "徳島県阿南市那賀川町黒地"}, {"postal_code": "7791116", "postal_hyphen": "779-1116", "pref": "徳島県", "city": "阿南市", "town": "那賀川町小延", "full": "徳島県阿南市那賀川町小延"}, {"postal_code": "7791115", "postal_hyphen": "779-1115", "pref": "徳島県", "city": "阿南市", "town": "那賀川町敷地", "full": "徳島県阿南市那賀川町敷地"}, {"postal_code": "7791117", "postal_hyphen": "779-1117", "pref": "徳島県", "city": "阿南市", "town": "那賀川町島尻", "full": "徳島県阿南市那賀川町島尻"}, {"postal_code": "7791233", "postal_hyphen": "779-1233", "pref": "徳島県", "city": "阿南市", "town": "那賀川町大京原", "full": "徳島県阿南市那賀川町大京原"}, {"postal_code": "7791236", "postal_hyphen": "779-1236", "pref": "徳島県", "city": "阿南市", "town": "那賀川町工地", "full": "徳島県阿南市那賀川町工地"}, {"postal_code": "7791123", "postal_hyphen": "779-1123", "pref": "徳島県", "city": "阿南市", "town": "那賀川町手島", "full": "徳島県阿南市那賀川町手島"}, {"postal_code": "7791245", "postal_hyphen": "779-1245", "pref": "徳島県", "city": "阿南市", "town": "那賀川町中島", "full": "徳島県阿南市那賀川町中島"}, {"postal_code": "7791232", "postal_hyphen": "779-1232", "pref": "徳島県", "city": "阿南市", "town": "那賀川町西原", "full": "徳島県阿南市那賀川町西原"}, {"postal_code": "7791231", "postal_hyphen": "779-1231", "pref": "徳島県", "city": "阿南市", "town": "那賀川町原", "full": "徳島県阿南市那賀川町原"}, {"postal_code": "7791119", "postal_hyphen": "779-1119", "pref": "徳島県", "city": "阿南市", "town": "那賀川町日向", "full": "徳島県阿南市那賀川町日向"}, {"postal_code": "7791234", "postal_hyphen": "779-1234", "pref": "徳島県", "city": "阿南市", "town": "那賀川町古津", "full": "徳島県阿南市那賀川町古津"}, {"postal_code": "7791113", "postal_hyphen": "779-1113", "pref": "徳島県", "city": "阿南市", "town": "那賀川町芳崎", "full": "徳島県阿南市那賀川町芳崎"}, {"postal_code": "7791241", "postal_hyphen": "779-1241", "pref": "徳島県", "city": "阿南市", "town": "那賀川町三栗", "full": "徳島県阿南市那賀川町三栗"}, {"postal_code": "7791244", "postal_hyphen": "779-1244", "pref": "徳島県", "city": "阿南市", "town": "那賀川町みどり台", "full": "徳島県阿南市那賀川町みどり台"}, {"postal_code": "7791122", "postal_hyphen": "779-1122", "pref": "徳島県", "city": "阿南市", "town": "那賀川町八幡", "full": "徳島県阿南市那賀川町八幡"}, {"postal_code": "7791118", "postal_hyphen": "779-1118", "pref": "徳島県", "city": "阿南市", "town": "那賀川町豊香野", "full": "徳島県阿南市那賀川町豊香野"}, {"postal_code": "7740016", "postal_hyphen": "774-0016", "pref": "徳島県", "city": "阿南市", "town": "中林町", "full": "徳島県阿南市中林町"}, {"postal_code": "7740012", "postal_hyphen": "774-0012", "pref": "徳島県", "city": "阿南市", "town": "七見町", "full": "徳島県阿南市七見町"}, {"postal_code": "7791107", "postal_hyphen": "779-1107", "pref": "徳島県", "city": "阿南市", "town": "羽ノ浦町岩脇（奥ノ谷）", "full": "徳島県阿南市羽ノ浦町岩脇（奥ノ谷）"}, {"postal_code": "7791106", "postal_hyphen": "779-1106", "pref": "徳島県", "city": "阿南市", "town": "羽ノ浦町岩脇（その他）", "full": "徳島県阿南市羽ノ浦町岩脇（その他）"}, {"postal_code": "7791103", "postal_hyphen": "779-1103", "pref": "徳島県", "city": "阿南市", "town": "羽ノ浦町春日野", "full": "徳島県阿南市羽ノ浦町春日野"}, {"postal_code": "7791109", "postal_hyphen": "779-1109", "pref": "徳島県", "city": "阿南市", "town": "羽ノ浦町古毛", "full": "徳島県阿南市羽ノ浦町古毛"}, {"postal_code": "7791101", "postal_hyphen": "779-1101", "pref": "徳島県", "city": "阿南市", "town": "羽ノ浦町中庄", "full": "徳島県阿南市羽ノ浦町中庄"}, {"postal_code": "7791104", "postal_hyphen": "779-1104", "pref": "徳島県", "city": "阿南市", "town": "羽ノ浦町西春日野", "full": "徳島県阿南市羽ノ浦町西春日野"}, {"postal_code": "7791105", "postal_hyphen": "779-1105", "pref": "徳島県", "city": "阿南市", "town": "羽ノ浦町古庄", "full": "徳島県阿南市羽ノ浦町古庄"}, {"postal_code": "7791102", "postal_hyphen": "779-1102", "pref": "徳島県", "city": "阿南市", "town": "羽ノ浦町宮倉", "full": "徳島県阿南市羽ノ浦町宮倉"}, {"postal_code": "7791108", "postal_hyphen": "779-1108", "pref": "徳島県", "city": "阿南市", "town": "羽ノ浦町明見", "full": "徳島県阿南市羽ノ浦町明見"}, {"postal_code": "7740008", "postal_hyphen": "774-0008", "pref": "徳島県", "city": "阿南市", "town": "原ケ崎町", "full": "徳島県阿南市原ケ崎町"}, {"postal_code": "7740003", "postal_hyphen": "774-0003", "pref": "徳島県", "city": "阿南市", "town": "畭町", "full": "徳島県阿南市畭町"}, {"postal_code": "7740013", "postal_hyphen": "774-0013", "pref": "徳島県", "city": "阿南市", "town": "日開野町", "full": "徳島県阿南市日開野町"}, {"postal_code": "7715179", "postal_hyphen": "771-5179", "pref": "徳島県", "city": "阿南市", "town": "深瀬町", "full": "徳島県阿南市深瀬町"}, {"postal_code": "7791620", "postal_hyphen": "779-1620", "pref": "徳島県", "city": "阿南市", "town": "福井町", "full": "徳島県阿南市福井町"}, {"postal_code": "7740004", "postal_hyphen": "774-0004", "pref": "徳島県", "city": "阿南市", "town": "福村町", "full": "徳島県阿南市福村町"}, {"postal_code": "7715175", "postal_hyphen": "771-5175", "pref": "徳島県", "city": "阿南市", "town": "細野町", "full": "徳島県阿南市細野町"}, {"postal_code": "7740017", "postal_hyphen": "774-0017", "pref": "徳島県", "city": "阿南市", "town": "見能林町", "full": "徳島県阿南市見能林町"}, {"postal_code": "7740005", "postal_hyphen": "774-0005", "pref": "徳島県", "city": "阿南市", "town": "向原町", "full": "徳島県阿南市向原町"}, {"postal_code": "7740043", "postal_hyphen": "774-0043", "pref": "徳島県", "city": "阿南市", "town": "柳島町", "full": "徳島県阿南市柳島町"}, {"postal_code": "7791403", "postal_hyphen": "779-1403", "pref": "徳島県", "city": "阿南市", "town": "山口町", "full": "徳島県阿南市山口町"}, {"postal_code": "7740042", "postal_hyphen": "774-0042", "pref": "徳島県", "city": "阿南市", "town": "横見町", "full": "徳島県阿南市横見町"}, {"postal_code": "7715172", "postal_hyphen": "771-5172", "pref": "徳島県", "city": "阿南市", "town": "吉井町", "full": "徳島県阿南市吉井町"}, {"postal_code": "7740011", "postal_hyphen": "774-0011", "pref": "徳島県", "city": "阿南市", "town": "領家町", "full": "徳島県阿南市領家町"}, {"postal_code": "7760000", "postal_hyphen": "776-0000", "pref": "徳島県", "city": "吉野川市", "town": "", "full": "徳島県吉野川市"}, {"postal_code": "7760015", "postal_hyphen": "776-0015", "pref": "徳島県", "city": "吉野川市", "town": "鴨島町粟島", "full": "徳島県吉野川市鴨島町粟島"}, {"postal_code": "7760033", "postal_hyphen": "776-0033", "pref": "徳島県", "city": "吉野川市", "town": "鴨島町飯尾", "full": "徳島県吉野川市鴨島町飯尾"}, {"postal_code": "7760001", "postal_hyphen": "776-0001", "pref": "徳島県", "city": "吉野川市", "town": "鴨島町牛島", "full": "徳島県吉野川市鴨島町牛島"}, {"postal_code": "7760003", "postal_hyphen": "776-0003", "pref": "徳島県", "city": "吉野川市", "town": "鴨島町内原", "full": "徳島県吉野川市鴨島町内原"}, {"postal_code": "7760002", "postal_hyphen": "776-0002", "pref": "徳島県", "city": "吉野川市", "town": "鴨島町麻植塚", "full": "徳島県吉野川市鴨島町麻植塚"}, {"postal_code": "7760037", "postal_hyphen": "776-0037", "pref": "徳島県", "city": "吉野川市", "town": "鴨島町上浦", "full": "徳島県吉野川市鴨島町上浦"}, {"postal_code": "7760010", "postal_hyphen": "776-0010", "pref": "徳島県", "city": "吉野川市", "town": "鴨島町鴨島", "full": "徳島県吉野川市鴨島町鴨島"}, {"postal_code": "7760011", "postal_hyphen": "776-0011", "pref": "徳島県", "city": "吉野川市", "town": "鴨島町鴨島甲", "full": "徳島県吉野川市鴨島町鴨島甲"}, {"postal_code": "7760012", "postal_hyphen": "776-0012", "pref": "徳島県", "city": "吉野川市", "town": "鴨島町鴨島乙", "full": "徳島県吉野川市鴨島町鴨島乙"}, {"postal_code": "7760005", "postal_hyphen": "776-0005", "pref": "徳島県", "city": "吉野川市", "town": "鴨島町喜来", "full": "徳島県吉野川市鴨島町喜来"}, {"postal_code": "7760006", "postal_hyphen": "776-0006", "pref": "徳島県", "city": "吉野川市", "town": "鴨島町喜来甲", "full": "徳島県吉野川市鴨島町喜来甲"}, {"postal_code": "7760007", "postal_hyphen": "776-0007", "pref": "徳島県", "city": "吉野川市", "town": "鴨島町喜来乙", "full": "徳島県吉野川市鴨島町喜来乙"}, {"postal_code": "7760034", "postal_hyphen": "776-0034", "pref": "徳島県", "city": "吉野川市", "town": "鴨島町呉郷団地", "full": "徳島県吉野川市鴨島町呉郷団地"}, {"postal_code": "7760036", "postal_hyphen": "776-0036", "pref": "徳島県", "city": "吉野川市", "town": "鴨島町山路", "full": "徳島県吉野川市鴨島町山路"}, {"postal_code": "7760031", "postal_hyphen": "776-0031", "pref": "徳島県", "city": "吉野川市", "town": "鴨島町敷地", "full": "徳島県吉野川市鴨島町敷地"}, {"postal_code": "7760013", "postal_hyphen": "776-0013", "pref": "徳島県", "city": "吉野川市", "town": "鴨島町上下島", "full": "徳島県吉野川市鴨島町上下島"}, {"postal_code": "7760014", "postal_hyphen": "776-0014", "pref": "徳島県", "city": "吉野川市", "town": "鴨島町知恵島", "full": "徳島県吉野川市鴨島町知恵島"}, {"postal_code": "7760004", "postal_hyphen": "776-0004", "pref": "徳島県", "city": "吉野川市", "town": "鴨島町中島", "full": "徳島県吉野川市鴨島町中島"}, {"postal_code": "7760020", "postal_hyphen": "776-0020", "pref": "徳島県", "city": "吉野川市", "town": "鴨島町西麻植", "full": "徳島県吉野川市鴨島町西麻植"}, {"postal_code": "7760032", "postal_hyphen": "776-0032", "pref": "徳島県", "city": "吉野川市", "town": "鴨島町樋山地", "full": "徳島県吉野川市鴨島町樋山地"}, {"postal_code": "7760035", "postal_hyphen": "776-0035", "pref": "徳島県", "city": "吉野川市", "town": "鴨島町森藤", "full": "徳島県吉野川市鴨島町森藤"}, {"postal_code": "7793306", "postal_hyphen": "779-3306", "pref": "徳島県", "city": "吉野川市", "town": "川島町学", "full": "徳島県吉野川市川島町学"}, {"postal_code": "7793301", "postal_hyphen": "779-3301", "pref": "徳島県", "city": "吉野川市", "town": "川島町川島", "full": "徳島県吉野川市川島町川島"}, {"postal_code": "7793303", "postal_hyphen": "779-3303", "pref": "徳島県", "city": "吉野川市", "town": "川島町桑村", "full": "徳島県吉野川市川島町桑村"}, {"postal_code": "7793305", "postal_hyphen": "779-3305", "pref": "徳島県", "city": "吉野川市", "town": "川島町児島", "full": "徳島県吉野川市川島町児島"}, {"postal_code": "7793307", "postal_hyphen": "779-3307", "pref": "徳島県", "city": "吉野川市", "town": "川島町三ツ島", "full": "徳島県吉野川市川島町三ツ島"}, {"postal_code": "7793304", "postal_hyphen": "779-3304", "pref": "徳島県", "city": "吉野川市", "town": "川島町宮島", "full": "徳島県吉野川市川島町宮島"}, {"postal_code": "7793302", "postal_hyphen": "779-3302", "pref": "徳島県", "city": "吉野川市", "town": "川島町山田", "full": "徳島県吉野川市川島町山田"}, {"postal_code": "7793501", "postal_hyphen": "779-3501", "pref": "徳島県", "city": "吉野川市", "town": "美郷愛後", "full": "徳島県吉野川市美郷愛後"}, {"postal_code": "7793501", "postal_hyphen": "779-3501", "pref": "徳島県", "city": "吉野川市", "town": "美郷穴地", "full": "徳島県吉野川市美郷穴地"}, {"postal_code": "7793501", "postal_hyphen": "779-3501", "pref": "徳島県", "city": "吉野川市", "town": "美郷一野山", "full": "徳島県吉野川市美郷一野山"}, {"postal_code": "7793505", "postal_hyphen": "779-3505", "pref": "徳島県", "city": "吉野川市", "town": "美郷恵美子", "full": "徳島県吉野川市美郷恵美子"}, {"postal_code": "7793501", "postal_hyphen": "779-3501", "pref": "徳島県", "city": "吉野川市", "town": "美郷大神", "full": "徳島県吉野川市美郷大神"}, {"postal_code": "7793502", "postal_hyphen": "779-3502", "pref": "徳島県", "city": "吉野川市", "town": "美郷大岸", "full": "徳島県吉野川市美郷大岸"}, {"postal_code": "7793502", "postal_hyphen": "779-3502", "pref": "徳島県", "city": "吉野川市", "town": "美郷大佐古", "full": "徳島県吉野川市美郷大佐古"}, {"postal_code": "7793505", "postal_hyphen": "779-3505", "pref": "徳島県", "city": "吉野川市", "town": "美郷大鹿", "full": "徳島県吉野川市美郷大鹿"}, {"postal_code": "7793505", "postal_hyphen": "779-3505", "pref": "徳島県", "city": "吉野川市", "town": "美郷大野", "full": "徳島県吉野川市美郷大野"}, {"postal_code": "7793501", "postal_hyphen": "779-3501", "pref": "徳島県", "city": "吉野川市", "town": "美郷大平", "full": "徳島県吉野川市美郷大平"}, {"postal_code": "7793502", "postal_hyphen": "779-3502", "pref": "徳島県", "city": "吉野川市", "town": "美郷奥分", "full": "徳島県吉野川市美郷奥分"}, {"postal_code": "7793505", "postal_hyphen": "779-3505", "pref": "徳島県", "city": "吉野川市", "town": "美郷奥丸", "full": "徳島県吉野川市美郷奥丸"}, {"postal_code": "7793501", "postal_hyphen": "779-3501", "pref": "徳島県", "city": "吉野川市", "town": "美郷柿谷", "full": "徳島県吉野川市美郷柿谷"}, {"postal_code": "7793502", "postal_hyphen": "779-3502", "pref": "徳島県", "city": "吉野川市", "town": "美郷樫平", "full": "徳島県吉野川市美郷樫平"}, {"postal_code": "7793505", "postal_hyphen": "779-3505", "pref": "徳島県", "city": "吉野川市", "town": "美郷上谷", "full": "徳島県吉野川市美郷上谷"}, {"postal_code": "7793503", "postal_hyphen": "779-3503", "pref": "徳島県", "city": "吉野川市", "town": "美郷川俣", "full": "徳島県吉野川市美郷川俣"}, {"postal_code": "7793502", "postal_hyphen": "779-3502", "pref": "徳島県", "city": "吉野川市", "town": "美郷川向", "full": "徳島県吉野川市美郷川向"}, {"postal_code": "7793502", "postal_hyphen": "779-3502", "pref": "徳島県", "city": "吉野川市", "town": "美郷岸宗", "full": "徳島県吉野川市美郷岸宗"}, {"postal_code": "7793501", "postal_hyphen": "779-3501", "pref": "徳島県", "city": "吉野川市", "town": "美郷倉羅", "full": "徳島県吉野川市美郷倉羅"}, {"postal_code": "7793505", "postal_hyphen": "779-3505", "pref": "徳島県", "city": "吉野川市", "town": "美郷栗木", "full": "徳島県吉野川市美郷栗木"}, {"postal_code": "7793505", "postal_hyphen": "779-3505", "pref": "徳島県", "city": "吉野川市", "town": "美郷来見坂", "full": "徳島県吉野川市美郷来見坂"}, {"postal_code": "7793505", "postal_hyphen": "779-3505", "pref": "徳島県", "city": "吉野川市", "town": "美郷暮石", "full": "徳島県吉野川市美郷暮石"}, {"postal_code": "7793504", "postal_hyphen": "779-3504", "pref": "徳島県", "city": "吉野川市", "town": "美郷毛無", "full": "徳島県吉野川市美郷毛無"}, {"postal_code": "7793501", "postal_hyphen": "779-3501", "pref": "徳島県", "city": "吉野川市", "town": "美郷古井", "full": "徳島県吉野川市美郷古井"}, {"postal_code": "7793502", "postal_hyphen": "779-3502", "pref": "徳島県", "city": "吉野川市", "town": "美郷小竹", "full": "徳島県吉野川市美郷小竹"}, {"postal_code": "7793505", "postal_hyphen": "779-3505", "pref": "徳島県", "city": "吉野川市", "town": "美郷古土地", "full": "徳島県吉野川市美郷古土地"}, {"postal_code": "7793505", "postal_hyphen": "779-3505", "pref": "徳島県", "city": "吉野川市", "town": "美郷木屋浦", "full": "徳島県吉野川市美郷木屋浦"}, {"postal_code": "7793505", "postal_hyphen": "779-3505", "pref": "徳島県", "city": "吉野川市", "town": "美郷山王", "full": "徳島県吉野川市美郷山王"}, {"postal_code": "7793501", "postal_hyphen": "779-3501", "pref": "徳島県", "city": "吉野川市", "town": "美郷重野尾", "full": "徳島県吉野川市美郷重野尾"}, {"postal_code": "7793503", "postal_hyphen": "779-3503", "pref": "徳島県", "city": "吉野川市", "town": "美郷品野", "full": "徳島県吉野川市美郷品野"}, {"postal_code": "7793501", "postal_hyphen": "779-3501", "pref": "徳島県", "city": "吉野川市", "town": "美郷下浦", "full": "徳島県吉野川市美郷下浦"}, {"postal_code": "7793501", "postal_hyphen": "779-3501", "pref": "徳島県", "city": "吉野川市", "town": "美郷下城戸", "full": "徳島県吉野川市美郷下城戸"}, {"postal_code": "7793502", "postal_hyphen": "779-3502", "pref": "徳島県", "city": "吉野川市", "town": "美郷下畠", "full": "徳島県吉野川市美郷下畠"}, {"postal_code": "7793502", "postal_hyphen": "779-3502", "pref": "徳島県", "city": "吉野川市", "town": "美郷下林", "full": "徳島県吉野川市美郷下林"}, {"postal_code": "7793501", "postal_hyphen": "779-3501", "pref": "徳島県", "city": "吉野川市", "town": "美郷上戸峯", "full": "徳島県吉野川市美郷上戸峯"}, {"postal_code": "7793505", "postal_hyphen": "779-3505", "pref": "徳島県", "city": "吉野川市", "town": "美郷菅草", "full": "徳島県吉野川市美郷菅草"}, {"postal_code": "7793501", "postal_hyphen": "779-3501", "pref": "徳島県", "city": "吉野川市", "town": "美郷平", "full": "徳島県吉野川市美郷平"}, {"postal_code": "7793503", "postal_hyphen": "779-3503", "pref": "徳島県", "city": "吉野川市", "town": "美郷高野尾", "full": "徳島県吉野川市美郷高野尾"}, {"postal_code": "7793501", "postal_hyphen": "779-3501", "pref": "徳島県", "city": "吉野川市", "town": "美郷滝ケ山", "full": "徳島県吉野川市美郷滝ケ山"}, {"postal_code": "7793502", "postal_hyphen": "779-3502", "pref": "徳島県", "city": "吉野川市", "town": "美郷竹屋敷", "full": "徳島県吉野川市美郷竹屋敷"}, {"postal_code": "7793501", "postal_hyphen": "779-3501", "pref": "徳島県", "city": "吉野川市", "town": "美郷田平", "full": "徳島県吉野川市美郷田平"}, {"postal_code": "7793502", "postal_hyphen": "779-3502", "pref": "徳島県", "city": "吉野川市", "town": "美郷立石", "full": "徳島県吉野川市美郷立石"}, {"postal_code": "7793502", "postal_hyphen": "779-3502", "pref": "徳島県", "city": "吉野川市", "town": "美郷谷向", "full": "徳島県吉野川市美郷谷向"}, {"postal_code": "7793505", "postal_hyphen": "779-3505", "pref": "徳島県", "city": "吉野川市", "town": "美郷月野", "full": "徳島県吉野川市美郷月野"}, {"postal_code": "7793501", "postal_hyphen": "779-3501", "pref": "徳島県", "city": "吉野川市", "town": "美郷照尾", "full": "徳島県吉野川市美郷照尾"}, {"postal_code": "7793504", "postal_hyphen": "779-3504", "pref": "徳島県", "city": "吉野川市", "town": "美郷土井ノ奥", "full": "徳島県吉野川市美郷土井ノ奥"}, {"postal_code": "7793504", "postal_hyphen": "779-3504", "pref": "徳島県", "city": "吉野川市", "town": "美郷峠", "full": "徳島県吉野川市美郷峠"}, {"postal_code": "7793505", "postal_hyphen": "779-3505", "pref": "徳島県", "city": "吉野川市", "town": "美郷栩谷", "full": "徳島県吉野川市美郷栩谷"}, {"postal_code": "7793505", "postal_hyphen": "779-3505", "pref": "徳島県", "city": "吉野川市", "town": "美郷殿河", "full": "徳島県吉野川市美郷殿河"}, {"postal_code": "7793505", "postal_hyphen": "779-3505", "pref": "徳島県", "city": "吉野川市", "town": "美郷土用地", "full": "徳島県吉野川市美郷土用地"}, {"postal_code": "7793503", "postal_hyphen": "779-3503", "pref": "徳島県", "city": "吉野川市", "town": "美郷中筋", "full": "徳島県吉野川市美郷中筋"}, {"postal_code": "7793505", "postal_hyphen": "779-3505", "pref": "徳島県", "city": "吉野川市", "town": "美郷中谷", "full": "徳島県吉野川市美郷中谷"}, {"postal_code": "7793502", "postal_hyphen": "779-3502", "pref": "徳島県", "city": "吉野川市", "town": "美郷中畠", "full": "徳島県吉野川市美郷中畠"}, {"postal_code": "7793502", "postal_hyphen": "779-3502", "pref": "徳島県", "city": "吉野川市", "town": "美郷中分", "full": "徳島県吉野川市美郷中分"}, {"postal_code": "7793502", "postal_hyphen": "779-3502", "pref": "徳島県", "city": "吉野川市", "town": "美郷中村中筋", "full": "徳島県吉野川市美郷中村中筋"}, {"postal_code": "7793502", "postal_hyphen": "779-3502", "pref": "徳島県", "city": "吉野川市", "town": "美郷西條", "full": "徳島県吉野川市美郷西條"}, {"postal_code": "7793502", "postal_hyphen": "779-3502", "pref": "徳島県", "city": "吉野川市", "town": "美郷西谷", "full": "徳島県吉野川市美郷西谷"}, {"postal_code": "7793502", "postal_hyphen": "779-3502", "pref": "徳島県", "city": "吉野川市", "town": "美郷西畠", "full": "徳島県吉野川市美郷西畠"}, {"postal_code": "7793502", "postal_hyphen": "779-3502", "pref": "徳島県", "city": "吉野川市", "town": "美郷西槇山", "full": "徳島県吉野川市美郷西槇山"}, {"postal_code": "7793504", "postal_hyphen": "779-3504", "pref": "徳島県", "city": "吉野川市", "town": "美郷刷石", "full": "徳島県吉野川市美郷刷石"}, {"postal_code": "7793505", "postal_hyphen": "779-3505", "pref": "徳島県", "city": "吉野川市", "town": "美郷花地", "full": "徳島県吉野川市美郷花地"}, {"postal_code": "7793501", "postal_hyphen": "779-3501", "pref": "徳島県", "city": "吉野川市", "town": "美郷張", "full": "徳島県吉野川市美郷張"}, {"postal_code": "7793501", "postal_hyphen": "779-3501", "pref": "徳島県", "city": "吉野川市", "town": "美郷張峯", "full": "徳島県吉野川市美郷張峯"}, {"postal_code": "7793502", "postal_hyphen": "779-3502", "pref": "徳島県", "city": "吉野川市", "town": "美郷日浦", "full": "徳島県吉野川市美郷日浦"}, {"postal_code": "7793502", "postal_hyphen": "779-3502", "pref": "徳島県", "city": "吉野川市", "town": "美郷東", "full": "徳島県吉野川市美郷東"}, {"postal_code": "7793502", "postal_hyphen": "779-3502", "pref": "徳島県", "city": "吉野川市", "town": "美郷東條", "full": "徳島県吉野川市美郷東條"}, {"postal_code": "7793502", "postal_hyphen": "779-3502", "pref": "徳島県", "city": "吉野川市", "town": "美郷東槇山", "full": "徳島県吉野川市美郷東槇山"}, {"postal_code": "7793505", "postal_hyphen": "779-3505", "pref": "徳島県", "city": "吉野川市", "town": "美郷東山峠", "full": "徳島県吉野川市美郷東山峠"}, {"postal_code": "7793502", "postal_hyphen": "779-3502", "pref": "徳島県", "city": "吉野川市", "town": "美郷槇山", "full": "徳島県吉野川市美郷槇山"}, {"postal_code": "7793502", "postal_hyphen": "779-3502", "pref": "徳島県", "city": "吉野川市", "town": "美郷松尾", "full": "徳島県吉野川市美郷松尾"}, {"postal_code": "7793505", "postal_hyphen": "779-3505", "pref": "徳島県", "city": "吉野川市", "town": "美郷丸山", "full": "徳島県吉野川市美郷丸山"}, {"postal_code": "7793501", "postal_hyphen": "779-3501", "pref": "徳島県", "city": "吉野川市", "town": "美郷宮倉", "full": "徳島県吉野川市美郷宮倉"}, {"postal_code": "7793501", "postal_hyphen": "779-3501", "pref": "徳島県", "city": "吉野川市", "town": "美郷宗田", "full": "徳島県吉野川市美郷宗田"}, {"postal_code": "7793502", "postal_hyphen": "779-3502", "pref": "徳島県", "city": "吉野川市", "town": "美郷矢ノ丸", "full": "徳島県吉野川市美郷矢ノ丸"}, {"postal_code": "7793505", "postal_hyphen": "779-3505", "pref": "徳島県", "city": "吉野川市", "town": "美郷湯下", "full": "徳島県吉野川市美郷湯下"}, {"postal_code": "7793503", "postal_hyphen": "779-3503", "pref": "徳島県", "city": "吉野川市", "town": "美郷湯殿", "full": "徳島県吉野川市美郷湯殿"}, {"postal_code": "7793407", "postal_hyphen": "779-3407", "pref": "徳島県", "city": "吉野川市", "town": "山川町青木", "full": "徳島県吉野川市山川町青木"}, {"postal_code": "7793407", "postal_hyphen": "779-3407", "pref": "徳島県", "city": "吉野川市", "town": "山川町赤岩", "full": "徳島県吉野川市山川町赤岩"}, {"postal_code": "7793405", "postal_hyphen": "779-3405", "pref": "徳島県", "city": "吉野川市", "town": "山川町赤刎", "full": "徳島県吉野川市山川町赤刎"}, {"postal_code": "7793407", "postal_hyphen": "779-3407", "pref": "徳島県", "city": "吉野川市", "town": "山川町朝日", "full": "徳島県吉野川市山川町朝日"}, {"postal_code": "7793407", "postal_hyphen": "779-3407", "pref": "徳島県", "city": "吉野川市", "town": "山川町安楽寺", "full": "徳島県吉野川市山川町安楽寺"}, {"postal_code": "7793401", "postal_hyphen": "779-3401", "pref": "徳島県", "city": "吉野川市", "town": "山川町石堂", "full": "徳島県吉野川市山川町石堂"}, {"postal_code": "7793405", "postal_hyphen": "779-3405", "pref": "徳島県", "city": "吉野川市", "town": "山川町伊端穂", "full": "徳島県吉野川市山川町伊端穂"}, {"postal_code": "7793404", "postal_hyphen": "779-3404", "pref": "徳島県", "city": "吉野川市", "town": "山川町市久保", "full": "徳島県吉野川市山川町市久保"}, {"postal_code": "7793404", "postal_hyphen": "779-3404", "pref": "徳島県", "city": "吉野川市", "town": "山川町一里塚", "full": "徳島県吉野川市山川町一里塚"}, {"postal_code": "7793405", "postal_hyphen": "779-3405", "pref": "徳島県", "city": "吉野川市", "town": "山川町井上", "full": "徳島県吉野川市山川町井上"}, {"postal_code": "7793405", "postal_hyphen": "779-3405", "pref": "徳島県", "city": "吉野川市", "town": "山川町井傍", "full": "徳島県吉野川市山川町井傍"}, {"postal_code": "7793402", "postal_hyphen": "779-3402", "pref": "徳島県", "city": "吉野川市", "town": "山川町忌部", "full": "徳島県吉野川市山川町忌部"}, {"postal_code": "7793402", "postal_hyphen": "779-3402", "pref": "徳島県", "city": "吉野川市", "town": "山川町忌部山", "full": "徳島県吉野川市山川町忌部山"}, {"postal_code": "7793402", "postal_hyphen": "779-3402", "pref": "徳島県", "city": "吉野川市", "town": "山川町岩戸", "full": "徳島県吉野川市山川町岩戸"}, {"postal_code": "7793405", "postal_hyphen": "779-3405", "pref": "徳島県", "city": "吉野川市", "town": "山川町牛ノ子尾", "full": "徳島県吉野川市山川町牛ノ子尾"}, {"postal_code": "7793407", "postal_hyphen": "779-3407", "pref": "徳島県", "city": "吉野川市", "town": "山川町浦山", "full": "徳島県吉野川市山川町浦山"}, {"postal_code": "7793401", "postal_hyphen": "779-3401", "pref": "徳島県", "city": "吉野川市", "town": "山川町恵下", "full": "徳島県吉野川市山川町恵下"}, {"postal_code": "7793406", "postal_hyphen": "779-3406", "pref": "徳島県", "city": "吉野川市", "town": "山川町榎谷", "full": "徳島県吉野川市山川町榎谷"}, {"postal_code": "7793406", "postal_hyphen": "779-3406", "pref": "徳島県", "city": "吉野川市", "town": "山川町大内", "full": "徳島県吉野川市山川町大内"}, {"postal_code": "7793404", "postal_hyphen": "779-3404", "pref": "徳島県", "city": "吉野川市", "town": "山川町大須賀", "full": "徳島県吉野川市山川町大須賀"}, {"postal_code": "7793404", "postal_hyphen": "779-3404", "pref": "徳島県", "city": "吉野川市", "town": "山川町大塚", "full": "徳島県吉野川市山川町大塚"}, {"postal_code": "7793405", "postal_hyphen": "779-3405", "pref": "徳島県", "city": "吉野川市", "town": "山川町大藤谷", "full": "徳島県吉野川市山川町大藤谷"}, {"postal_code": "7793405", "postal_hyphen": "779-3405", "pref": "徳島県", "city": "吉野川市", "town": "山川町大峰", "full": "徳島県吉野川市山川町大峰"}, {"postal_code": "7793405", "postal_hyphen": "779-3405", "pref": "徳島県", "city": "吉野川市", "town": "山川町大室", "full": "徳島県吉野川市山川町大室"}, {"postal_code": "7793404", "postal_hyphen": "779-3404", "pref": "徳島県", "city": "吉野川市", "town": "山川町麻掛", "full": "徳島県吉野川市山川町麻掛"}, {"postal_code": "7793401", "postal_hyphen": "779-3401", "pref": "徳島県", "city": "吉野川市", "town": "山川町翁喜台", "full": "徳島県吉野川市山川町翁喜台"}, {"postal_code": "7793406", "postal_hyphen": "779-3406", "pref": "徳島県", "city": "吉野川市", "town": "山川町奥川田", "full": "徳島県吉野川市山川町奥川田"}, {"postal_code": "7793406", "postal_hyphen": "779-3406", "pref": "徳島県", "city": "吉野川市", "town": "山川町奥野井", "full": "徳島県吉野川市山川町奥野井"}, {"postal_code": "7793405", "postal_hyphen": "779-3405", "pref": "徳島県", "city": "吉野川市", "town": "山川町奥原", "full": "徳島県吉野川市山川町奥原"}, {"postal_code": "7793406", "postal_hyphen": "779-3406", "pref": "徳島県", "city": "吉野川市", "town": "山川町皆瀬", "full": "徳島県吉野川市山川町皆瀬"}, {"postal_code": "7793404", "postal_hyphen": "779-3404", "pref": "徳島県", "city": "吉野川市", "town": "山川町槻原", "full": "徳島県吉野川市山川町槻原"}, {"postal_code": "7793405", "postal_hyphen": "779-3405", "pref": "徳島県", "city": "吉野川市", "town": "山川町柿木谷", "full": "徳島県吉野川市山川町柿木谷"}, {"postal_code": "7793405", "postal_hyphen": "779-3405", "pref": "徳島県", "city": "吉野川市", "town": "山川町楮本", "full": "徳島県吉野川市山川町楮本"}, {"postal_code": "7793403", "postal_hyphen": "779-3403", "pref": "徳島県", "city": "吉野川市", "town": "山川町春日", "full": "徳島県吉野川市山川町春日"}, {"postal_code": "7793405", "postal_hyphen": "779-3405", "pref": "徳島県", "city": "吉野川市", "town": "山川町片岸", "full": "徳島県吉野川市山川町片岸"}, {"postal_code": "7793404", "postal_hyphen": "779-3404", "pref": "徳島県", "city": "吉野川市", "town": "山川町川田", "full": "徳島県吉野川市山川町川田"}, {"postal_code": "7793404", "postal_hyphen": "779-3404", "pref": "徳島県", "city": "吉野川市", "town": "山川町川田市", "full": "徳島県吉野川市山川町川田市"}, {"postal_code": "7793404", "postal_hyphen": "779-3404", "pref": "徳島県", "city": "吉野川市", "town": "山川町川田天神", "full": "徳島県吉野川市山川町川田天神"}, {"postal_code": "7793405", "postal_hyphen": "779-3405", "pref": "徳島県", "city": "吉野川市", "town": "山川町川田八幡", "full": "徳島県吉野川市山川町川田八幡"}, {"postal_code": "7793401", "postal_hyphen": "779-3401", "pref": "徳島県", "city": "吉野川市", "town": "山川町川東", "full": "徳島県吉野川市山川町川東"}, {"postal_code": "7793407", "postal_hyphen": "779-3407", "pref": "徳島県", "city": "吉野川市", "town": "山川町祗園", "full": "徳島県吉野川市山川町祗園"}, {"postal_code": "7793404", "postal_hyphen": "779-3404", "pref": "徳島県", "city": "吉野川市", "town": "山川町北島", "full": "徳島県吉野川市山川町北島"}, {"postal_code": "7793403", "postal_hyphen": "779-3403", "pref": "徳島県", "city": "吉野川市", "town": "山川町北須賀", "full": "徳島県吉野川市山川町北須賀"}, {"postal_code": "7793405", "postal_hyphen": "779-3405", "pref": "徳島県", "city": "吉野川市", "town": "山川町木戸口", "full": "徳島県吉野川市山川町木戸口"}, {"postal_code": "7793406", "postal_hyphen": "779-3406", "pref": "徳島県", "city": "吉野川市", "town": "山川町楠根地", "full": "徳島県吉野川市山川町楠根地"}, {"postal_code": "7793402", "postal_hyphen": "779-3402", "pref": "徳島県", "city": "吉野川市", "town": "山川町雲宮", "full": "徳島県吉野川市山川町雲宮"}, {"postal_code": "7793405", "postal_hyphen": "779-3405", "pref": "徳島県", "city": "吉野川市", "town": "山川町黒岩", "full": "徳島県吉野川市山川町黒岩"}, {"postal_code": "7793406", "postal_hyphen": "779-3406", "pref": "徳島県", "city": "吉野川市", "town": "山川町桑内", "full": "徳島県吉野川市山川町桑内"}, {"postal_code": "7793405", "postal_hyphen": "779-3405", "pref": "徳島県", "city": "吉野川市", "town": "山川町桑ノ峰", "full": "徳島県吉野川市山川町桑ノ峰"}, {"postal_code": "7793405", "postal_hyphen": "779-3405", "pref": "徳島県", "city": "吉野川市", "town": "山川町高頭", "full": "徳島県吉野川市山川町高頭"}, {"postal_code": "7793405", "postal_hyphen": "779-3405", "pref": "徳島県", "city": "吉野川市", "town": "山川町御饌免", "full": "徳島県吉野川市山川町御饌免"}, {"postal_code": "7793405", "postal_hyphen": "779-3405", "pref": "徳島県", "city": "吉野川市", "town": "山川町御旅館", "full": "徳島県吉野川市山川町御旅館"}, {"postal_code": "7793405", "postal_hyphen": "779-3405", "pref": "徳島県", "city": "吉野川市", "town": "山川町権現谷", "full": "徳島県吉野川市山川町権現谷"}, {"postal_code": "7793407", "postal_hyphen": "779-3407", "pref": "徳島県", "city": "吉野川市", "town": "山川町境谷", "full": "徳島県吉野川市山川町境谷"}, {"postal_code": "7793405", "postal_hyphen": "779-3405", "pref": "徳島県", "city": "吉野川市", "town": "山川町坂口", "full": "徳島県吉野川市山川町坂口"}, {"postal_code": "7793407", "postal_hyphen": "779-3407", "pref": "徳島県", "city": "吉野川市", "town": "山川町坂田", "full": "徳島県吉野川市山川町坂田"}, {"postal_code": "7793405", "postal_hyphen": "779-3405", "pref": "徳島県", "city": "吉野川市", "town": "山川町貞田", "full": "徳島県吉野川市山川町貞田"}, {"postal_code": "7793405", "postal_hyphen": "779-3405", "pref": "徳島県", "city": "吉野川市", "town": "山川町小路", "full": "徳島県吉野川市山川町小路"}, {"postal_code": "7793407", "postal_hyphen": "779-3407", "pref": "徳島県", "city": "吉野川市", "town": "山川町新田谷", "full": "徳島県吉野川市山川町新田谷"}, {"postal_code": "7793407", "postal_hyphen": "779-3407", "pref": "徳島県", "city": "吉野川市", "town": "山川町季邦", "full": "徳島県吉野川市山川町季邦"}, {"postal_code": "7793401", "postal_hyphen": "779-3401", "pref": "徳島県", "city": "吉野川市", "town": "山川町住吉", "full": "徳島県吉野川市山川町住吉"}, {"postal_code": "7793403", "postal_hyphen": "779-3403", "pref": "徳島県", "city": "吉野川市", "town": "山川町諏訪", "full": "徳島県吉野川市山川町諏訪"}, {"postal_code": "7793405", "postal_hyphen": "779-3405", "pref": "徳島県", "city": "吉野川市", "town": "山川町瀬津", "full": "徳島県吉野川市山川町瀬津"}, {"postal_code": "7793401", "postal_hyphen": "779-3401", "pref": "徳島県", "city": "吉野川市", "town": "山川町建石", "full": "徳島県吉野川市山川町建石"}, {"postal_code": "7793405", "postal_hyphen": "779-3405", "pref": "徳島県", "city": "吉野川市", "town": "山川町田ノ浦", "full": "徳島県吉野川市山川町田ノ浦"}, {"postal_code": "7793405", "postal_hyphen": "779-3405", "pref": "徳島県", "city": "吉野川市", "town": "山川町塚穴", "full": "徳島県吉野川市山川町塚穴"}, {"postal_code": "7793405", "postal_hyphen": "779-3405", "pref": "徳島県", "city": "吉野川市", "town": "山川町土仏西向", "full": "徳島県吉野川市山川町土仏西向"}, {"postal_code": "7793404", "postal_hyphen": "779-3404", "pref": "徳島県", "city": "吉野川市", "town": "山川町鼓山", "full": "徳島県吉野川市山川町鼓山"}, {"postal_code": "7793407", "postal_hyphen": "779-3407", "pref": "徳島県", "city": "吉野川市", "town": "山川町津由谷", "full": "徳島県吉野川市山川町津由谷"}, {"postal_code": "7793403", "postal_hyphen": "779-3403", "pref": "徳島県", "city": "吉野川市", "town": "山川町堤外", "full": "徳島県吉野川市山川町堤外"}, {"postal_code": "7793402", "postal_hyphen": "779-3402", "pref": "徳島県", "city": "吉野川市", "town": "山川町堤内", "full": "徳島県吉野川市山川町堤内"}, {"postal_code": "7793402", "postal_hyphen": "779-3402", "pref": "徳島県", "city": "吉野川市", "town": "山川町天神", "full": "徳島県吉野川市山川町天神"}, {"postal_code": "7793405", "postal_hyphen": "779-3405", "pref": "徳島県", "city": "吉野川市", "town": "山川町天神佐古", "full": "徳島県吉野川市山川町天神佐古"}, {"postal_code": "7793405", "postal_hyphen": "779-3405", "pref": "徳島県", "city": "吉野川市", "town": "山川町天王原", "full": "徳島県吉野川市山川町天王原"}, {"postal_code": "7793405", "postal_hyphen": "779-3405", "pref": "徳島県", "city": "吉野川市", "town": "山川町土橋", "full": "徳島県吉野川市山川町土橋"}, {"postal_code": "7793405", "postal_hyphen": "779-3405", "pref": "徳島県", "city": "吉野川市", "town": "山川町土橋ノ上", "full": "徳島県吉野川市山川町土橋ノ上"}, {"postal_code": "7793402", "postal_hyphen": "779-3402", "pref": "徳島県", "city": "吉野川市", "town": "山川町中須賀", "full": "徳島県吉野川市山川町中須賀"}, {"postal_code": "7793405", "postal_hyphen": "779-3405", "pref": "徳島県", "city": "吉野川市", "town": "山川町中ノ郷", "full": "徳島県吉野川市山川町中ノ郷"}, {"postal_code": "7793402", "postal_hyphen": "779-3402", "pref": "徳島県", "city": "吉野川市", "town": "山川町流", "full": "徳島県吉野川市山川町流"}, {"postal_code": "7793405", "postal_hyphen": "779-3405", "pref": "徳島県", "city": "吉野川市", "town": "山川町鍋倉", "full": "徳島県吉野川市山川町鍋倉"}, {"postal_code": "7793402", "postal_hyphen": "779-3402", "pref": "徳島県", "city": "吉野川市", "town": "山川町西久保", "full": "徳島県吉野川市山川町西久保"}, {"postal_code": "7793407", "postal_hyphen": "779-3407", "pref": "徳島県", "city": "吉野川市", "town": "山川町西ノ原", "full": "徳島県吉野川市山川町西ノ原"}, {"postal_code": "7793406", "postal_hyphen": "779-3406", "pref": "徳島県", "city": "吉野川市", "town": "山川町西野峰", "full": "徳島県吉野川市山川町西野峰"}, {"postal_code": "7793402", "postal_hyphen": "779-3402", "pref": "徳島県", "city": "吉野川市", "town": "山川町西麓", "full": "徳島県吉野川市山川町西麓"}, {"postal_code": "7793405", "postal_hyphen": "779-3405", "pref": "徳島県", "city": "吉野川市", "town": "山川町野宮谷", "full": "徳島県吉野川市山川町野宮谷"}, {"postal_code": "7793407", "postal_hyphen": "779-3407", "pref": "徳島県", "city": "吉野川市", "town": "山川町旗見", "full": "徳島県吉野川市山川町旗見"}, {"postal_code": "7793405", "postal_hyphen": "779-3405", "pref": "徳島県", "city": "吉野川市", "town": "山川町八ケ久保", "full": "徳島県吉野川市山川町八ケ久保"}, {"postal_code": "7793403", "postal_hyphen": "779-3403", "pref": "徳島県", "city": "吉野川市", "town": "山川町八幡", "full": "徳島県吉野川市山川町八幡"}, {"postal_code": "7793405", "postal_hyphen": "779-3405", "pref": "徳島県", "city": "吉野川市", "town": "山川町榛木原", "full": "徳島県吉野川市山川町榛木原"}, {"postal_code": "7793402", "postal_hyphen": "779-3402", "pref": "徳島県", "city": "吉野川市", "town": "山川町東麓", "full": "徳島県吉野川市山川町東麓"}, {"postal_code": "7793407", "postal_hyphen": "779-3407", "pref": "徳島県", "city": "吉野川市", "town": "山川町東麦原", "full": "徳島県吉野川市山川町東麦原"}, {"postal_code": "7793404", "postal_hyphen": "779-3404", "pref": "徳島県", "city": "吉野川市", "town": "山川町引地", "full": "徳島県吉野川市山川町引地"}, {"postal_code": "7793406", "postal_hyphen": "779-3406", "pref": "徳島県", "city": "吉野川市", "town": "山川町久宗", "full": "徳島県吉野川市山川町久宗"}, {"postal_code": "7793404", "postal_hyphen": "779-3404", "pref": "徳島県", "city": "吉野川市", "town": "山川町日知利子", "full": "徳島県吉野川市山川町日知利子"}, {"postal_code": "7793405", "postal_hyphen": "779-3405", "pref": "徳島県", "city": "吉野川市", "town": "山川町一ツ石", "full": "徳島県吉野川市山川町一ツ石"}, {"postal_code": "7793405", "postal_hyphen": "779-3405", "pref": "徳島県", "city": "吉野川市", "town": "山川町平山", "full": "徳島県吉野川市山川町平山"}, {"postal_code": "7793405", "postal_hyphen": "779-3405", "pref": "徳島県", "city": "吉野川市", "town": "山川町日鷲谷", "full": "徳島県吉野川市山川町日鷲谷"}, {"postal_code": "7793404", "postal_hyphen": "779-3404", "pref": "徳島県", "city": "吉野川市", "town": "山川町藤生", "full": "徳島県吉野川市山川町藤生"}, {"postal_code": "7793404", "postal_hyphen": "779-3404", "pref": "徳島県", "city": "吉野川市", "town": "山川町舟戸", "full": "徳島県吉野川市山川町舟戸"}, {"postal_code": "7793407", "postal_hyphen": "779-3407", "pref": "徳島県", "city": "吉野川市", "town": "山川町古城", "full": "徳島県吉野川市山川町古城"}, {"postal_code": "7793403", "postal_hyphen": "779-3403", "pref": "徳島県", "city": "吉野川市", "town": "山川町前川", "full": "徳島県吉野川市山川町前川"}, {"postal_code": "7793401", "postal_hyphen": "779-3401", "pref": "徳島県", "city": "吉野川市", "town": "山川町町", "full": "徳島県吉野川市山川町町"}, {"postal_code": "7793406", "postal_hyphen": "779-3406", "pref": "徳島県", "city": "吉野川市", "town": "山川町馬見尾", "full": "徳島県吉野川市山川町馬見尾"}, {"postal_code": "7793407", "postal_hyphen": "779-3407", "pref": "徳島県", "city": "吉野川市", "town": "山川町丸山", "full": "徳島県吉野川市山川町丸山"}, {"postal_code": "7793403", "postal_hyphen": "779-3403", "pref": "徳島県", "city": "吉野川市", "town": "山川町三島", "full": "徳島県吉野川市山川町三島"}, {"postal_code": "7793402", "postal_hyphen": "779-3402", "pref": "徳島県", "city": "吉野川市", "town": "山川町宮北", "full": "徳島県吉野川市山川町宮北"}, {"postal_code": "7793407", "postal_hyphen": "779-3407", "pref": "徳島県", "city": "吉野川市", "town": "山川町宮地", "full": "徳島県吉野川市山川町宮地"}, {"postal_code": "7793402", "postal_hyphen": "779-3402", "pref": "徳島県", "city": "吉野川市", "town": "山川町宮島", "full": "徳島県吉野川市山川町宮島"}, {"postal_code": "7793405", "postal_hyphen": "779-3405", "pref": "徳島県", "city": "吉野川市", "town": "山川町宮谷", "full": "徳島県吉野川市山川町宮谷"}, {"postal_code": "7793407", "postal_hyphen": "779-3407", "pref": "徳島県", "city": "吉野川市", "town": "山川町迎坂", "full": "徳島県吉野川市山川町迎坂"}, {"postal_code": "7793407", "postal_hyphen": "779-3407", "pref": "徳島県", "city": "吉野川市", "town": "山川町麦原", "full": "徳島県吉野川市山川町麦原"}, {"postal_code": "7793407", "postal_hyphen": "779-3407", "pref": "徳島県", "city": "吉野川市", "town": "山川町向坂", "full": "徳島県吉野川市山川町向坂"}, {"postal_code": "7793405", "postal_hyphen": "779-3405", "pref": "徳島県", "city": "吉野川市", "town": "山川町村雲", "full": "徳島県吉野川市山川町村雲"}, {"postal_code": "7793405", "postal_hyphen": "779-3405", "pref": "徳島県", "city": "吉野川市", "town": "山川町茂草", "full": "徳島県吉野川市山川町茂草"}, {"postal_code": "7793405", "postal_hyphen": "779-3405", "pref": "徳島県", "city": "吉野川市", "town": "山川町矢落", "full": "徳島県吉野川市山川町矢落"}, {"postal_code": "7793402", "postal_hyphen": "779-3402", "pref": "徳島県", "city": "吉野川市", "town": "山川町山路", "full": "徳島県吉野川市山川町山路"}, {"postal_code": "7793407", "postal_hyphen": "779-3407", "pref": "徳島県", "city": "吉野川市", "town": "山川町山ノ神", "full": "徳島県吉野川市山川町山ノ神"}, {"postal_code": "7793405", "postal_hyphen": "779-3405", "pref": "徳島県", "city": "吉野川市", "town": "山川町木綿麻山", "full": "徳島県吉野川市山川町木綿麻山"}, {"postal_code": "7793404", "postal_hyphen": "779-3404", "pref": "徳島県", "city": "吉野川市", "town": "山川町湯立", "full": "徳島県吉野川市山川町湯立"}, {"postal_code": "7793407", "postal_hyphen": "779-3407", "pref": "徳島県", "city": "吉野川市", "town": "山川町横走", "full": "徳島県吉野川市山川町横走"}, {"postal_code": "7793403", "postal_hyphen": "779-3403", "pref": "徳島県", "city": "吉野川市", "town": "山川町若宮", "full": "徳島県吉野川市山川町若宮"}, {"postal_code": "7711700", "postal_hyphen": "771-1700", "pref": "徳島県", "city": "阿波市", "town": "", "full": "徳島県阿波市"}, {"postal_code": "7711705", "postal_hyphen": "771-1705", "pref": "徳島県", "city": "阿波市", "town": "阿波町赤坂", "full": "徳島県阿波市阿波町赤坂"}, {"postal_code": "7711705", "postal_hyphen": "771-1705", "pref": "徳島県", "city": "阿波市", "town": "阿波町医王寺", "full": "徳島県阿波市阿波町医王寺"}, {"postal_code": "7711701", "postal_hyphen": "771-1701", "pref": "徳島県", "city": "阿波市", "town": "阿波町伊沢市", "full": "徳島県阿波市阿波町伊沢市"}, {"postal_code": "7711703", "postal_hyphen": "771-1703", "pref": "徳島県", "city": "阿波市", "town": "阿波町伊沢田", "full": "徳島県阿波市阿波町伊沢田"}, {"postal_code": "7711704", "postal_hyphen": "771-1704", "pref": "徳島県", "city": "阿波市", "town": "阿波町伊沢谷東縁", "full": "徳島県阿波市阿波町伊沢谷東縁"}, {"postal_code": "7711702", "postal_hyphen": "771-1702", "pref": "徳島県", "city": "阿波市", "town": "阿波町伊勢", "full": "徳島県阿波市阿波町伊勢"}, {"postal_code": "7711702", "postal_hyphen": "771-1702", "pref": "徳島県", "city": "阿波市", "town": "阿波町井出口", "full": "徳島県阿波市阿波町井出口"}, {"postal_code": "7711704", "postal_hyphen": "771-1704", "pref": "徳島県", "city": "阿波市", "town": "阿波町糸下", "full": "徳島県阿波市阿波町糸下"}, {"postal_code": "7711702", "postal_hyphen": "771-1702", "pref": "徳島県", "city": "阿波市", "town": "阿波町稲荷", "full": "徳島県阿波市阿波町稲荷"}, {"postal_code": "7711704", "postal_hyphen": "771-1704", "pref": "徳島県", "city": "阿波市", "town": "阿波町芋場", "full": "徳島県阿波市阿波町芋場"}, {"postal_code": "7711705", "postal_hyphen": "771-1705", "pref": "徳島県", "city": "阿波市", "town": "阿波町居屋敷", "full": "徳島県阿波市阿波町居屋敷"}, {"postal_code": "7711706", "postal_hyphen": "771-1706", "pref": "徳島県", "city": "阿波市", "town": "阿波町岩津", "full": "徳島県阿波市阿波町岩津"}, {"postal_code": "7711706", "postal_hyphen": "771-1706", "pref": "徳島県", "city": "阿波市", "town": "阿波町植桜", "full": "徳島県阿波市阿波町植桜"}, {"postal_code": "7711705", "postal_hyphen": "771-1705", "pref": "徳島県", "city": "阿波市", "town": "阿波町梅川内", "full": "徳島県阿波市阿波町梅川内"}, {"postal_code": "7711704", "postal_hyphen": "771-1704", "pref": "徳島県", "city": "阿波市", "town": "阿波町梅ノ木原", "full": "徳島県阿波市阿波町梅ノ木原"}, {"postal_code": "7711704", "postal_hyphen": "771-1704", "pref": "徳島県", "city": "阿波市", "town": "阿波町梅ノ東", "full": "徳島県阿波市阿波町梅ノ東"}, {"postal_code": "7711701", "postal_hyphen": "771-1701", "pref": "徳島県", "city": "阿波市", "town": "阿波町王地", "full": "徳島県阿波市阿波町王地"}, {"postal_code": "7711705", "postal_hyphen": "771-1705", "pref": "徳島県", "city": "阿波市", "town": "阿波町王子川", "full": "徳島県阿波市阿波町王子川"}, {"postal_code": "7711701", "postal_hyphen": "771-1701", "pref": "徳島県", "city": "阿波市", "town": "阿波町王地南", "full": "徳島県阿波市阿波町王地南"}, {"postal_code": "7711702", "postal_hyphen": "771-1702", "pref": "徳島県", "city": "阿波市", "town": "阿波町大久保", "full": "徳島県阿波市阿波町大久保"}, {"postal_code": "7711701", "postal_hyphen": "771-1701", "pref": "徳島県", "city": "阿波市", "town": "阿波町大坪", "full": "徳島県阿波市阿波町大坪"}, {"postal_code": "7711701", "postal_hyphen": "771-1701", "pref": "徳島県", "city": "阿波市", "town": "阿波町大原", "full": "徳島県阿波市阿波町大原"}, {"postal_code": "7711703", "postal_hyphen": "771-1703", "pref": "徳島県", "city": "阿波市", "town": "阿波町大道北", "full": "徳島県阿波市阿波町大道北"}, {"postal_code": "7711701", "postal_hyphen": "771-1701", "pref": "徳島県", "city": "阿波市", "town": "阿波町大道南", "full": "徳島県阿波市阿波町大道南"}, {"postal_code": "7711703", "postal_hyphen": "771-1703", "pref": "徳島県", "city": "阿波市", "town": "阿波町岡地", "full": "徳島県阿波市阿波町岡地"}, {"postal_code": "7711704", "postal_hyphen": "771-1704", "pref": "徳島県", "city": "阿波市", "town": "阿波町小倉", "full": "徳島県阿波市阿波町小倉"}, {"postal_code": "7711706", "postal_hyphen": "771-1706", "pref": "徳島県", "city": "阿波市", "town": "阿波町乙岩津", "full": "徳島県阿波市阿波町乙岩津"}, {"postal_code": "7711702", "postal_hyphen": "771-1702", "pref": "徳島県", "city": "阿波市", "town": "阿波町柏谷左右", "full": "徳島県阿波市阿波町柏谷左右"}, {"postal_code": "7711701", "postal_hyphen": "771-1701", "pref": "徳島県", "city": "阿波市", "town": "阿波町勝命", "full": "徳島県阿波市阿波町勝命"}, {"postal_code": "7711701", "postal_hyphen": "771-1701", "pref": "徳島県", "city": "阿波市", "town": "阿波町勝命北", "full": "徳島県阿波市阿波町勝命北"}, {"postal_code": "7711704", "postal_hyphen": "771-1704", "pref": "徳島県", "city": "阿波市", "town": "阿波町亀底", "full": "徳島県阿波市阿波町亀底"}, {"postal_code": "7711705", "postal_hyphen": "771-1705", "pref": "徳島県", "city": "阿波市", "town": "阿波町川久保", "full": "徳島県阿波市阿波町川久保"}, {"postal_code": "7711702", "postal_hyphen": "771-1702", "pref": "徳島県", "city": "阿波市", "town": "阿波町川添", "full": "徳島県阿波市阿波町川添"}, {"postal_code": "7711706", "postal_hyphen": "771-1706", "pref": "徳島県", "city": "阿波市", "town": "阿波町北岡", "full": "徳島県阿波市阿波町北岡"}, {"postal_code": "7711704", "postal_hyphen": "771-1704", "pref": "徳島県", "city": "阿波市", "town": "阿波町北久保", "full": "徳島県阿波市阿波町北久保"}, {"postal_code": "7711704", "postal_hyphen": "771-1704", "pref": "徳島県", "city": "阿波市", "town": "阿波町北五味知", "full": "徳島県阿波市阿波町北五味知"}, {"postal_code": "7711703", "postal_hyphen": "771-1703", "pref": "徳島県", "city": "阿波市", "town": "阿波町北柴生", "full": "徳島県阿波市阿波町北柴生"}, {"postal_code": "7711705", "postal_hyphen": "771-1705", "pref": "徳島県", "city": "阿波市", "town": "阿波町北整理", "full": "徳島県阿波市阿波町北整理"}, {"postal_code": "7711706", "postal_hyphen": "771-1706", "pref": "徳島県", "city": "阿波市", "town": "阿波町北西谷", "full": "徳島県阿波市阿波町北西谷"}, {"postal_code": "7711702", "postal_hyphen": "771-1702", "pref": "徳島県", "city": "阿波市", "town": "阿波町北ノ名", "full": "徳島県阿波市阿波町北ノ名"}, {"postal_code": "7711703", "postal_hyphen": "771-1703", "pref": "徳島県", "city": "阿波市", "town": "阿波町北原", "full": "徳島県阿波市阿波町北原"}, {"postal_code": "7711704", "postal_hyphen": "771-1704", "pref": "徳島県", "city": "阿波市", "town": "阿波町北正広", "full": "徳島県阿波市阿波町北正広"}, {"postal_code": "7711705", "postal_hyphen": "771-1705", "pref": "徳島県", "city": "阿波市", "town": "阿波町北山", "full": "徳島県阿波市阿波町北山"}, {"postal_code": "7711701", "postal_hyphen": "771-1701", "pref": "徳島県", "city": "阿波市", "town": "阿波町庚申原", "full": "徳島県阿波市阿波町庚申原"}, {"postal_code": "7711705", "postal_hyphen": "771-1705", "pref": "徳島県", "city": "阿波市", "town": "阿波町五明", "full": "徳島県阿波市阿波町五明"}, {"postal_code": "7711705", "postal_hyphen": "771-1705", "pref": "徳島県", "city": "阿波市", "town": "阿波町桜ノ岡", "full": "徳島県阿波市阿波町桜ノ岡"}, {"postal_code": "7711705", "postal_hyphen": "771-1705", "pref": "徳島県", "city": "阿波市", "town": "阿波町寒風", "full": "徳島県阿波市阿波町寒風"}, {"postal_code": "7711702", "postal_hyphen": "771-1702", "pref": "徳島県", "city": "阿波市", "town": "阿波町山王", "full": "徳島県阿波市阿波町山王"}, {"postal_code": "7711706", "postal_hyphen": "771-1706", "pref": "徳島県", "city": "阿波市", "town": "阿波町三本柳", "full": "徳島県阿波市阿波町三本柳"}, {"postal_code": "7711702", "postal_hyphen": "771-1702", "pref": "徳島県", "city": "阿波市", "town": "阿波町四歩一", "full": "徳島県阿波市阿波町四歩一"}, {"postal_code": "7711701", "postal_hyphen": "771-1701", "pref": "徳島県", "city": "阿波市", "town": "阿波町下喜来", "full": "徳島県阿波市阿波町下喜来"}, {"postal_code": "7711701", "postal_hyphen": "771-1701", "pref": "徳島県", "city": "阿波市", "town": "阿波町下喜来南", "full": "徳島県阿波市阿波町下喜来南"}, {"postal_code": "7711702", "postal_hyphen": "771-1702", "pref": "徳島県", "city": "阿波市", "town": "阿波町下原", "full": "徳島県阿波市阿波町下原"}, {"postal_code": "7711705", "postal_hyphen": "771-1705", "pref": "徳島県", "city": "阿波市", "town": "阿波町十善地", "full": "徳島県阿波市阿波町十善地"}, {"postal_code": "7711701", "postal_hyphen": "771-1701", "pref": "徳島県", "city": "阿波市", "town": "阿波町新開", "full": "徳島県阿波市阿波町新開"}, {"postal_code": "7711703", "postal_hyphen": "771-1703", "pref": "徳島県", "city": "阿波市", "town": "阿波町真福寺", "full": "徳島県阿波市阿波町真福寺"}, {"postal_code": "7711701", "postal_hyphen": "771-1701", "pref": "徳島県", "city": "阿波市", "town": "阿波町清原", "full": "徳島県阿波市阿波町清原"}, {"postal_code": "7711705", "postal_hyphen": "771-1705", "pref": "徳島県", "city": "阿波市", "town": "阿波町善地", "full": "徳島県阿波市阿波町善地"}, {"postal_code": "7711702", "postal_hyphen": "771-1702", "pref": "徳島県", "city": "阿波市", "town": "阿波町大次郎", "full": "徳島県阿波市阿波町大次郎"}, {"postal_code": "7711705", "postal_hyphen": "771-1705", "pref": "徳島県", "city": "阿波市", "town": "阿波町高垣", "full": "徳島県阿波市阿波町高垣"}, {"postal_code": "7711704", "postal_hyphen": "771-1704", "pref": "徳島県", "city": "阿波市", "town": "阿波町立割", "full": "徳島県阿波市阿波町立割"}, {"postal_code": "7711702", "postal_hyphen": "771-1702", "pref": "徳島県", "city": "阿波市", "town": "阿波町谷口", "full": "徳島県阿波市阿波町谷口"}, {"postal_code": "7711701", "postal_hyphen": "771-1701", "pref": "徳島県", "city": "阿波市", "town": "阿波町谷島", "full": "徳島県阿波市阿波町谷島"}, {"postal_code": "7711701", "postal_hyphen": "771-1701", "pref": "徳島県", "city": "阿波市", "town": "阿波町谷島北", "full": "徳島県阿波市阿波町谷島北"}, {"postal_code": "7711703", "postal_hyphen": "771-1703", "pref": "徳島県", "city": "阿波市", "town": "阿波町綱懸", "full": "徳島県阿波市阿波町綱懸"}, {"postal_code": "7711702", "postal_hyphen": "771-1702", "pref": "徳島県", "city": "阿波市", "town": "阿波町寺サコ", "full": "徳島県阿波市阿波町寺サコ"}, {"postal_code": "7711702", "postal_hyphen": "771-1702", "pref": "徳島県", "city": "阿波市", "town": "阿波町天西山", "full": "徳島県阿波市阿波町天西山"}, {"postal_code": "7711703", "postal_hyphen": "771-1703", "pref": "徳島県", "city": "阿波市", "town": "阿波町東条", "full": "徳島県阿波市阿波町東条"}, {"postal_code": "7711705", "postal_hyphen": "771-1705", "pref": "徳島県", "city": "阿波市", "town": "阿波町栩ケ窪", "full": "徳島県阿波市阿波町栩ケ窪"}, {"postal_code": "7711706", "postal_hyphen": "771-1706", "pref": "徳島県", "city": "阿波市", "town": "阿波町中川原", "full": "徳島県阿波市阿波町中川原"}, {"postal_code": "7711706", "postal_hyphen": "771-1706", "pref": "徳島県", "city": "阿波市", "town": "阿波町中坪", "full": "徳島県阿波市阿波町中坪"}, {"postal_code": "7711706", "postal_hyphen": "771-1706", "pref": "徳島県", "city": "阿波市", "town": "阿波町中長峰", "full": "徳島県阿波市阿波町中長峰"}, {"postal_code": "7711703", "postal_hyphen": "771-1703", "pref": "徳島県", "city": "阿波市", "town": "阿波町中原", "full": "徳島県阿波市阿波町中原"}, {"postal_code": "7711703", "postal_hyphen": "771-1703", "pref": "徳島県", "city": "阿波市", "town": "阿波町西柴生", "full": "徳島県阿波市阿波町西柴生"}, {"postal_code": "7711706", "postal_hyphen": "771-1706", "pref": "徳島県", "city": "阿波市", "town": "阿波町西島", "full": "徳島県阿波市阿波町西島"}, {"postal_code": "7711701", "postal_hyphen": "771-1701", "pref": "徳島県", "city": "阿波市", "town": "阿波町西清原", "full": "徳島県阿波市阿波町西清原"}, {"postal_code": "7711706", "postal_hyphen": "771-1706", "pref": "徳島県", "city": "阿波市", "town": "阿波町西整理", "full": "徳島県阿波市阿波町西整理"}, {"postal_code": "7711706", "postal_hyphen": "771-1706", "pref": "徳島県", "city": "阿波市", "town": "阿波町西長峰", "full": "徳島県阿波市阿波町西長峰"}, {"postal_code": "7711702", "postal_hyphen": "771-1702", "pref": "徳島県", "city": "阿波市", "town": "阿波町西ノ岡", "full": "徳島県阿波市阿波町西ノ岡"}, {"postal_code": "7711706", "postal_hyphen": "771-1706", "pref": "徳島県", "city": "阿波市", "town": "阿波町西林", "full": "徳島県阿波市阿波町西林"}, {"postal_code": "7711703", "postal_hyphen": "771-1703", "pref": "徳島県", "city": "阿波市", "town": "阿波町西原", "full": "徳島県阿波市阿波町西原"}, {"postal_code": "7711704", "postal_hyphen": "771-1704", "pref": "徳島県", "city": "阿波市", "town": "阿波町西正広", "full": "徳島県阿波市阿波町西正広"}, {"postal_code": "7711702", "postal_hyphen": "771-1702", "pref": "徳島県", "city": "阿波市", "town": "阿波町野神", "full": "徳島県阿波市阿波町野神"}, {"postal_code": "7711704", "postal_hyphen": "771-1704", "pref": "徳島県", "city": "阿波市", "town": "阿波町八丁原", "full": "徳島県阿波市阿波町八丁原"}, {"postal_code": "7711705", "postal_hyphen": "771-1705", "pref": "徳島県", "city": "阿波市", "town": "阿波町馬場", "full": "徳島県阿波市阿波町馬場"}, {"postal_code": "7711706", "postal_hyphen": "771-1706", "pref": "徳島県", "city": "阿波市", "town": "阿波町東川原", "full": "徳島県阿波市阿波町東川原"}, {"postal_code": "7711703", "postal_hyphen": "771-1703", "pref": "徳島県", "city": "阿波市", "town": "阿波町東柴生", "full": "徳島県阿波市阿波町東柴生"}, {"postal_code": "7711706", "postal_hyphen": "771-1706", "pref": "徳島県", "city": "阿波市", "town": "阿波町東島", "full": "徳島県阿波市阿波町東島"}, {"postal_code": "7711706", "postal_hyphen": "771-1706", "pref": "徳島県", "city": "阿波市", "town": "阿波町東整理", "full": "徳島県阿波市阿波町東整理"}, {"postal_code": "7711706", "postal_hyphen": "771-1706", "pref": "徳島県", "city": "阿波市", "town": "阿波町東長峰", "full": "徳島県阿波市阿波町東長峰"}, {"postal_code": "7711703", "postal_hyphen": "771-1703", "pref": "徳島県", "city": "阿波市", "town": "阿波町東原", "full": "徳島県阿波市阿波町東原"}, {"postal_code": "7711704", "postal_hyphen": "771-1704", "pref": "徳島県", "city": "阿波市", "town": "阿波町東正広", "full": "徳島県阿波市阿波町東正広"}, {"postal_code": "7711706", "postal_hyphen": "771-1706", "pref": "徳島県", "city": "阿波市", "town": "阿波町東村", "full": "徳島県阿波市阿波町東村"}, {"postal_code": "7711704", "postal_hyphen": "771-1704", "pref": "徳島県", "city": "阿波市", "town": "阿波町引地", "full": "徳島県阿波市阿波町引地"}, {"postal_code": "7711702", "postal_hyphen": "771-1702", "pref": "徳島県", "city": "阿波市", "town": "阿波町久原", "full": "徳島県阿波市阿波町久原"}, {"postal_code": "7711705", "postal_hyphen": "771-1705", "pref": "徳島県", "city": "阿波市", "town": "阿波町日吉谷", "full": "徳島県阿波市阿波町日吉谷"}, {"postal_code": "7711704", "postal_hyphen": "771-1704", "pref": "徳島県", "city": "阿波市", "town": "阿波町広野", "full": "徳島県阿波市阿波町広野"}, {"postal_code": "7711701", "postal_hyphen": "771-1701", "pref": "徳島県", "city": "阿波市", "town": "阿波町平川原北", "full": "徳島県阿波市阿波町平川原北"}, {"postal_code": "7711701", "postal_hyphen": "771-1701", "pref": "徳島県", "city": "阿波市", "town": "阿波町平川原南", "full": "徳島県阿波市阿波町平川原南"}, {"postal_code": "7711702", "postal_hyphen": "771-1702", "pref": "徳島県", "city": "阿波市", "town": "阿波町本町", "full": "徳島県阿波市阿波町本町"}, {"postal_code": "7711702", "postal_hyphen": "771-1702", "pref": "徳島県", "city": "阿波市", "town": "阿波町本安", "full": "徳島県阿波市阿波町本安"}, {"postal_code": "7711703", "postal_hyphen": "771-1703", "pref": "徳島県", "city": "阿波市", "town": "阿波町前島", "full": "徳島県阿波市阿波町前島"}, {"postal_code": "7711704", "postal_hyphen": "771-1704", "pref": "徳島県", "city": "阿波市", "town": "阿波町真重", "full": "徳島県阿波市阿波町真重"}, {"postal_code": "7711705", "postal_hyphen": "771-1705", "pref": "徳島県", "city": "阿波市", "town": "阿波町松川内", "full": "徳島県阿波市阿波町松川内"}, {"postal_code": "7711703", "postal_hyphen": "771-1703", "pref": "徳島県", "city": "阿波市", "town": "阿波町丸山", "full": "徳島県阿波市阿波町丸山"}, {"postal_code": "7711706", "postal_hyphen": "771-1706", "pref": "徳島県", "city": "阿波市", "town": "阿波町南川原", "full": "徳島県阿波市阿波町南川原"}, {"postal_code": "7711704", "postal_hyphen": "771-1704", "pref": "徳島県", "city": "阿波市", "town": "阿波町南五味知", "full": "徳島県阿波市阿波町南五味知"}, {"postal_code": "7711703", "postal_hyphen": "771-1703", "pref": "徳島県", "city": "阿波市", "town": "阿波町南柴生", "full": "徳島県阿波市阿波町南柴生"}, {"postal_code": "7711706", "postal_hyphen": "771-1706", "pref": "徳島県", "city": "阿波市", "town": "阿波町南整理", "full": "徳島県阿波市阿波町南整理"}, {"postal_code": "7711701", "postal_hyphen": "771-1701", "pref": "徳島県", "city": "阿波市", "town": "阿波町南谷島", "full": "徳島県阿波市阿波町南谷島"}, {"postal_code": "7711706", "postal_hyphen": "771-1706", "pref": "徳島県", "city": "阿波市", "town": "阿波町南西谷", "full": "徳島県阿波市阿波町南西谷"}, {"postal_code": "7711704", "postal_hyphen": "771-1704", "pref": "徳島県", "city": "阿波市", "town": "阿波町元町", "full": "徳島県阿波市阿波町元町"}, {"postal_code": "7711702", "postal_hyphen": "771-1702", "pref": "徳島県", "city": "阿波市", "town": "阿波町森沢", "full": "徳島県阿波市阿波町森沢"}, {"postal_code": "7711702", "postal_hyphen": "771-1702", "pref": "徳島県", "city": "阿波市", "town": "阿波町安政", "full": "徳島県阿波市阿波町安政"}, {"postal_code": "7711702", "postal_hyphen": "771-1702", "pref": "徳島県", "city": "阿波市", "town": "阿波町山尻", "full": "徳島県阿波市阿波町山尻"}, {"postal_code": "7711704", "postal_hyphen": "771-1704", "pref": "徳島県", "city": "阿波市", "town": "阿波町山ノ神", "full": "徳島県阿波市阿波町山ノ神"}, {"postal_code": "7711702", "postal_hyphen": "771-1702", "pref": "徳島県", "city": "阿波市", "town": "阿波町早田", "full": "徳島県阿波市阿波町早田"}, {"postal_code": "7711602", "postal_hyphen": "771-1602", "pref": "徳島県", "city": "阿波市", "town": "市場町市場（上野段）", "full": "徳島県阿波市市場町市場（上野段）"}, {"postal_code": "7711603", "postal_hyphen": "771-1603", "pref": "徳島県", "city": "阿波市", "town": "市場町市場（岸ノ下）", "full": "徳島県阿波市市場町市場（岸ノ下）"}, {"postal_code": "7711601", "postal_hyphen": "771-1601", "pref": "徳島県", "city": "阿波市", "town": "市場町市場（興崎）", "full": "徳島県阿波市市場町市場（興崎）"}, {"postal_code": "7711604", "postal_hyphen": "771-1604", "pref": "徳島県", "city": "阿波市", "town": "市場町市場（町筋）", "full": "徳島県阿波市市場町市場（町筋）"}, {"postal_code": "7711626", "postal_hyphen": "771-1626", "pref": "徳島県", "city": "阿波市", "town": "市場町伊月", "full": "徳島県阿波市市場町伊月"}, {"postal_code": "7711714", "postal_hyphen": "771-1714", "pref": "徳島県", "city": "阿波市", "town": "市場町犬墓（小竹）", "full": "徳島県阿波市市場町犬墓（小竹）"}, {"postal_code": "7711614", "postal_hyphen": "771-1614", "pref": "徳島県", "city": "阿波市", "town": "市場町犬墓（その他）", "full": "徳島県阿波市市場町犬墓（その他）"}, {"postal_code": "7711615", "postal_hyphen": "771-1615", "pref": "徳島県", "city": "阿波市", "town": "市場町大影", "full": "徳島県阿波市市場町大影"}, {"postal_code": "7711627", "postal_hyphen": "771-1627", "pref": "徳島県", "city": "阿波市", "town": "市場町大野島", "full": "徳島県阿波市市場町大野島"}, {"postal_code": "7711613", "postal_hyphen": "771-1613", "pref": "徳島県", "city": "阿波市", "town": "市場町大俣", "full": "徳島県阿波市市場町大俣"}, {"postal_code": "7711621", "postal_hyphen": "771-1621", "pref": "徳島県", "city": "阿波市", "town": "市場町尾開", "full": "徳島県阿波市市場町尾開"}, {"postal_code": "7711611", "postal_hyphen": "771-1611", "pref": "徳島県", "city": "阿波市", "town": "市場町香美（北香美）", "full": "徳島県阿波市市場町香美（北香美）"}, {"postal_code": "7711610", "postal_hyphen": "771-1610", "pref": "徳島県", "city": "阿波市", "town": "市場町香美（その他）", "full": "徳島県阿波市市場町香美（その他）"}, {"postal_code": "7711612", "postal_hyphen": "771-1612", "pref": "徳島県", "city": "阿波市", "town": "市場町上喜来", "full": "徳島県阿波市市場町上喜来"}, {"postal_code": "7711623", "postal_hyphen": "771-1623", "pref": "徳島県", "city": "阿波市", "town": "市場町切幡", "full": "徳島県阿波市市場町切幡"}, {"postal_code": "7711622", "postal_hyphen": "771-1622", "pref": "徳島県", "city": "阿波市", "town": "市場町興崎", "full": "徳島県阿波市市場町興崎"}, {"postal_code": "7711616", "postal_hyphen": "771-1616", "pref": "徳島県", "city": "阿波市", "town": "市場町日開谷", "full": "徳島県阿波市市場町日開谷"}, {"postal_code": "7711624", "postal_hyphen": "771-1624", "pref": "徳島県", "city": "阿波市", "town": "市場町山野上", "full": "徳島県阿波市市場町山野上"}, {"postal_code": "7711625", "postal_hyphen": "771-1625", "pref": "徳島県", "city": "阿波市", "town": "市場町八幡", "full": "徳島県阿波市市場町八幡"}, {"postal_code": "7711501", "postal_hyphen": "771-1501", "pref": "徳島県", "city": "阿波市", "town": "土成町秋月", "full": "徳島県阿波市土成町秋月"}, {"postal_code": "7711503", "postal_hyphen": "771-1503", "pref": "徳島県", "city": "阿波市", "town": "土成町浦池", "full": "徳島県阿波市土成町浦池"}, {"postal_code": "7711505", "postal_hyphen": "771-1505", "pref": "徳島県", "city": "阿波市", "town": "土成町郡", "full": "徳島県阿波市土成町郡"}, {"postal_code": "7711509", "postal_hyphen": "771-1509", "pref": "徳島県", "city": "阿波市", "town": "土成町高尾", "full": "徳島県阿波市土成町高尾"}, {"postal_code": "7711506", "postal_hyphen": "771-1506", "pref": "徳島県", "city": "阿波市", "town": "土成町土成", "full": "徳島県阿波市土成町土成"}, {"postal_code": "7711504", "postal_hyphen": "771-1504", "pref": "徳島県", "city": "阿波市", "town": "土成町成当", "full": "徳島県阿波市土成町成当"}, {"postal_code": "7711502", "postal_hyphen": "771-1502", "pref": "徳島県", "city": "阿波市", "town": "土成町水田", "full": "徳島県阿波市土成町水田"}, {"postal_code": "7711508", "postal_hyphen": "771-1508", "pref": "徳島県", "city": "阿波市", "town": "土成町宮川内", "full": "徳島県阿波市土成町宮川内"}, {"postal_code": "7711507", "postal_hyphen": "771-1507", "pref": "徳島県", "city": "阿波市", "town": "土成町吉田", "full": "徳島県阿波市土成町吉田"}, {"postal_code": "7711401", "postal_hyphen": "771-1401", "pref": "徳島県", "city": "阿波市", "town": "吉野町柿原", "full": "徳島県阿波市吉野町柿原"}, {"postal_code": "7711403", "postal_hyphen": "771-1403", "pref": "徳島県", "city": "阿波市", "town": "吉野町五条", "full": "徳島県阿波市吉野町五条"}, {"postal_code": "7711402", "postal_hyphen": "771-1402", "pref": "徳島県", "city": "阿波市", "town": "吉野町西条", "full": "徳島県阿波市吉野町西条"}, {"postal_code": "7793600", "postal_hyphen": "779-3600", "pref": "徳島県", "city": "美馬市", "town": "", "full": "徳島県美馬市"}, {"postal_code": "7770005", "postal_hyphen": "777-0005", "pref": "徳島県", "city": "美馬市", "town": "穴吹町穴吹", "full": "徳島県美馬市穴吹町穴吹"}, {"postal_code": "7770006", "postal_hyphen": "777-0006", "pref": "徳島県", "city": "美馬市", "town": "穴吹町口山", "full": "徳島県美馬市穴吹町口山"}, {"postal_code": "7770007", "postal_hyphen": "777-0007", "pref": "徳島県", "city": "美馬市", "town": "穴吹町古宮", "full": "徳島県美馬市穴吹町古宮"}, {"postal_code": "7770004", "postal_hyphen": "777-0004", "pref": "徳島県", "city": "美馬市", "town": "穴吹町三島（大重）", "full": "徳島県美馬市穴吹町三島（大重）"}, {"postal_code": "7770001", "postal_hyphen": "777-0001", "pref": "徳島県", "city": "美馬市", "town": "穴吹町三島（小島）", "full": "徳島県美馬市穴吹町三島（小島）"}, {"postal_code": "7770002", "postal_hyphen": "777-0002", "pref": "徳島県", "city": "美馬市", "town": "穴吹町三島（舞中島）", "full": "徳島県美馬市穴吹町三島（舞中島）"}, {"postal_code": "7770003", "postal_hyphen": "777-0003", "pref": "徳島県", "city": "美馬市", "town": "穴吹町三島（三谷）", "full": "徳島県美馬市穴吹町三島（三谷）"}, {"postal_code": "7770302", "postal_hyphen": "777-0302", "pref": "徳島県", "city": "美馬市", "town": "木屋平（麻衣、大北、川井、下名、竹尾、櫟木）", "full": "徳島県美馬市木屋平（麻衣、大北、川井、下名、竹尾、櫟木）"}, {"postal_code": "7770301", "postal_hyphen": "777-0301", "pref": "徳島県", "city": "美馬市", "town": "木屋平（市初、今丸、尾山、カゴミ、樫原、木中、桑柄、ケヤキヒラ、小日浦、", "full": "徳島県美馬市木屋平（市初、今丸、尾山、カゴミ、樫原、木中、桑柄、ケヤキヒラ、小日浦、"}, {"postal_code": "7770301", "postal_hyphen": "777-0301", "pref": "徳島県", "city": "美馬市", "town": "地神滝、菅蔵、杖谷、葛尾、ハジコノ、ビヤガイチ、二戸、三ツ木、貢、", "full": "徳島県美馬市地神滝、菅蔵、杖谷、葛尾、ハジコノ、ビヤガイチ、二戸、三ツ木、貢、"}, {"postal_code": "7770301", "postal_hyphen": "777-0301", "pref": "徳島県", "city": "美馬市", "town": "南張、向樫原）", "full": "徳島県美馬市南張、向樫原）"}, {"postal_code": "7770303", "postal_hyphen": "777-0303", "pref": "徳島県", "city": "美馬市", "town": "木屋平（川上、川上カケ、太合、太合カケ、谷口、谷口カケ、森遠、八幡、弓道）", "full": "徳島県美馬市木屋平（川上、川上カケ、太合、太合カケ、谷口、谷口カケ、森遠、八幡、弓道）"}, {"postal_code": "7712107", "postal_hyphen": "771-2107", "pref": "徳島県", "city": "美馬市", "town": "美馬町（雨下、上野、小原、境目、里西屋敷、下ノ段、城、滝下、竹ノ内、田辺、", "full": "徳島県美馬市美馬町（雨下、上野、小原、境目、里西屋敷、下ノ段、城、滝下、竹ノ内、田辺、"}, {"postal_code": "7712107", "postal_hyphen": "771-2107", "pref": "徳島県", "city": "美馬市", "town": "谷口、栂尾、突落、中尾、中耕地、中筋、中通、中西、中山、長畑、夏蕨、", "full": "徳島県美馬市谷口、栂尾、突落、中尾、中耕地、中筋、中通、中西、中山、長畑、夏蕨、"}, {"postal_code": "7712107", "postal_hyphen": "771-2107", "pref": "徳島県", "city": "美馬市", "town": "西宮ノ上、東宮ノ上、細野、前田、松ノ花、松ノ本、宮前、宮北、八幡、", "full": "徳島県美馬市西宮ノ上、東宮ノ上、細野、前田、松ノ花、松ノ本、宮前、宮北、八幡、"}, {"postal_code": "7712107", "postal_hyphen": "771-2107", "pref": "徳島県", "city": "美馬市", "town": "山夏蕨、吉水）", "full": "徳島県美馬市山夏蕨、吉水）"}, {"postal_code": "7712106", "postal_hyphen": "771-2106", "pref": "徳島県", "city": "美馬市", "town": "美馬町（荒川、井出縁、井ノ神、大泉、大宮西、上突出、岸ノ下、北東原、", "full": "徳島県美馬市美馬町（荒川、井出縁、井ノ神、大泉、大宮西、上突出、岸ノ下、北東原、"}, {"postal_code": "7712106", "postal_hyphen": "771-2106", "pref": "徳島県", "city": "美馬市", "town": "喜来市、里平野、下突出、谷ヨリ西、乳ノ木、寺ノ下、天神、天神北、中東原、", "full": "徳島県美馬市喜来市、里平野、下突出、谷ヨリ西、乳ノ木、寺ノ下、天神、天神北、中東原、"}, {"postal_code": "7712106", "postal_hyphen": "771-2106", "pref": "徳島県", "city": "美馬市", "town": "西荒川、沼田島、東荒川、南荒川、南東原、妙見、山嫁坂）", "full": "徳島県美馬市西荒川、沼田島、東荒川、南荒川、南東原、妙見、山嫁坂）"}, {"postal_code": "7712102", "postal_hyphen": "771-2102", "pref": "徳島県", "city": "美馬市", "town": "美馬町（家ノ前、大池、大上、大北、大佐古、大前、岡ノ内、押上、茅原、", "full": "徳島県美馬市美馬町（家ノ前、大池、大上、大北、大佐古、大前、岡ノ内、押上、茅原、"}, {"postal_code": "7712102", "postal_hyphen": "771-2102", "pref": "徳島県", "city": "美馬市", "town": "川ノ上、観音、栗林、黒砂、狙ケ内、猿坂、下白地、白地、炭釜、芹佐古、惣後、", "full": "徳島県美馬市川ノ上、観音、栗林、黒砂、狙ケ内、猿坂、下白地、白地、炭釜、芹佐古、惣後、"}, {"postal_code": "7712102", "postal_hyphen": "771-2102", "pref": "徳島県", "city": "美馬市", "town": "惣田、外墓、滝ノ上、立見山、田ノ岡、狙坂、中岡、中野田ノ井、中横尾、長地、", "full": "徳島県美馬市惣田、外墓、滝ノ上、立見山、田ノ岡、狙坂、中岡、中野田ノ井、中横尾、長地、"}, {"postal_code": "7712102", "postal_hyphen": "771-2102", "pref": "徳島県", "city": "美馬市", "town": "西浦、西ノ谷、野田ノ井、橋谷、場シ所、東筋、平尾、平野、藤宇、前坂、", "full": "徳島県美馬市西浦、西ノ谷、野田ノ井、橋谷、場シ所、東筋、平尾、平野、藤宇、前坂、"}, {"postal_code": "7712102", "postal_hyphen": "771-2102", "pref": "徳島県", "city": "美馬市", "town": "水ノ岡、味噌ケ久保、道ノ上、宮ノ岡、南畠、薬師ケ久保、山西屋敷、", "full": "徳島県美馬市水ノ岡、味噌ケ久保、道ノ上、宮ノ岡、南畠、薬師ケ久保、山西屋敷、"}, {"postal_code": "7712102", "postal_hyphen": "771-2102", "pref": "徳島県", "city": "美馬市", "town": "山橋谷、横尾）", "full": "徳島県美馬市山橋谷、横尾）"}, {"postal_code": "7712105", "postal_hyphen": "771-2105", "pref": "徳島県", "city": "美馬市", "town": "美馬町（池ノ浦、銀杏木、梅ケ久保、駅、蛭子、柿木、鍵掛、願勝寺、", "full": "徳島県美馬市美馬町（池ノ浦、銀杏木、梅ケ久保、駅、蛭子、柿木、鍵掛、願勝寺、"}, {"postal_code": "7712105", "postal_hyphen": "771-2105", "pref": "徳島県", "city": "美馬市", "town": "北土ケ久保、喜入道、滝宮、土ケ久保、西段、宮東、宮西、宮南、養泉）", "full": "徳島県美馬市北土ケ久保、喜入道、滝宮、土ケ久保、西段、宮東、宮西、宮南、養泉）"}, {"postal_code": "7712103", "postal_hyphen": "771-2103", "pref": "徳島県", "city": "美馬市", "town": "美馬町（一ノ宮、後谷、倉尾、三頭山、下後谷、高惣、谷尻、", "full": "徳島県美馬市美馬町（一ノ宮、後谷、倉尾、三頭山、下後谷、高惣、谷尻、"}, {"postal_code": "7712103", "postal_hyphen": "771-2103", "pref": "徳島県", "city": "美馬市", "town": "露口、中沼田、中野、夏弥喜、ナロヲ、西大久保、西沼田、沼田、八ノ坪、", "full": "徳島県美馬市露口、中沼田、中野、夏弥喜、ナロヲ、西大久保、西沼田、沼田、八ノ坪、"}, {"postal_code": "7712103", "postal_hyphen": "771-2103", "pref": "徳島県", "city": "美馬市", "town": "坊ケ谷、水久保、宗ノ分、屋内）", "full": "徳島県美馬市坊ケ谷、水久保、宗ノ分、屋内）"}, {"postal_code": "7712101", "postal_hyphen": "771-2101", "pref": "徳島県", "city": "美馬市", "town": "美馬町（入倉、大久保、切久保、正部、丈寄、清田）", "full": "徳島県美馬市美馬町（入倉、大久保、切久保、正部、丈寄、清田）"}, {"postal_code": "7712104", "postal_hyphen": "771-2104", "pref": "徳島県", "city": "美馬市", "town": "美馬町（鵜飼口、岡、小長谷、小長谷端、笠仏、川縁、荒神、助松、高畑、辰角、", "full": "徳島県美馬市美馬町（鵜飼口、岡、小長谷、小長谷端、笠仏、川縁、荒神、助松、高畑、辰角、"}, {"postal_code": "7712104", "postal_hyphen": "771-2104", "pref": "徳島県", "city": "美馬市", "town": "谷頭、玉振前、チゲジ、天神東、轟、中黒、中須、中道北、中道南、ノツゴ、", "full": "徳島県美馬市谷頭、玉振前、チゲジ、天神東、轟、中黒、中須、中道北、中道南、ノツゴ、"}, {"postal_code": "7712104", "postal_hyphen": "771-2104", "pref": "徳島県", "city": "美馬市", "town": "ノリコヘ、橋本、東岸ノ下、東段、東宗重、坊僧、丸山、南原、明神原、", "full": "徳島県美馬市ノリコヘ、橋本、東岸ノ下、東段、東宗重、坊僧、丸山、南原、明神原、"}, {"postal_code": "7712104", "postal_hyphen": "771-2104", "pref": "徳島県", "city": "美馬市", "town": "宗重、薬師）", "full": "徳島県美馬市宗重、薬師）"}, {"postal_code": "7793604", "postal_hyphen": "779-3604", "pref": "徳島県", "city": "美馬市", "town": "脇町猪尻（古作）", "full": "徳島県美馬市脇町猪尻（古作）"}, {"postal_code": "7793603", "postal_hyphen": "779-3603", "pref": "徳島県", "city": "美馬市", "town": "脇町猪尻（庄、土井、西上野）", "full": "徳島県美馬市脇町猪尻（庄、土井、西上野）"}, {"postal_code": "7793602", "postal_hyphen": "779-3602", "pref": "徳島県", "city": "美馬市", "town": "脇町猪尻（その他）", "full": "徳島県美馬市脇町猪尻（その他）"}, {"postal_code": "7793620", "postal_hyphen": "779-3620", "pref": "徳島県", "city": "美馬市", "town": "脇町岩倉", "full": "徳島県美馬市脇町岩倉"}, {"postal_code": "7793620", "postal_hyphen": "779-3620", "pref": "徳島県", "city": "美馬市", "town": "脇町上ノ原", "full": "徳島県美馬市脇町上ノ原"}, {"postal_code": "7793620", "postal_hyphen": "779-3620", "pref": "徳島県", "city": "美馬市", "town": "脇町馬木", "full": "徳島県美馬市脇町馬木"}, {"postal_code": "7793610", "postal_hyphen": "779-3610", "pref": "徳島県", "city": "美馬市", "town": "脇町脇町", "full": "徳島県美馬市脇町脇町"}, {"postal_code": "7793620", "postal_hyphen": "779-3620", "pref": "徳島県", "city": "美馬市", "town": "脇町川原町", "full": "徳島県美馬市脇町川原町"}, {"postal_code": "7793620", "postal_hyphen": "779-3620", "pref": "徳島県", "city": "美馬市", "town": "脇町木ノ内", "full": "徳島県美馬市脇町木ノ内"}, {"postal_code": "7793620", "postal_hyphen": "779-3620", "pref": "徳島県", "city": "美馬市", "town": "脇町新町", "full": "徳島県美馬市脇町新町"}, {"postal_code": "7793620", "postal_hyphen": "779-3620", "pref": "徳島県", "city": "美馬市", "town": "脇町助松", "full": "徳島県美馬市脇町助松"}, {"postal_code": "7793620", "postal_hyphen": "779-3620", "pref": "徳島県", "city": "美馬市", "town": "脇町田上", "full": "徳島県美馬市脇町田上"}, {"postal_code": "7793620", "postal_hyphen": "779-3620", "pref": "徳島県", "city": "美馬市", "town": "脇町野村", "full": "徳島県美馬市脇町野村"}, {"postal_code": "7793620", "postal_hyphen": "779-3620", "pref": "徳島県", "city": "美馬市", "town": "脇町別所", "full": "徳島県美馬市脇町別所"}, {"postal_code": "7793633", "postal_hyphen": "779-3633", "pref": "徳島県", "city": "美馬市", "town": "脇町（井口）", "full": "徳島県美馬市脇町（井口）"}, {"postal_code": "7793632", "postal_hyphen": "779-3632", "pref": "徳島県", "city": "美馬市", "town": "脇町（井口東、上ノ原）", "full": "徳島県美馬市脇町（井口東、上ノ原）"}, {"postal_code": "7793636", "postal_hyphen": "779-3636", "pref": "徳島県", "city": "美馬市", "town": "脇町（芋穴、中八）", "full": "徳島県美馬市脇町（芋穴、中八）"}, {"postal_code": "7793639", "postal_hyphen": "779-3639", "pref": "徳島県", "city": "美馬市", "town": "脇町（芋尻、小丸、白木、段、段名、中段、羽出床）", "full": "徳島県美馬市脇町（芋尻、小丸、白木、段、段名、中段、羽出床）"}, {"postal_code": "7793638", "postal_hyphen": "779-3638", "pref": "徳島県", "city": "美馬市", "town": "脇町（神楽田、西大谷、東大谷）", "full": "徳島県美馬市脇町（神楽田、西大谷、東大谷）"}, {"postal_code": "7793637", "postal_hyphen": "779-3637", "pref": "徳島県", "city": "美馬市", "town": "脇町（上中野、下中野、平帽子、舟木）", "full": "徳島県美馬市脇町（上中野、下中野、平帽子、舟木）"}, {"postal_code": "7793635", "postal_hyphen": "779-3635", "pref": "徳島県", "city": "美馬市", "town": "脇町（川原柴、暮畑、梨子木、横倉）", "full": "徳島県美馬市脇町（川原柴、暮畑、梨子木、横倉）"}, {"postal_code": "7793604", "postal_hyphen": "779-3604", "pref": "徳島県", "city": "美馬市", "town": "脇町（北庄）", "full": "徳島県美馬市脇町（北庄）"}, {"postal_code": "7793625", "postal_hyphen": "779-3625", "pref": "徳島県", "city": "美馬市", "town": "脇町（北星）", "full": "徳島県美馬市脇町（北星）"}, {"postal_code": "7793634", "postal_hyphen": "779-3634", "pref": "徳島県", "city": "美馬市", "town": "脇町（小星）", "full": "徳島県美馬市脇町（小星）"}, {"postal_code": "7793631", "postal_hyphen": "779-3631", "pref": "徳島県", "city": "美馬市", "town": "脇町（新山）", "full": "徳島県美馬市脇町（新山）"}, {"postal_code": "7793741", "postal_hyphen": "779-3741", "pref": "徳島県", "city": "美馬市", "town": "脇町（曽江名）", "full": "徳島県美馬市脇町（曽江名）"}, {"postal_code": "7793742", "postal_hyphen": "779-3742", "pref": "徳島県", "city": "美馬市", "town": "脇町（西赤谷）", "full": "徳島県美馬市脇町（西赤谷）"}, {"postal_code": "7793744", "postal_hyphen": "779-3744", "pref": "徳島県", "city": "美馬市", "town": "脇町（西俣名）", "full": "徳島県美馬市脇町（西俣名）"}, {"postal_code": "7793601", "postal_hyphen": "779-3601", "pref": "徳島県", "city": "美馬市", "town": "脇町（拝原）", "full": "徳島県美馬市脇町（拝原）"}, {"postal_code": "7793743", "postal_hyphen": "779-3743", "pref": "徳島県", "city": "美馬市", "town": "脇町（東赤谷名）", "full": "徳島県美馬市脇町（東赤谷名）"}, {"postal_code": "7793745", "postal_hyphen": "779-3745", "pref": "徳島県", "city": "美馬市", "town": "脇町（東俣名）", "full": "徳島県美馬市脇町（東俣名）"}, {"postal_code": "7780000", "postal_hyphen": "778-0000", "pref": "徳島県", "city": "三好市", "town": "", "full": "徳島県三好市"}, {"postal_code": "7794801", "postal_hyphen": "779-4801", "pref": "徳島県", "city": "三好市", "town": "井川町旭町", "full": "徳島県三好市井川町旭町"}, {"postal_code": "7794805", "postal_hyphen": "779-4805", "pref": "徳島県", "city": "三好市", "town": "井川町井内西", "full": "徳島県三好市井川町井内西"}, {"postal_code": "7794804", "postal_hyphen": "779-4804", "pref": "徳島県", "city": "三好市", "town": "井川町井内東", "full": "徳島県三好市井川町井内東"}, {"postal_code": "7794802", "postal_hyphen": "779-4802", "pref": "徳島県", "city": "三好市", "town": "井川町井関", "full": "徳島県三好市井川町井関"}, {"postal_code": "7794801", "postal_hyphen": "779-4801", "pref": "徳島県", "city": "三好市", "town": "井川町大佐古", "full": "徳島県三好市井川町大佐古"}, {"postal_code": "7794802", "postal_hyphen": "779-4802", "pref": "徳島県", "city": "三好市", "town": "井川町岡野前", "full": "徳島県三好市井川町岡野前"}, {"postal_code": "7794801", "postal_hyphen": "779-4801", "pref": "徳島県", "city": "三好市", "town": "井川町片山", "full": "徳島県三好市井川町片山"}, {"postal_code": "7794802", "postal_hyphen": "779-4802", "pref": "徳島県", "city": "三好市", "town": "井川町御領田", "full": "徳島県三好市井川町御領田"}, {"postal_code": "7794801", "postal_hyphen": "779-4801", "pref": "徳島県", "city": "三好市", "town": "井川町才長谷", "full": "徳島県三好市井川町才長谷"}, {"postal_code": "7794807", "postal_hyphen": "779-4807", "pref": "徳島県", "city": "三好市", "town": "井川町里川", "full": "徳島県三好市井川町里川"}, {"postal_code": "7794803", "postal_hyphen": "779-4803", "pref": "徳島県", "city": "三好市", "town": "井川町島", "full": "徳島県三好市井川町島"}, {"postal_code": "7794801", "postal_hyphen": "779-4801", "pref": "徳島県", "city": "三好市", "town": "井川町新町", "full": "徳島県三好市井川町新町"}, {"postal_code": "7794803", "postal_hyphen": "779-4803", "pref": "徳島県", "city": "三好市", "town": "井川町タクミ田", "full": "徳島県三好市井川町タクミ田"}, {"postal_code": "7794803", "postal_hyphen": "779-4803", "pref": "徳島県", "city": "三好市", "town": "井川町田中", "full": "徳島県三好市井川町田中"}, {"postal_code": "7794801", "postal_hyphen": "779-4801", "pref": "徳島県", "city": "三好市", "town": "井川町辻", "full": "徳島県三好市井川町辻"}, {"postal_code": "7794803", "postal_hyphen": "779-4803", "pref": "徳島県", "city": "三好市", "town": "井川町中岡", "full": "徳島県三好市井川町中岡"}, {"postal_code": "7794801", "postal_hyphen": "779-4801", "pref": "徳島県", "city": "三好市", "town": "井川町仲ノ町", "full": "徳島県三好市井川町仲ノ町"}, {"postal_code": "7794803", "postal_hyphen": "779-4803", "pref": "徳島県", "city": "三好市", "town": "井川町中村西", "full": "徳島県三好市井川町中村西"}, {"postal_code": "7794803", "postal_hyphen": "779-4803", "pref": "徳島県", "city": "三好市", "town": "井川町中村東", "full": "徳島県三好市井川町中村東"}, {"postal_code": "7794803", "postal_hyphen": "779-4803", "pref": "徳島県", "city": "三好市", "town": "井川町中村南", "full": "徳島県三好市井川町中村南"}, {"postal_code": "7794802", "postal_hyphen": "779-4802", "pref": "徳島県", "city": "三好市", "town": "井川町流堂", "full": "徳島県三好市井川町流堂"}, {"postal_code": "7794806", "postal_hyphen": "779-4806", "pref": "徳島県", "city": "三好市", "town": "井川町西井川", "full": "徳島県三好市井川町西井川"}, {"postal_code": "7794802", "postal_hyphen": "779-4802", "pref": "徳島県", "city": "三好市", "town": "井川町野津後", "full": "徳島県三好市井川町野津後"}, {"postal_code": "7794803", "postal_hyphen": "779-4803", "pref": "徳島県", "city": "三好市", "town": "井川町野津後流", "full": "徳島県三好市井川町野津後流"}, {"postal_code": "7794803", "postal_hyphen": "779-4803", "pref": "徳島県", "city": "三好市", "town": "井川町八幡", "full": "徳島県三好市井川町八幡"}, {"postal_code": "7794801", "postal_hyphen": "779-4801", "pref": "徳島県", "city": "三好市", "town": "井川町浜西", "full": "徳島県三好市井川町浜西"}, {"postal_code": "7794801", "postal_hyphen": "779-4801", "pref": "徳島県", "city": "三好市", "town": "井川町浜東", "full": "徳島県三好市井川町浜東"}, {"postal_code": "7794801", "postal_hyphen": "779-4801", "pref": "徳島県", "city": "三好市", "town": "井川町本町", "full": "徳島県三好市井川町本町"}, {"postal_code": "7794802", "postal_hyphen": "779-4802", "pref": "徳島県", "city": "三好市", "town": "井川町向坂", "full": "徳島県三好市井川町向坂"}, {"postal_code": "7794803", "postal_hyphen": "779-4803", "pref": "徳島県", "city": "三好市", "town": "井川町吉岡", "full": "徳島県三好市井川町吉岡"}, {"postal_code": "7780012", "postal_hyphen": "778-0012", "pref": "徳島県", "city": "三好市", "town": "池田町イケミナミ", "full": "徳島県三好市池田町イケミナミ"}, {"postal_code": "7780014", "postal_hyphen": "778-0014", "pref": "徳島県", "city": "三好市", "town": "池田町イタノ", "full": "徳島県三好市池田町イタノ"}, {"postal_code": "7780001", "postal_hyphen": "778-0001", "pref": "徳島県", "city": "三好市", "town": "池田町ウエノ", "full": "徳島県三好市池田町ウエノ"}, {"postal_code": "7780010", "postal_hyphen": "778-0010", "pref": "徳島県", "city": "三好市", "town": "池田町ウエマツ", "full": "徳島県三好市池田町ウエマツ"}, {"postal_code": "7785252", "postal_hyphen": "778-5252", "pref": "徳島県", "city": "三好市", "town": "池田町馬路", "full": "徳島県三好市池田町馬路"}, {"postal_code": "7795164", "postal_hyphen": "779-5164", "pref": "徳島県", "city": "三好市", "town": "池田町大利", "full": "徳島県三好市池田町大利"}, {"postal_code": "7795166", "postal_hyphen": "779-5166", "pref": "徳島県", "city": "三好市", "town": "池田町川崎", "full": "徳島県三好市池田町川崎"}, {"postal_code": "7780008", "postal_hyphen": "778-0008", "pref": "徳島県", "city": "三好市", "town": "池田町クヤウジ", "full": "徳島県三好市池田町クヤウジ"}, {"postal_code": "7785253", "postal_hyphen": "778-5253", "pref": "徳島県", "city": "三好市", "town": "池田町佐野", "full": "徳島県三好市池田町佐野"}, {"postal_code": "7780003", "postal_hyphen": "778-0003", "pref": "徳島県", "city": "三好市", "town": "池田町サラダ", "full": "徳島県三好市池田町サラダ"}, {"postal_code": "7795162", "postal_hyphen": "779-5162", "pref": "徳島県", "city": "三好市", "town": "池田町漆川", "full": "徳島県三好市池田町漆川"}, {"postal_code": "7780005", "postal_hyphen": "778-0005", "pref": "徳島県", "city": "三好市", "town": "池田町シマ", "full": "徳島県三好市池田町シマ"}, {"postal_code": "7780020", "postal_hyphen": "778-0020", "pref": "徳島県", "city": "三好市", "town": "池田町州津", "full": "徳島県三好市池田町州津"}, {"postal_code": "7780004", "postal_hyphen": "778-0004", "pref": "徳島県", "city": "三好市", "town": "池田町シンマチ", "full": "徳島県三好市池田町シンマチ"}, {"postal_code": "7780013", "postal_hyphen": "778-0013", "pref": "徳島県", "city": "三好市", "town": "池田町シンヤマ", "full": "徳島県三好市池田町シンヤマ"}, {"postal_code": "7780006", "postal_hyphen": "778-0006", "pref": "徳島県", "city": "三好市", "town": "池田町トウゲ", "full": "徳島県三好市池田町トウゲ"}, {"postal_code": "7795163", "postal_hyphen": "779-5163", "pref": "徳島県", "city": "三好市", "town": "池田町中津川", "full": "徳島県三好市池田町中津川"}, {"postal_code": "7795161", "postal_hyphen": "779-5161", "pref": "徳島県", "city": "三好市", "town": "池田町中西", "full": "徳島県三好市池田町中西"}, {"postal_code": "7780031", "postal_hyphen": "778-0031", "pref": "徳島県", "city": "三好市", "town": "池田町西山（上久保）", "full": "徳島県三好市池田町西山（上久保）"}, {"postal_code": "7780031", "postal_hyphen": "778-0031", "pref": "徳島県", "city": "三好市", "town": "池田町西山（落）", "full": "徳島県三好市池田町西山（落）"}, {"postal_code": "7780032", "postal_hyphen": "778-0032", "pref": "徳島県", "city": "三好市", "town": "池田町西山（蔭）", "full": "徳島県三好市池田町西山（蔭）"}, {"postal_code": "7780032", "postal_hyphen": "778-0032", "pref": "徳島県", "city": "三好市", "town": "池田町西山（樫ノ下）", "full": "徳島県三好市池田町西山（樫ノ下）"}, {"postal_code": "7780031", "postal_hyphen": "778-0031", "pref": "徳島県", "city": "三好市", "town": "池田町西山（上中尾）", "full": "徳島県三好市池田町西山（上中尾）"}, {"postal_code": "7780032", "postal_hyphen": "778-0032", "pref": "徳島県", "city": "三好市", "town": "池田町西山（岸ノ上）", "full": "徳島県三好市池田町西山（岸ノ上）"}, {"postal_code": "7780032", "postal_hyphen": "778-0032", "pref": "徳島県", "city": "三好市", "town": "池田町西山（込野）", "full": "徳島県三好市池田町西山（込野）"}, {"postal_code": "7780032", "postal_hyphen": "778-0032", "pref": "徳島県", "city": "三好市", "town": "池田町西山（下ノ浦）", "full": "徳島県三好市池田町西山（下ノ浦）"}, {"postal_code": "7780031", "postal_hyphen": "778-0031", "pref": "徳島県", "city": "三好市", "town": "池田町西山（谷浦）", "full": "徳島県三好市池田町西山（谷浦）"}, {"postal_code": "7780032", "postal_hyphen": "778-0032", "pref": "徳島県", "city": "三好市", "town": "池田町西山（乳ノ木）", "full": "徳島県三好市池田町西山（乳ノ木）"}, {"postal_code": "7780032", "postal_hyphen": "778-0032", "pref": "徳島県", "city": "三好市", "town": "池田町西山（乳ノ木道北）", "full": "徳島県三好市池田町西山（乳ノ木道北）"}, {"postal_code": "7780031", "postal_hyphen": "778-0031", "pref": "徳島県", "city": "三好市", "town": "池田町西山（津寺）", "full": "徳島県三好市池田町西山（津寺）"}, {"postal_code": "7780031", "postal_hyphen": "778-0031", "pref": "徳島県", "city": "三好市", "town": "池田町西山（坪尻）", "full": "徳島県三好市池田町西山（坪尻）"}, {"postal_code": "7780031", "postal_hyphen": "778-0031", "pref": "徳島県", "city": "三好市", "town": "池田町西山（中尾）", "full": "徳島県三好市池田町西山（中尾）"}, {"postal_code": "7780032", "postal_hyphen": "778-0032", "pref": "徳島県", "city": "三好市", "town": "池田町西山（中塚）", "full": "徳島県三好市池田町西山（中塚）"}, {"postal_code": "7780032", "postal_hyphen": "778-0032", "pref": "徳島県", "city": "三好市", "town": "池田町西山（西谷）", "full": "徳島県三好市池田町西山（西谷）"}, {"postal_code": "7780031", "postal_hyphen": "778-0031", "pref": "徳島県", "city": "三好市", "town": "池田町西山（西ノ岡）", "full": "徳島県三好市池田町西山（西ノ岡）"}, {"postal_code": "7780032", "postal_hyphen": "778-0032", "pref": "徳島県", "city": "三好市", "town": "池田町西山（登リ尾）", "full": "徳島県三好市池田町西山（登リ尾）"}, {"postal_code": "7780031", "postal_hyphen": "778-0031", "pref": "徳島県", "city": "三好市", "town": "池田町西山（船原）", "full": "徳島県三好市池田町西山（船原）"}, {"postal_code": "7780032", "postal_hyphen": "778-0032", "pref": "徳島県", "city": "三好市", "town": "池田町西山（宮ノ西）", "full": "徳島県三好市池田町西山（宮ノ西）"}, {"postal_code": "7780032", "postal_hyphen": "778-0032", "pref": "徳島県", "city": "三好市", "town": "池田町西山（宮ノ東）", "full": "徳島県三好市池田町西山（宮ノ東）"}, {"postal_code": "7780031", "postal_hyphen": "778-0031", "pref": "徳島県", "city": "三好市", "town": "池田町西山（横佐古）", "full": "徳島県三好市池田町西山（横佐古）"}, {"postal_code": "7780040", "postal_hyphen": "778-0040", "pref": "徳島県", "city": "三好市", "town": "池田町西山（その他）", "full": "徳島県三好市池田町西山（その他）"}, {"postal_code": "7785251", "postal_hyphen": "778-5251", "pref": "徳島県", "city": "三好市", "town": "池田町白地", "full": "徳島県三好市池田町白地"}, {"postal_code": "7780011", "postal_hyphen": "778-0011", "pref": "徳島県", "city": "三好市", "town": "池田町ハヤシ", "full": "徳島県三好市池田町ハヤシ"}, {"postal_code": "7780002", "postal_hyphen": "778-0002", "pref": "徳島県", "city": "三好市", "town": "池田町マチ", "full": "徳島県三好市池田町マチ"}, {"postal_code": "7780165", "postal_hyphen": "778-0165", "pref": "徳島県", "city": "三好市", "town": "池田町松尾（祖谷温泉、松本３６７−２番地）", "full": "徳島県三好市池田町松尾（祖谷温泉、松本３６７−２番地）"}, {"postal_code": "7795165", "postal_hyphen": "779-5165", "pref": "徳島県", "city": "三好市", "town": "池田町松尾（その他）", "full": "徳島県三好市池田町松尾（その他）"}, {"postal_code": "7780009", "postal_hyphen": "778-0009", "pref": "徳島県", "city": "三好市", "town": "池田町ヤサン", "full": "徳島県三好市池田町ヤサン"}, {"postal_code": "7780007", "postal_hyphen": "778-0007", "pref": "徳島県", "city": "三好市", "town": "池田町ヤマダ", "full": "徳島県三好市池田町ヤマダ"}, {"postal_code": "7780104", "postal_hyphen": "778-0104", "pref": "徳島県", "city": "三好市", "town": "西祖谷山村吾橋", "full": "徳島県三好市西祖谷山村吾橋"}, {"postal_code": "7780103", "postal_hyphen": "778-0103", "pref": "徳島県", "city": "三好市", "town": "西祖谷山村有瀬", "full": "徳島県三好市西祖谷山村有瀬"}, {"postal_code": "7780101", "postal_hyphen": "778-0101", "pref": "徳島県", "city": "三好市", "town": "西祖谷山村一宇", "full": "徳島県三好市西祖谷山村一宇"}, {"postal_code": "7780102", "postal_hyphen": "778-0102", "pref": "徳島県", "city": "三好市", "town": "西祖谷山村今久保", "full": "徳島県三好市西祖谷山村今久保"}, {"postal_code": "7780105", "postal_hyphen": "778-0105", "pref": "徳島県", "city": "三好市", "town": "西祖谷山村後山", "full": "徳島県三好市西祖谷山村後山"}, {"postal_code": "7780105", "postal_hyphen": "778-0105", "pref": "徳島県", "city": "三好市", "town": "西祖谷山村後山西", "full": "徳島県三好市西祖谷山村後山西"}, {"postal_code": "7780105", "postal_hyphen": "778-0105", "pref": "徳島県", "city": "三好市", "town": "西祖谷山村後山向", "full": "徳島県三好市西祖谷山村後山向"}, {"postal_code": "7780104", "postal_hyphen": "778-0104", "pref": "徳島県", "city": "三好市", "town": "西祖谷山村榎", "full": "徳島県三好市西祖谷山村榎"}, {"postal_code": "7780101", "postal_hyphen": "778-0101", "pref": "徳島県", "city": "三好市", "town": "西祖谷山村尾井ノ内", "full": "徳島県三好市西祖谷山村尾井ノ内"}, {"postal_code": "7795172", "postal_hyphen": "779-5172", "pref": "徳島県", "city": "三好市", "town": "西祖谷山村小祖谷", "full": "徳島県三好市西祖谷山村小祖谷"}, {"postal_code": "7780104", "postal_hyphen": "778-0104", "pref": "徳島県", "city": "三好市", "town": "西祖谷山村上吾橋", "full": "徳島県三好市西祖谷山村上吾橋"}, {"postal_code": "7780102", "postal_hyphen": "778-0102", "pref": "徳島県", "city": "三好市", "town": "西祖谷山村閑定", "full": "徳島県三好市西祖谷山村閑定"}, {"postal_code": "7795173", "postal_hyphen": "779-5173", "pref": "徳島県", "city": "三好市", "town": "西祖谷山村坂瀬", "full": "徳島県三好市西祖谷山村坂瀬"}, {"postal_code": "7780101", "postal_hyphen": "778-0101", "pref": "徳島県", "city": "三好市", "town": "西祖谷山村重末", "full": "徳島県三好市西祖谷山村重末"}, {"postal_code": "7780104", "postal_hyphen": "778-0104", "pref": "徳島県", "city": "三好市", "town": "西祖谷山村下吾橋", "full": "徳島県三好市西祖谷山村下吾橋"}, {"postal_code": "7795171", "postal_hyphen": "779-5171", "pref": "徳島県", "city": "三好市", "town": "西祖谷山村下名", "full": "徳島県三好市西祖谷山村下名"}, {"postal_code": "7780102", "postal_hyphen": "778-0102", "pref": "徳島県", "city": "三好市", "town": "西祖谷山村善徳", "full": "徳島県三好市西祖谷山村善徳"}, {"postal_code": "7780101", "postal_hyphen": "778-0101", "pref": "徳島県", "city": "三好市", "town": "西祖谷山村田ノ内", "full": "徳島県三好市西祖谷山村田ノ内"}, {"postal_code": "7780104", "postal_hyphen": "778-0104", "pref": "徳島県", "city": "三好市", "town": "西祖谷山村土日浦", "full": "徳島県三好市西祖谷山村土日浦"}, {"postal_code": "7780105", "postal_hyphen": "778-0105", "pref": "徳島県", "city": "三好市", "town": "西祖谷山村徳善", "full": "徳島県三好市西祖谷山村徳善"}, {"postal_code": "7780105", "postal_hyphen": "778-0105", "pref": "徳島県", "city": "三好市", "town": "西祖谷山村徳善北", "full": "徳島県三好市西祖谷山村徳善北"}, {"postal_code": "7780105", "postal_hyphen": "778-0105", "pref": "徳島県", "city": "三好市", "town": "西祖谷山村徳善西", "full": "徳島県三好市西祖谷山村徳善西"}, {"postal_code": "7780101", "postal_hyphen": "778-0101", "pref": "徳島県", "city": "三好市", "town": "西祖谷山村戸ノ谷", "full": "徳島県三好市西祖谷山村戸ノ谷"}, {"postal_code": "7780102", "postal_hyphen": "778-0102", "pref": "徳島県", "city": "三好市", "town": "西祖谷山村中尾", "full": "徳島県三好市西祖谷山村中尾"}, {"postal_code": "7780105", "postal_hyphen": "778-0105", "pref": "徳島県", "city": "三好市", "town": "西祖谷山村西岡", "full": "徳島県三好市西祖谷山村西岡"}, {"postal_code": "7780101", "postal_hyphen": "778-0101", "pref": "徳島県", "city": "三好市", "town": "西祖谷山村眠谷", "full": "徳島県三好市西祖谷山村眠谷"}, {"postal_code": "7780105", "postal_hyphen": "778-0105", "pref": "徳島県", "city": "三好市", "town": "西祖谷山村東西岡", "full": "徳島県三好市西祖谷山村東西岡"}, {"postal_code": "7780104", "postal_hyphen": "778-0104", "pref": "徳島県", "city": "三好市", "town": "西祖谷山村東山", "full": "徳島県三好市西祖谷山村東山"}, {"postal_code": "7780104", "postal_hyphen": "778-0104", "pref": "徳島県", "city": "三好市", "town": "西祖谷山村南山", "full": "徳島県三好市西祖谷山村南山"}, {"postal_code": "7780101", "postal_hyphen": "778-0101", "pref": "徳島県", "city": "三好市", "town": "西祖谷山村冥地", "full": "徳島県三好市西祖谷山村冥地"}, {"postal_code": "7780205", "postal_hyphen": "778-0205", "pref": "徳島県", "city": "三好市", "town": "東祖谷阿佐", "full": "徳島県三好市東祖谷阿佐"}, {"postal_code": "7780206", "postal_hyphen": "778-0206", "pref": "徳島県", "city": "三好市", "town": "東祖谷今井", "full": "徳島県三好市東祖谷今井"}, {"postal_code": "7780204", "postal_hyphen": "778-0204", "pref": "徳島県", "city": "三好市", "town": "東祖谷大枝", "full": "徳島県三好市東祖谷大枝"}, {"postal_code": "7780204", "postal_hyphen": "778-0204", "pref": "徳島県", "city": "三好市", "town": "東祖谷大西", "full": "徳島県三好市東祖谷大西"}, {"postal_code": "7780205", "postal_hyphen": "778-0205", "pref": "徳島県", "city": "三好市", "town": "東祖谷小川", "full": "徳島県三好市東祖谷小川"}, {"postal_code": "7780203", "postal_hyphen": "778-0203", "pref": "徳島県", "city": "三好市", "town": "東祖谷奥の井", "full": "徳島県三好市東祖谷奥の井"}, {"postal_code": "7780206", "postal_hyphen": "778-0206", "pref": "徳島県", "city": "三好市", "town": "東祖谷小島", "full": "徳島県三好市東祖谷小島"}, {"postal_code": "7780202", "postal_hyphen": "778-0202", "pref": "徳島県", "city": "三好市", "town": "東祖谷落合", "full": "徳島県三好市東祖谷落合"}, {"postal_code": "7780205", "postal_hyphen": "778-0205", "pref": "徳島県", "city": "三好市", "town": "東祖谷樫尾", "full": "徳島県三好市東祖谷樫尾"}, {"postal_code": "7780203", "postal_hyphen": "778-0203", "pref": "徳島県", "city": "三好市", "town": "東祖谷釜ケ谷", "full": "徳島県三好市東祖谷釜ケ谷"}, {"postal_code": "7780204", "postal_hyphen": "778-0204", "pref": "徳島県", "city": "三好市", "town": "東祖谷京上", "full": "徳島県三好市東祖谷京上"}, {"postal_code": "7780203", "postal_hyphen": "778-0203", "pref": "徳島県", "city": "三好市", "town": "東祖谷九鬼", "full": "徳島県三好市東祖谷九鬼"}, {"postal_code": "7780202", "postal_hyphen": "778-0202", "pref": "徳島県", "city": "三好市", "town": "東祖谷久保", "full": "徳島県三好市東祖谷久保"}, {"postal_code": "7780203", "postal_hyphen": "778-0203", "pref": "徳島県", "city": "三好市", "town": "東祖谷栗枝渡", "full": "徳島県三好市東祖谷栗枝渡"}, {"postal_code": "7780205", "postal_hyphen": "778-0205", "pref": "徳島県", "city": "三好市", "town": "東祖谷古味", "full": "徳島県三好市東祖谷古味"}, {"postal_code": "7780206", "postal_hyphen": "778-0206", "pref": "徳島県", "city": "三好市", "town": "東祖谷佐野", "full": "徳島県三好市東祖谷佐野"}, {"postal_code": "7780203", "postal_hyphen": "778-0203", "pref": "徳島県", "city": "三好市", "town": "東祖谷下瀬", "full": "徳島県三好市東祖谷下瀬"}, {"postal_code": "7780201", "postal_hyphen": "778-0201", "pref": "徳島県", "city": "三好市", "town": "東祖谷菅生", "full": "徳島県三好市東祖谷菅生"}, {"postal_code": "7780206", "postal_hyphen": "778-0206", "pref": "徳島県", "city": "三好市", "town": "東祖谷高野", "full": "徳島県三好市東祖谷高野"}, {"postal_code": "7780206", "postal_hyphen": "778-0206", "pref": "徳島県", "city": "三好市", "town": "東祖谷釣井", "full": "徳島県三好市東祖谷釣井"}, {"postal_code": "7780203", "postal_hyphen": "778-0203", "pref": "徳島県", "city": "三好市", "town": "東祖谷中上", "full": "徳島県三好市東祖谷中上"}, {"postal_code": "7780205", "postal_hyphen": "778-0205", "pref": "徳島県", "city": "三好市", "town": "東祖谷新居屋", "full": "徳島県三好市東祖谷新居屋"}, {"postal_code": "7780203", "postal_hyphen": "778-0203", "pref": "徳島県", "city": "三好市", "town": "東祖谷西山", "full": "徳島県三好市東祖谷西山"}, {"postal_code": "7780203", "postal_hyphen": "778-0203", "pref": "徳島県", "city": "三好市", "town": "東祖谷林", "full": "徳島県三好市東祖谷林"}, {"postal_code": "7780201", "postal_hyphen": "778-0201", "pref": "徳島県", "city": "三好市", "town": "東祖谷見ノ越", "full": "徳島県三好市東祖谷見ノ越"}, {"postal_code": "7780205", "postal_hyphen": "778-0205", "pref": "徳島県", "city": "三好市", "town": "東祖谷麦生土", "full": "徳島県三好市東祖谷麦生土"}, {"postal_code": "7780205", "postal_hyphen": "778-0205", "pref": "徳島県", "city": "三好市", "town": "東祖谷元井", "full": "徳島県三好市東祖谷元井"}, {"postal_code": "7780204", "postal_hyphen": "778-0204", "pref": "徳島県", "city": "三好市", "town": "東祖谷若林", "full": "徳島県三好市東祖谷若林"}, {"postal_code": "7780206", "postal_hyphen": "778-0206", "pref": "徳島県", "city": "三好市", "town": "東祖谷和田", "full": "徳島県三好市東祖谷和田"}, {"postal_code": "7712302", "postal_hyphen": "771-2302", "pref": "徳島県", "city": "三好市", "town": "三野町加茂野宮", "full": "徳島県三好市三野町加茂野宮"}, {"postal_code": "7712304", "postal_hyphen": "771-2304", "pref": "徳島県", "city": "三好市", "town": "三野町芝生", "full": "徳島県三好市三野町芝生"}, {"postal_code": "7712301", "postal_hyphen": "771-2301", "pref": "徳島県", "city": "三好市", "town": "三野町清水", "full": "徳島県三好市三野町清水"}, {"postal_code": "7712303", "postal_hyphen": "771-2303", "pref": "徳島県", "city": "三好市", "town": "三野町勢力", "full": "徳島県三好市三野町勢力"}, {"postal_code": "7712305", "postal_hyphen": "771-2305", "pref": "徳島県", "city": "三好市", "town": "三野町太刀野", "full": "徳島県三好市三野町太刀野"}, {"postal_code": "7712306", "postal_hyphen": "771-2306", "pref": "徳島県", "city": "三好市", "town": "三野町太刀野山", "full": "徳島県三好市三野町太刀野山"}, {"postal_code": "7795307", "postal_hyphen": "779-5307", "pref": "徳島県", "city": "三好市", "town": "山城町相川", "full": "徳島県三好市山城町相川"}, {"postal_code": "7795336", "postal_hyphen": "779-5336", "pref": "徳島県", "city": "三好市", "town": "山城町赤谷", "full": "徳島県三好市山城町赤谷"}, {"postal_code": "7795328", "postal_hyphen": "779-5328", "pref": "徳島県", "city": "三好市", "town": "山城町粟山", "full": "徳島県三好市山城町粟山"}, {"postal_code": "7795314", "postal_hyphen": "779-5314", "pref": "徳島県", "city": "三好市", "town": "山城町岩戸", "full": "徳島県三好市山城町岩戸"}, {"postal_code": "7795304", "postal_hyphen": "779-5304", "pref": "徳島県", "city": "三好市", "town": "山城町大川持", "full": "徳島県三好市山城町大川持"}, {"postal_code": "7795342", "postal_hyphen": "779-5342", "pref": "徳島県", "city": "三好市", "town": "山城町大谷", "full": "徳島県三好市山城町大谷"}, {"postal_code": "7795347", "postal_hyphen": "779-5347", "pref": "徳島県", "city": "三好市", "town": "山城町大月", "full": "徳島県三好市山城町大月"}, {"postal_code": "7795333", "postal_hyphen": "779-5333", "pref": "徳島県", "city": "三好市", "town": "山城町大野", "full": "徳島県三好市山城町大野"}, {"postal_code": "7795332", "postal_hyphen": "779-5332", "pref": "徳島県", "city": "三好市", "town": "山城町小川谷", "full": "徳島県三好市山城町小川谷"}, {"postal_code": "7795327", "postal_hyphen": "779-5327", "pref": "徳島県", "city": "三好市", "town": "山城町尾又", "full": "徳島県三好市山城町尾又"}, {"postal_code": "7795452", "postal_hyphen": "779-5452", "pref": "徳島県", "city": "三好市", "town": "山城町上名", "full": "徳島県三好市山城町上名"}, {"postal_code": "7795305", "postal_hyphen": "779-5305", "pref": "徳島県", "city": "三好市", "town": "山城町川口", "full": "徳島県三好市山城町川口"}, {"postal_code": "7795321", "postal_hyphen": "779-5321", "pref": "徳島県", "city": "三好市", "town": "山城町国政", "full": "徳島県三好市山城町国政"}, {"postal_code": "7795313", "postal_hyphen": "779-5313", "pref": "徳島県", "city": "三好市", "town": "山城町黒川", "full": "徳島県三好市山城町黒川"}, {"postal_code": "7785254", "postal_hyphen": "778-5254", "pref": "徳島県", "city": "三好市", "town": "山城町佐連（ミネ畑）", "full": "徳島県三好市山城町佐連（ミネ畑）"}, {"postal_code": "7795341", "postal_hyphen": "779-5341", "pref": "徳島県", "city": "三好市", "town": "山城町佐連（その他）", "full": "徳島県三好市山城町佐連（その他）"}, {"postal_code": "7795422", "postal_hyphen": "779-5422", "pref": "徳島県", "city": "三好市", "town": "山城町重実（殿野）", "full": "徳島県三好市山城町重実（殿野）"}, {"postal_code": "7795322", "postal_hyphen": "779-5322", "pref": "徳島県", "city": "三好市", "town": "山城町重実（その他）", "full": "徳島県三好市山城町重実（その他）"}, {"postal_code": "7795343", "postal_hyphen": "779-5343", "pref": "徳島県", "city": "三好市", "town": "山城町柴川", "full": "徳島県三好市山城町柴川"}, {"postal_code": "7795303", "postal_hyphen": "779-5303", "pref": "徳島県", "city": "三好市", "town": "山城町下川", "full": "徳島県三好市山城町下川"}, {"postal_code": "7795453", "postal_hyphen": "779-5453", "pref": "徳島県", "city": "三好市", "town": "山城町下名", "full": "徳島県三好市山城町下名"}, {"postal_code": "7795324", "postal_hyphen": "779-5324", "pref": "徳島県", "city": "三好市", "town": "山城町白川", "full": "徳島県三好市山城町白川"}, {"postal_code": "7795316", "postal_hyphen": "779-5316", "pref": "徳島県", "city": "三好市", "town": "山城町末貞", "full": "徳島県三好市山城町末貞"}, {"postal_code": "7795345", "postal_hyphen": "779-5345", "pref": "徳島県", "city": "三好市", "town": "山城町瀬貝", "full": "徳島県三好市山城町瀬貝"}, {"postal_code": "7795337", "postal_hyphen": "779-5337", "pref": "徳島県", "city": "三好市", "town": "山城町平野", "full": "徳島県三好市山城町平野"}, {"postal_code": "7795306", "postal_hyphen": "779-5306", "pref": "徳島県", "city": "三好市", "town": "山城町寺野", "full": "徳島県三好市山城町寺野"}, {"postal_code": "7795323", "postal_hyphen": "779-5323", "pref": "徳島県", "city": "三好市", "town": "山城町中野", "full": "徳島県三好市山城町中野"}, {"postal_code": "7795311", "postal_hyphen": "779-5311", "pref": "徳島県", "city": "三好市", "town": "山城町中ノ瀬", "full": "徳島県三好市山城町中ノ瀬"}, {"postal_code": "7795451", "postal_hyphen": "779-5451", "pref": "徳島県", "city": "三好市", "town": "山城町西宇", "full": "徳島県三好市山城町西宇"}, {"postal_code": "7795334", "postal_hyphen": "779-5334", "pref": "徳島県", "city": "三好市", "town": "山城町信正", "full": "徳島県三好市山城町信正"}, {"postal_code": "7795312", "postal_hyphen": "779-5312", "pref": "徳島県", "city": "三好市", "town": "山城町八千坊", "full": "徳島県三好市山城町八千坊"}, {"postal_code": "7795315", "postal_hyphen": "779-5315", "pref": "徳島県", "city": "三好市", "town": "山城町引地", "full": "徳島県三好市山城町引地"}, {"postal_code": "7795326", "postal_hyphen": "779-5326", "pref": "徳島県", "city": "三好市", "town": "山城町仏子", "full": "徳島県三好市山城町仏子"}, {"postal_code": "7795344", "postal_hyphen": "779-5344", "pref": "徳島県", "city": "三好市", "town": "山城町政友", "full": "徳島県三好市山城町政友"}, {"postal_code": "7795325", "postal_hyphen": "779-5325", "pref": "徳島県", "city": "三好市", "town": "山城町光兼", "full": "徳島県三好市山城町光兼"}, {"postal_code": "7795331", "postal_hyphen": "779-5331", "pref": "徳島県", "city": "三好市", "town": "山城町茂地", "full": "徳島県三好市山城町茂地"}, {"postal_code": "7795301", "postal_hyphen": "779-5301", "pref": "徳島県", "city": "三好市", "town": "山城町大和川", "full": "徳島県三好市山城町大和川"}, {"postal_code": "7795335", "postal_hyphen": "779-5335", "pref": "徳島県", "city": "三好市", "town": "山城町頼広", "full": "徳島県三好市山城町頼広"}, {"postal_code": "7795302", "postal_hyphen": "779-5302", "pref": "徳島県", "city": "三好市", "town": "山城町若山", "full": "徳島県三好市山城町若山"}, {"postal_code": "7795346", "postal_hyphen": "779-5346", "pref": "徳島県", "city": "三好市", "town": "山城町脇", "full": "徳島県三好市山城町脇"}, {"postal_code": "7714300", "postal_hyphen": "771-4300", "pref": "徳島県", "city": "勝浦郡勝浦町", "town": "", "full": "徳島県勝浦郡勝浦町"}, {"postal_code": "7714303", "postal_hyphen": "771-4303", "pref": "徳島県", "city": "勝浦郡勝浦町", "town": "生名", "full": "徳島県勝浦郡勝浦町生名"}, {"postal_code": "7714308", "postal_hyphen": "771-4308", "pref": "徳島県", "city": "勝浦郡勝浦町", "town": "坂本", "full": "徳島県勝浦郡勝浦町坂本"}, {"postal_code": "7714306", "postal_hyphen": "771-4306", "pref": "徳島県", "city": "勝浦郡勝浦町", "town": "棚野", "full": "徳島県勝浦郡勝浦町棚野"}, {"postal_code": "7714302", "postal_hyphen": "771-4302", "pref": "徳島県", "city": "勝浦郡勝浦町", "town": "中角", "full": "徳島県勝浦郡勝浦町中角"}, {"postal_code": "7714301", "postal_hyphen": "771-4301", "pref": "徳島県", "city": "勝浦郡勝浦町", "town": "沼江", "full": "徳島県勝浦郡勝浦町沼江"}, {"postal_code": "7714305", "postal_hyphen": "771-4305", "pref": "徳島県", "city": "勝浦郡勝浦町", "town": "久国", "full": "徳島県勝浦郡勝浦町久国"}, {"postal_code": "7714304", "postal_hyphen": "771-4304", "pref": "徳島県", "city": "勝浦郡勝浦町", "town": "星谷", "full": "徳島県勝浦郡勝浦町星谷"}, {"postal_code": "7714307", "postal_hyphen": "771-4307", "pref": "徳島県", "city": "勝浦郡勝浦町", "town": "三渓", "full": "徳島県勝浦郡勝浦町三渓"}, {"postal_code": "7714500", "postal_hyphen": "771-4500", "pref": "徳島県", "city": "勝浦郡上勝町", "town": "", "full": "徳島県勝浦郡上勝町"}, {"postal_code": "7714502", "postal_hyphen": "771-4502", "pref": "徳島県", "city": "勝浦郡上勝町", "town": "旭", "full": "徳島県勝浦郡上勝町旭"}, {"postal_code": "7714503", "postal_hyphen": "771-4503", "pref": "徳島県", "city": "勝浦郡上勝町", "town": "生実", "full": "徳島県勝浦郡上勝町生実"}, {"postal_code": "7714501", "postal_hyphen": "771-4501", "pref": "徳島県", "city": "勝浦郡上勝町", "town": "福原", "full": "徳島県勝浦郡上勝町福原"}, {"postal_code": "7714504", "postal_hyphen": "771-4504", "pref": "徳島県", "city": "勝浦郡上勝町", "town": "傍示", "full": "徳島県勝浦郡上勝町傍示"}, {"postal_code": "7714505", "postal_hyphen": "771-4505", "pref": "徳島県", "city": "勝浦郡上勝町", "town": "正木", "full": "徳島県勝浦郡上勝町正木"}, {"postal_code": "7714100", "postal_hyphen": "771-4100", "pref": "徳島県", "city": "名東郡佐那河内村", "town": "", "full": "徳島県名東郡佐那河内村"}, {"postal_code": "7714102", "postal_hyphen": "771-4102", "pref": "徳島県", "city": "名東郡佐那河内村", "town": "上", "full": "徳島県名東郡佐那河内村上"}, {"postal_code": "7714101", "postal_hyphen": "771-4101", "pref": "徳島県", "city": "名東郡佐那河内村", "town": "下", "full": "徳島県名東郡佐那河内村下"}, {"postal_code": "7793200", "postal_hyphen": "779-3200", "pref": "徳島県", "city": "名西郡石井町", "town": "", "full": "徳島県名西郡石井町"}, {"postal_code": "7793213", "postal_hyphen": "779-3213", "pref": "徳島県", "city": "名西郡石井町", "town": "藍畑（高畑）", "full": "徳島県名西郡石井町藍畑（高畑）"}, {"postal_code": "7793214", "postal_hyphen": "779-3214", "pref": "徳島県", "city": "名西郡石井町", "town": "藍畑（第十）", "full": "徳島県名西郡石井町藍畑（第十）"}, {"postal_code": "7793212", "postal_hyphen": "779-3212", "pref": "徳島県", "city": "名西郡石井町", "town": "藍畑（東覚円）", "full": "徳島県名西郡石井町藍畑（東覚円）"}, {"postal_code": "7793211", "postal_hyphen": "779-3211", "pref": "徳島県", "city": "名西郡石井町", "town": "藍畑（西覚円）", "full": "徳島県名西郡石井町藍畑（西覚円）"}, {"postal_code": "7793215", "postal_hyphen": "779-3215", "pref": "徳島県", "city": "名西郡石井町", "town": "藍畑（竜王）", "full": "徳島県名西郡石井町藍畑（竜王）"}, {"postal_code": "7793233", "postal_hyphen": "779-3233", "pref": "徳島県", "city": "名西郡石井町", "town": "石井（石井）", "full": "徳島県名西郡石井町石井（石井）"}, {"postal_code": "7793236", "postal_hyphen": "779-3236", "pref": "徳島県", "city": "名西郡石井町", "town": "石井（内谷）", "full": "徳島県名西郡石井町石井（内谷）"}, {"postal_code": "7793231", "postal_hyphen": "779-3231", "pref": "徳島県", "city": "名西郡石井町", "town": "石井（重松）", "full": "徳島県名西郡石井町石井（重松）"}, {"postal_code": "7793234", "postal_hyphen": "779-3234", "pref": "徳島県", "city": "名西郡石井町", "town": "石井（白鳥）", "full": "徳島県名西郡石井町石井（白鳥）"}, {"postal_code": "7793232", "postal_hyphen": "779-3232", "pref": "徳島県", "city": "名西郡石井町", "town": "石井（城の内）", "full": "徳島県名西郡石井町石井（城の内）"}, {"postal_code": "7793235", "postal_hyphen": "779-3235", "pref": "徳島県", "city": "名西郡石井町", "town": "石井（尼寺）", "full": "徳島県名西郡石井町石井（尼寺）"}, {"postal_code": "7793245", "postal_hyphen": "779-3245", "pref": "徳島県", "city": "名西郡石井町", "town": "浦庄（上浦）", "full": "徳島県名西郡石井町浦庄（上浦）"}, {"postal_code": "7793242", "postal_hyphen": "779-3242", "pref": "徳島県", "city": "名西郡石井町", "town": "浦庄（国実）", "full": "徳島県名西郡石井町浦庄（国実）"}, {"postal_code": "7793244", "postal_hyphen": "779-3244", "pref": "徳島県", "city": "名西郡石井町", "town": "浦庄（下浦）", "full": "徳島県名西郡石井町浦庄（下浦）"}, {"postal_code": "7793241", "postal_hyphen": "779-3241", "pref": "徳島県", "city": "名西郡石井町", "town": "浦庄（諏訪）", "full": "徳島県名西郡石井町浦庄（諏訪）"}, {"postal_code": "7793243", "postal_hyphen": "779-3243", "pref": "徳島県", "city": "名西郡石井町", "town": "浦庄（大万）", "full": "徳島県名西郡石井町浦庄（大万）"}, {"postal_code": "7793226", "postal_hyphen": "779-3226", "pref": "徳島県", "city": "名西郡石井町", "town": "高川原（市楽）", "full": "徳島県名西郡石井町高川原（市楽）"}, {"postal_code": "7793224", "postal_hyphen": "779-3224", "pref": "徳島県", "city": "名西郡石井町", "town": "高川原（加茂野）", "full": "徳島県名西郡石井町高川原（加茂野）"}, {"postal_code": "7793225", "postal_hyphen": "779-3225", "pref": "徳島県", "city": "名西郡石井町", "town": "高川原（桜間）", "full": "徳島県名西郡石井町高川原（桜間）"}, {"postal_code": "7793223", "postal_hyphen": "779-3223", "pref": "徳島県", "city": "名西郡石井町", "town": "高川原（高川原）", "full": "徳島県名西郡石井町高川原（高川原）"}, {"postal_code": "7793222", "postal_hyphen": "779-3222", "pref": "徳島県", "city": "名西郡石井町", "town": "高川原（天神）", "full": "徳島県名西郡石井町高川原（天神）"}, {"postal_code": "7793221", "postal_hyphen": "779-3221", "pref": "徳島県", "city": "名西郡石井町", "town": "高川原（南島）", "full": "徳島県名西郡石井町高川原（南島）"}, {"postal_code": "7793206", "postal_hyphen": "779-3206", "pref": "徳島県", "city": "名西郡石井町", "town": "高原（池北）", "full": "徳島県名西郡石井町高原（池北）"}, {"postal_code": "7793207", "postal_hyphen": "779-3207", "pref": "徳島県", "city": "名西郡石井町", "town": "高原（桑島）", "full": "徳島県名西郡石井町高原（桑島）"}, {"postal_code": "7793202", "postal_hyphen": "779-3202", "pref": "徳島県", "city": "名西郡石井町", "town": "高原（関）", "full": "徳島県名西郡石井町高原（関）"}, {"postal_code": "7793208", "postal_hyphen": "779-3208", "pref": "徳島県", "city": "名西郡石井町", "town": "高原（中島）", "full": "徳島県名西郡石井町高原（中島）"}, {"postal_code": "7793201", "postal_hyphen": "779-3201", "pref": "徳島県", "city": "名西郡石井町", "town": "高原（中須）", "full": "徳島県名西郡石井町高原（中須）"}, {"postal_code": "7793205", "postal_hyphen": "779-3205", "pref": "徳島県", "city": "名西郡石井町", "town": "高原（東高原）", "full": "徳島県名西郡石井町高原（東高原）"}, {"postal_code": "7793204", "postal_hyphen": "779-3204", "pref": "徳島県", "city": "名西郡石井町", "town": "高原（西高原）", "full": "徳島県名西郡石井町高原（西高原）"}, {"postal_code": "7793203", "postal_hyphen": "779-3203", "pref": "徳島県", "city": "名西郡石井町", "town": "高原（平島）", "full": "徳島県名西郡石井町高原（平島）"}, {"postal_code": "7713200", "postal_hyphen": "771-3200", "pref": "徳島県", "city": "名西郡神山町", "town": "", "full": "徳島県名西郡神山町"}, {"postal_code": "7713202", "postal_hyphen": "771-3202", "pref": "徳島県", "city": "名西郡神山町", "town": "阿野（石堂）", "full": "徳島県名西郡神山町阿野（石堂）"}, {"postal_code": "7713202", "postal_hyphen": "771-3202", "pref": "徳島県", "city": "名西郡神山町", "town": "阿野（井ノ谷）", "full": "徳島県名西郡神山町阿野（井ノ谷）"}, {"postal_code": "7713202", "postal_hyphen": "771-3202", "pref": "徳島県", "city": "名西郡神山町", "town": "阿野（宇度木）", "full": "徳島県名西郡神山町阿野（宇度木）"}, {"postal_code": "7713202", "postal_hyphen": "771-3202", "pref": "徳島県", "city": "名西郡神山町", "town": "阿野（上河内）", "full": "徳島県名西郡神山町阿野（上河内）"}, {"postal_code": "7713202", "postal_hyphen": "771-3202", "pref": "徳島県", "city": "名西郡神山町", "town": "阿野（川平）", "full": "徳島県名西郡神山町阿野（川平）"}, {"postal_code": "7713202", "postal_hyphen": "771-3202", "pref": "徳島県", "city": "名西郡神山町", "town": "阿野（黒木）", "full": "徳島県名西郡神山町阿野（黒木）"}, {"postal_code": "7713202", "postal_hyphen": "771-3202", "pref": "徳島県", "city": "名西郡神山町", "town": "阿野（駒坂）", "full": "徳島県名西郡神山町阿野（駒坂）"}, {"postal_code": "7713202", "postal_hyphen": "771-3202", "pref": "徳島県", "city": "名西郡神山町", "town": "阿野（地ノ平）", "full": "徳島県名西郡神山町阿野（地ノ平）"}, {"postal_code": "7713202", "postal_hyphen": "771-3202", "pref": "徳島県", "city": "名西郡神山町", "town": "阿野（神木）", "full": "徳島県名西郡神山町阿野（神木）"}, {"postal_code": "7713202", "postal_hyphen": "771-3202", "pref": "徳島県", "city": "名西郡神山町", "town": "阿野（須賀）", "full": "徳島県名西郡神山町阿野（須賀）"}, {"postal_code": "7713202", "postal_hyphen": "771-3202", "pref": "徳島県", "city": "名西郡神山町", "town": "阿野（長瀬）", "full": "徳島県名西郡神山町阿野（長瀬）"}, {"postal_code": "7713202", "postal_hyphen": "771-3202", "pref": "徳島県", "city": "名西郡神山町", "town": "阿野（長代）", "full": "徳島県名西郡神山町阿野（長代）"}, {"postal_code": "7713202", "postal_hyphen": "771-3202", "pref": "徳島県", "city": "名西郡神山町", "town": "阿野（二ノ宮）", "full": "徳島県名西郡神山町阿野（二ノ宮）"}, {"postal_code": "7713202", "postal_hyphen": "771-3202", "pref": "徳島県", "city": "名西郡神山町", "town": "阿野（日浦）", "full": "徳島県名西郡神山町阿野（日浦）"}, {"postal_code": "7713202", "postal_hyphen": "771-3202", "pref": "徳島県", "city": "名西郡神山町", "town": "阿野（東代次）", "full": "徳島県名西郡神山町阿野（東代次）"}, {"postal_code": "7713202", "postal_hyphen": "771-3202", "pref": "徳島県", "city": "名西郡神山町", "town": "阿野（広石）", "full": "徳島県名西郡神山町阿野（広石）"}, {"postal_code": "7713202", "postal_hyphen": "771-3202", "pref": "徳島県", "city": "名西郡神山町", "town": "阿野（福原）", "full": "徳島県名西郡神山町阿野（福原）"}, {"postal_code": "7713202", "postal_hyphen": "771-3202", "pref": "徳島県", "city": "名西郡神山町", "town": "阿野（府中）", "full": "徳島県名西郡神山町阿野（府中）"}, {"postal_code": "7713202", "postal_hyphen": "771-3202", "pref": "徳島県", "city": "名西郡神山町", "town": "阿野（船底）", "full": "徳島県名西郡神山町阿野（船底）"}, {"postal_code": "7713202", "postal_hyphen": "771-3202", "pref": "徳島県", "city": "名西郡神山町", "town": "阿野（本名）", "full": "徳島県名西郡神山町阿野（本名）"}, {"postal_code": "7713202", "postal_hyphen": "771-3202", "pref": "徳島県", "city": "名西郡神山町", "town": "阿野（松尾）", "full": "徳島県名西郡神山町阿野（松尾）"}, {"postal_code": "7713202", "postal_hyphen": "771-3202", "pref": "徳島県", "city": "名西郡神山町", "town": "阿野（宮分）", "full": "徳島県名西郡神山町阿野（宮分）"}, {"postal_code": "7713202", "postal_hyphen": "771-3202", "pref": "徳島県", "city": "名西郡神山町", "town": "阿野（屋那瀬）", "full": "徳島県名西郡神山町阿野（屋那瀬）"}, {"postal_code": "7713202", "postal_hyphen": "771-3202", "pref": "徳島県", "city": "名西郡神山町", "town": "阿野（代次）", "full": "徳島県名西郡神山町阿野（代次）"}, {"postal_code": "7713201", "postal_hyphen": "771-3201", "pref": "徳島県", "city": "名西郡神山町", "town": "阿野（その他）", "full": "徳島県名西郡神山町阿野（その他）"}, {"postal_code": "7713203", "postal_hyphen": "771-3203", "pref": "徳島県", "city": "名西郡神山町", "town": "鬼籠野", "full": "徳島県名西郡神山町鬼籠野"}, {"postal_code": "7713422", "postal_hyphen": "771-3422", "pref": "徳島県", "city": "名西郡神山町", "town": "上分", "full": "徳島県名西郡神山町上分"}, {"postal_code": "7713421", "postal_hyphen": "771-3421", "pref": "徳島県", "city": "名西郡神山町", "town": "下分", "full": "徳島県名西郡神山町下分"}, {"postal_code": "7713311", "postal_hyphen": "771-3311", "pref": "徳島県", "city": "名西郡神山町", "town": "神領（石堂）", "full": "徳島県名西郡神山町神領（石堂）"}, {"postal_code": "7713311", "postal_hyphen": "771-3311", "pref": "徳島県", "city": "名西郡神山町", "town": "神領（川北）", "full": "徳島県名西郡神山町神領（川北）"}, {"postal_code": "7713311", "postal_hyphen": "771-3311", "pref": "徳島県", "city": "名西郡神山町", "town": "神領（北）", "full": "徳島県名西郡神山町神領（北）"}, {"postal_code": "7713311", "postal_hyphen": "771-3311", "pref": "徳島県", "city": "名西郡神山町", "town": "神領（谷）", "full": "徳島県名西郡神山町神領（谷）"}, {"postal_code": "7713311", "postal_hyphen": "771-3311", "pref": "徳島県", "city": "名西郡神山町", "town": "神領（東野間）", "full": "徳島県名西郡神山町神領（東野間）"}, {"postal_code": "7713311", "postal_hyphen": "771-3311", "pref": "徳島県", "city": "名西郡神山町", "town": "神領（西野間）", "full": "徳島県名西郡神山町神領（西野間）"}, {"postal_code": "7713311", "postal_hyphen": "771-3311", "pref": "徳島県", "city": "名西郡神山町", "town": "神領（本野間）", "full": "徳島県名西郡神山町神領（本野間）"}, {"postal_code": "7713310", "postal_hyphen": "771-3310", "pref": "徳島県", "city": "名西郡神山町", "town": "神領（その他）", "full": "徳島県名西郡神山町神領（その他）"}, {"postal_code": "7715200", "postal_hyphen": "771-5200", "pref": "徳島県", "city": "那賀郡那賀町", "town": "", "full": "徳島県那賀郡那賀町"}, {"postal_code": "7715207", "postal_hyphen": "771-5207", "pref": "徳島県", "city": "那賀郡那賀町", "town": "阿井", "full": "徳島県那賀郡那賀町阿井"}, {"postal_code": "7715403", "postal_hyphen": "771-5403", "pref": "徳島県", "city": "那賀郡那賀町", "town": "鮎川", "full": "徳島県那賀郡那賀町鮎川"}, {"postal_code": "7715323", "postal_hyphen": "771-5323", "pref": "徳島県", "city": "那賀郡那賀町", "town": "相名", "full": "徳島県那賀郡那賀町相名"}, {"postal_code": "7715401", "postal_hyphen": "771-5401", "pref": "徳島県", "city": "那賀郡那賀町", "town": "朝生", "full": "徳島県那賀郡那賀町朝生"}, {"postal_code": "7716101", "postal_hyphen": "771-6101", "pref": "徳島県", "city": "那賀郡那賀町", "town": "阿津江", "full": "徳島県那賀郡那賀町阿津江"}, {"postal_code": "7716103", "postal_hyphen": "771-6103", "pref": "徳島県", "city": "那賀郡那賀町", "town": "出羽", "full": "徳島県那賀郡那賀町出羽"}, {"postal_code": "7715324", "postal_hyphen": "771-5324", "pref": "徳島県", "city": "那賀郡那賀町", "town": "井ノ谷", "full": "徳島県那賀郡那賀町井ノ谷"}, {"postal_code": "7715405", "postal_hyphen": "771-5405", "pref": "徳島県", "city": "那賀郡那賀町", "town": "入野", "full": "徳島県那賀郡那賀町入野"}, {"postal_code": "7716118", "postal_hyphen": "771-6118", "pref": "徳島県", "city": "那賀郡那賀町", "town": "岩倉", "full": "徳島県那賀郡那賀町岩倉"}, {"postal_code": "7715328", "postal_hyphen": "771-5328", "pref": "徳島県", "city": "那賀郡那賀町", "town": "請ノ谷", "full": "徳島県那賀郡那賀町請ノ谷"}, {"postal_code": "7715404", "postal_hyphen": "771-5404", "pref": "徳島県", "city": "那賀郡那賀町", "town": "牛輪", "full": "徳島県那賀郡那賀町牛輪"}, {"postal_code": "7715504", "postal_hyphen": "771-5504", "pref": "徳島県", "city": "那賀郡那賀町", "town": "臼ケ谷", "full": "徳島県那賀郡那賀町臼ケ谷"}, {"postal_code": "7715326", "postal_hyphen": "771-5326", "pref": "徳島県", "city": "那賀郡那賀町", "town": "内山", "full": "徳島県那賀郡那賀町内山"}, {"postal_code": "7715321", "postal_hyphen": "771-5321", "pref": "徳島県", "city": "那賀郡那賀町", "town": "馬路", "full": "徳島県那賀郡那賀町馬路"}, {"postal_code": "7715320", "postal_hyphen": "771-5320", "pref": "徳島県", "city": "那賀郡那賀町", "town": "榎谷", "full": "徳島県那賀郡那賀町榎谷"}, {"postal_code": "7715410", "postal_hyphen": "771-5410", "pref": "徳島県", "city": "那賀郡那賀町", "town": "大久保", "full": "徳島県那賀郡那賀町大久保"}, {"postal_code": "7715516", "postal_hyphen": "771-5516", "pref": "徳島県", "city": "那賀郡那賀町", "town": "大戸", "full": "徳島県那賀郡那賀町大戸"}, {"postal_code": "7716322", "postal_hyphen": "771-6322", "pref": "徳島県", "city": "那賀郡那賀町", "town": "大殿", "full": "徳島県那賀郡那賀町大殿"}, {"postal_code": "7716115", "postal_hyphen": "771-6115", "pref": "徳島県", "city": "那賀郡那賀町", "town": "小畠", "full": "徳島県那賀郡那賀町小畠"}, {"postal_code": "7715501", "postal_hyphen": "771-5501", "pref": "徳島県", "city": "那賀郡那賀町", "town": "音谷", "full": "徳島県那賀郡那賀町音谷"}, {"postal_code": "7715407", "postal_hyphen": "771-5407", "pref": "徳島県", "city": "那賀郡那賀町", "town": "雄", "full": "徳島県那賀郡那賀町雄"}, {"postal_code": "7716328", "postal_hyphen": "771-6328", "pref": "徳島県", "city": "那賀郡那賀町", "town": "海川", "full": "徳島県那賀郡那賀町海川"}, {"postal_code": "7715413", "postal_hyphen": "771-5413", "pref": "徳島県", "city": "那賀郡那賀町", "town": "蔭谷", "full": "徳島県那賀郡那賀町蔭谷"}, {"postal_code": "7716107", "postal_hyphen": "771-6107", "pref": "徳島県", "city": "那賀郡那賀町", "town": "掛盤", "full": "徳島県那賀郡那賀町掛盤"}, {"postal_code": "7716117", "postal_hyphen": "771-6117", "pref": "徳島県", "city": "那賀郡那賀町", "town": "川成", "full": "徳島県那賀郡那賀町川成"}, {"postal_code": "7715515", "postal_hyphen": "771-5515", "pref": "徳島県", "city": "那賀郡那賀町", "town": "川俣", "full": "徳島県那賀郡那賀町川俣"}, {"postal_code": "7716105", "postal_hyphen": "771-6105", "pref": "徳島県", "city": "那賀郡那賀町", "town": "木頭", "full": "徳島県那賀郡那賀町木頭"}, {"postal_code": "7716402", "postal_hyphen": "771-6402", "pref": "徳島県", "city": "那賀郡那賀町", "town": "木頭出原", "full": "徳島県那賀郡那賀町木頭出原"}, {"postal_code": "7716511", "postal_hyphen": "771-6511", "pref": "徳島県", "city": "那賀郡那賀町", "town": "木頭折宇", "full": "徳島県那賀郡那賀町木頭折宇"}, {"postal_code": "7716512", "postal_hyphen": "771-6512", "pref": "徳島県", "city": "那賀郡那賀町", "town": "木頭北川", "full": "徳島県那賀郡那賀町木頭北川"}, {"postal_code": "7716401", "postal_hyphen": "771-6401", "pref": "徳島県", "city": "那賀郡那賀町", "town": "木頭助", "full": "徳島県那賀郡那賀町木頭助"}, {"postal_code": "7716405", "postal_hyphen": "771-6405", "pref": "徳島県", "city": "那賀郡那賀町", "town": "木頭西宇", "full": "徳島県那賀郡那賀町木頭西宇"}, {"postal_code": "7716404", "postal_hyphen": "771-6404", "pref": "徳島県", "city": "那賀郡那賀町", "town": "木頭南宇", "full": "徳島県那賀郡那賀町木頭南宇"}, {"postal_code": "7716403", "postal_hyphen": "771-6403", "pref": "徳島県", "city": "那賀郡那賀町", "town": "木頭和無田", "full": "徳島県那賀郡那賀町木頭和無田"}, {"postal_code": "7716102", "postal_hyphen": "771-6102", "pref": "徳島県", "city": "那賀郡那賀町", "town": "木頭名", "full": "徳島県那賀郡那賀町木頭名"}, {"postal_code": "7716111", "postal_hyphen": "771-6111", "pref": "徳島県", "city": "那賀郡那賀町", "town": "小泉", "full": "徳島県那賀郡那賀町小泉"}, {"postal_code": "7716324", "postal_hyphen": "771-6324", "pref": "徳島県", "city": "那賀郡那賀町", "town": "御所谷", "full": "徳島県那賀郡那賀町御所谷"}, {"postal_code": "7715209", "postal_hyphen": "771-5209", "pref": "徳島県", "city": "那賀郡那賀町", "town": "小仁宇", "full": "徳島県那賀郡那賀町小仁宇"}, {"postal_code": "7715512", "postal_hyphen": "771-5512", "pref": "徳島県", "city": "那賀郡那賀町", "town": "小計", "full": "徳島県那賀郡那賀町小計"}, {"postal_code": "7715503", "postal_hyphen": "771-5503", "pref": "徳島県", "city": "那賀郡那賀町", "town": "小浜", "full": "徳島県那賀郡那賀町小浜"}, {"postal_code": "7716106", "postal_hyphen": "771-6106", "pref": "徳島県", "city": "那賀郡那賀町", "town": "坂州", "full": "徳島県那賀郡那賀町坂州"}, {"postal_code": "7715502", "postal_hyphen": "771-5502", "pref": "徳島県", "city": "那賀郡那賀町", "town": "桜谷", "full": "徳島県那賀郡那賀町桜谷"}, {"postal_code": "7716114", "postal_hyphen": "771-6114", "pref": "徳島県", "city": "那賀郡那賀町", "town": "沢谷", "full": "徳島県那賀郡那賀町沢谷"}, {"postal_code": "7716325", "postal_hyphen": "771-6325", "pref": "徳島県", "city": "那賀郡那賀町", "town": "丈ケ谷", "full": "徳島県那賀郡那賀町丈ケ谷"}, {"postal_code": "7715507", "postal_hyphen": "771-5507", "pref": "徳島県", "city": "那賀郡那賀町", "town": "菖蒲", "full": "徳島県那賀郡那賀町菖蒲"}, {"postal_code": "7716323", "postal_hyphen": "771-6323", "pref": "徳島県", "city": "那賀郡那賀町", "town": "白石", "full": "徳島県那賀郡那賀町白石"}, {"postal_code": "7716112", "postal_hyphen": "771-6112", "pref": "徳島県", "city": "那賀郡那賀町", "town": "高野", "full": "徳島県那賀郡那賀町高野"}, {"postal_code": "7715329", "postal_hyphen": "771-5329", "pref": "徳島県", "city": "那賀郡那賀町", "town": "竹ケ谷", "full": "徳島県那賀郡那賀町竹ケ谷"}, {"postal_code": "7715322", "postal_hyphen": "771-5322", "pref": "徳島県", "city": "那賀郡那賀町", "town": "谷内", "full": "徳島県那賀郡那賀町谷内"}, {"postal_code": "7716113", "postal_hyphen": "771-6113", "pref": "徳島県", "city": "那賀郡那賀町", "town": "寺内", "full": "徳島県那賀郡那賀町寺内"}, {"postal_code": "7716104", "postal_hyphen": "771-6104", "pref": "徳島県", "city": "那賀郡那賀町", "town": "当山", "full": "徳島県那賀郡那賀町当山"}, {"postal_code": "7715202", "postal_hyphen": "771-5202", "pref": "徳島県", "city": "那賀郡那賀町", "town": "土佐", "full": "徳島県那賀郡那賀町土佐"}, {"postal_code": "7715505", "postal_hyphen": "771-5505", "pref": "徳島県", "city": "那賀郡那賀町", "town": "長安", "full": "徳島県那賀郡那賀町長安"}, {"postal_code": "7715204", "postal_hyphen": "771-5204", "pref": "徳島県", "city": "那賀郡那賀町", "town": "中山", "full": "徳島県那賀郡那賀町中山"}, {"postal_code": "7716327", "postal_hyphen": "771-6327", "pref": "徳島県", "city": "那賀郡那賀町", "town": "成瀬", "full": "徳島県那賀郡那賀町成瀬"}, {"postal_code": "7715208", "postal_hyphen": "771-5208", "pref": "徳島県", "city": "那賀郡那賀町", "town": "仁宇", "full": "徳島県那賀郡那賀町仁宇"}, {"postal_code": "7715327", "postal_hyphen": "771-5327", "pref": "徳島県", "city": "那賀郡那賀町", "town": "西納", "full": "徳島県那賀郡那賀町西納"}, {"postal_code": "7715406", "postal_hyphen": "771-5406", "pref": "徳島県", "city": "那賀郡那賀町", "town": "延野", "full": "徳島県那賀郡那賀町延野"}, {"postal_code": "7715518", "postal_hyphen": "771-5518", "pref": "徳島県", "city": "那賀郡那賀町", "town": "拝宮", "full": "徳島県那賀郡那賀町拝宮"}, {"postal_code": "7715409", "postal_hyphen": "771-5409", "pref": "徳島県", "city": "那賀郡那賀町", "town": "鉢", "full": "徳島県那賀郡那賀町鉢"}, {"postal_code": "7715532", "postal_hyphen": "771-5532", "pref": "徳島県", "city": "那賀郡那賀町", "town": "花瀬", "full": "徳島県那賀郡那賀町花瀬"}, {"postal_code": "7715531", "postal_hyphen": "771-5531", "pref": "徳島県", "city": "那賀郡那賀町", "town": "日浦", "full": "徳島県那賀郡那賀町日浦"}, {"postal_code": "7715508", "postal_hyphen": "771-5508", "pref": "徳島県", "city": "那賀郡那賀町", "town": "東尾", "full": "徳島県那賀郡那賀町東尾"}, {"postal_code": "7715506", "postal_hyphen": "771-5506", "pref": "徳島県", "city": "那賀郡那賀町", "town": "桧曽根", "full": "徳島県那賀郡那賀町桧曽根"}, {"postal_code": "7715517", "postal_hyphen": "771-5517", "pref": "徳島県", "city": "那賀郡那賀町", "town": "日真", "full": "徳島県那賀郡那賀町日真"}, {"postal_code": "7716321", "postal_hyphen": "771-6321", "pref": "徳島県", "city": "那賀郡那賀町", "town": "平谷", "full": "徳島県那賀郡那賀町平谷"}, {"postal_code": "7715325", "postal_hyphen": "771-5325", "pref": "徳島県", "city": "那賀郡那賀町", "town": "平野", "full": "徳島県那賀郡那賀町平野"}, {"postal_code": "7715514", "postal_hyphen": "771-5514", "pref": "徳島県", "city": "那賀郡那賀町", "town": "深森", "full": "徳島県那賀郡那賀町深森"}, {"postal_code": "7716326", "postal_hyphen": "771-6326", "pref": "徳島県", "city": "那賀郡那賀町", "town": "府殿", "full": "徳島県那賀郡那賀町府殿"}, {"postal_code": "7715513", "postal_hyphen": "771-5513", "pref": "徳島県", "city": "那賀郡那賀町", "town": "古屋", "full": "徳島県那賀郡那賀町古屋"}, {"postal_code": "7715412", "postal_hyphen": "771-5412", "pref": "徳島県", "city": "那賀郡那賀町", "town": "朴野", "full": "徳島県那賀郡那賀町朴野"}, {"postal_code": "7715511", "postal_hyphen": "771-5511", "pref": "徳島県", "city": "那賀郡那賀町", "town": "水崎", "full": "徳島県那賀郡那賀町水崎"}, {"postal_code": "7715206", "postal_hyphen": "771-5206", "pref": "徳島県", "city": "那賀郡那賀町", "town": "百合", "full": "徳島県那賀郡那賀町百合"}, {"postal_code": "7715205", "postal_hyphen": "771-5205", "pref": "徳島県", "city": "那賀郡那賀町", "town": "百合谷", "full": "徳島県那賀郡那賀町百合谷"}, {"postal_code": "7715402", "postal_hyphen": "771-5402", "pref": "徳島県", "city": "那賀郡那賀町", "town": "簗ノ上", "full": "徳島県那賀郡那賀町簗ノ上"}, {"postal_code": "7715411", "postal_hyphen": "771-5411", "pref": "徳島県", "city": "那賀郡那賀町", "town": "横石", "full": "徳島県那賀郡那賀町横石"}, {"postal_code": "7716116", "postal_hyphen": "771-6116", "pref": "徳島県", "city": "那賀郡那賀町", "town": "横谷", "full": "徳島県那賀郡那賀町横谷"}, {"postal_code": "7715408", "postal_hyphen": "771-5408", "pref": "徳島県", "city": "那賀郡那賀町", "town": "吉野", "full": "徳島県那賀郡那賀町吉野"}, {"postal_code": "7715201", "postal_hyphen": "771-5201", "pref": "徳島県", "city": "那賀郡那賀町", "town": "和食", "full": "徳島県那賀郡那賀町和食"}, {"postal_code": "7715203", "postal_hyphen": "771-5203", "pref": "徳島県", "city": "那賀郡那賀町", "town": "和食郷", "full": "徳島県那賀郡那賀町和食郷"}, {"postal_code": "7750000", "postal_hyphen": "775-0000", "pref": "徳島県", "city": "海部郡牟岐町", "town": "", "full": "徳島県海部郡牟岐町"}, {"postal_code": "7750007", "postal_hyphen": "775-0007", "pref": "徳島県", "city": "海部郡牟岐町", "town": "内妻", "full": "徳島県海部郡牟岐町内妻"}, {"postal_code": "7750004", "postal_hyphen": "775-0004", "pref": "徳島県", "city": "海部郡牟岐町", "town": "川長", "full": "徳島県海部郡牟岐町川長"}, {"postal_code": "7750001", "postal_hyphen": "775-0001", "pref": "徳島県", "city": "海部郡牟岐町", "town": "河内", "full": "徳島県海部郡牟岐町河内"}, {"postal_code": "7750002", "postal_hyphen": "775-0002", "pref": "徳島県", "city": "海部郡牟岐町", "town": "橘", "full": "徳島県海部郡牟岐町橘"}, {"postal_code": "7750006", "postal_hyphen": "775-0006", "pref": "徳島県", "city": "海部郡牟岐町", "town": "中村", "full": "徳島県海部郡牟岐町中村"}, {"postal_code": "7750005", "postal_hyphen": "775-0005", "pref": "徳島県", "city": "海部郡牟岐町", "town": "灘", "full": "徳島県海部郡牟岐町灘"}, {"postal_code": "7750003", "postal_hyphen": "775-0003", "pref": "徳島県", "city": "海部郡牟岐町", "town": "辺川", "full": "徳島県海部郡牟岐町辺川"}, {"postal_code": "7750013", "postal_hyphen": "775-0013", "pref": "徳島県", "city": "海部郡牟岐町", "town": "牟岐浦（出羽島）", "full": "徳島県海部郡牟岐町牟岐浦（出羽島）"}, {"postal_code": "7750011", "postal_hyphen": "775-0011", "pref": "徳島県", "city": "海部郡牟岐町", "town": "牟岐浦（浜崎）", "full": "徳島県海部郡牟岐町牟岐浦（浜崎）"}, {"postal_code": "7750012", "postal_hyphen": "775-0012", "pref": "徳島県", "city": "海部郡牟岐町", "town": "牟岐浦（宮ノ本）", "full": "徳島県海部郡牟岐町牟岐浦（宮ノ本）"}, {"postal_code": "7750010", "postal_hyphen": "775-0010", "pref": "徳島県", "city": "海部郡牟岐町", "town": "牟岐浦（その他）", "full": "徳島県海部郡牟岐町牟岐浦（その他）"}, {"postal_code": "7792300", "postal_hyphen": "779-2300", "pref": "徳島県", "city": "海部郡美波町", "town": "", "full": "徳島県海部郡美波町"}, {"postal_code": "7792301", "postal_hyphen": "779-2301", "pref": "徳島県", "city": "海部郡美波町", "town": "赤松", "full": "徳島県海部郡美波町赤松"}, {"postal_code": "7792106", "postal_hyphen": "779-2106", "pref": "徳島県", "city": "海部郡美波町", "town": "阿部", "full": "徳島県海部郡美波町阿部"}, {"postal_code": "7792107", "postal_hyphen": "779-2107", "pref": "徳島県", "city": "海部郡美波町", "town": "伊座利", "full": "徳島県海部郡美波町伊座利"}, {"postal_code": "7792303", "postal_hyphen": "779-2303", "pref": "徳島県", "city": "海部郡美波町", "town": "恵比須浜", "full": "徳島県海部郡美波町恵比須浜"}, {"postal_code": "7792305", "postal_hyphen": "779-2305", "pref": "徳島県", "city": "海部郡美波町", "town": "奥河内", "full": "徳島県海部郡美波町奥河内"}, {"postal_code": "7792108", "postal_hyphen": "779-2108", "pref": "徳島県", "city": "海部郡美波町", "town": "木岐", "full": "徳島県海部郡美波町木岐"}, {"postal_code": "7792302", "postal_hyphen": "779-2302", "pref": "徳島県", "city": "海部郡美波町", "town": "北河内", "full": "徳島県海部郡美波町北河内"}, {"postal_code": "7792105", "postal_hyphen": "779-2105", "pref": "徳島県", "city": "海部郡美波町", "town": "志和岐", "full": "徳島県海部郡美波町志和岐"}, {"postal_code": "7792109", "postal_hyphen": "779-2109", "pref": "徳島県", "city": "海部郡美波町", "town": "田井", "full": "徳島県海部郡美波町田井"}, {"postal_code": "7792306", "postal_hyphen": "779-2306", "pref": "徳島県", "city": "海部郡美波町", "town": "西河内", "full": "徳島県海部郡美波町西河内"}, {"postal_code": "7792103", "postal_hyphen": "779-2103", "pref": "徳島県", "city": "海部郡美波町", "town": "西の地", "full": "徳島県海部郡美波町西の地"}, {"postal_code": "7792101", "postal_hyphen": "779-2101", "pref": "徳島県", "city": "海部郡美波町", "town": "西由岐", "full": "徳島県海部郡美波町西由岐"}, {"postal_code": "7792104", "postal_hyphen": "779-2104", "pref": "徳島県", "city": "海部郡美波町", "town": "東由岐", "full": "徳島県海部郡美波町東由岐"}, {"postal_code": "7792304", "postal_hyphen": "779-2304", "pref": "徳島県", "city": "海部郡美波町", "town": "日和佐浦", "full": "徳島県海部郡美波町日和佐浦"}, {"postal_code": "7792102", "postal_hyphen": "779-2102", "pref": "徳島県", "city": "海部郡美波町", "town": "港町", "full": "徳島県海部郡美波町港町"}, {"postal_code": "7792307", "postal_hyphen": "779-2307", "pref": "徳島県", "city": "海部郡美波町", "town": "山河内", "full": "徳島県海部郡美波町山河内"}, {"postal_code": "7750200", "postal_hyphen": "775-0200", "pref": "徳島県", "city": "海部郡海陽町", "town": "", "full": "徳島県海部郡海陽町"}, {"postal_code": "7750415", "postal_hyphen": "775-0415", "pref": "徳島県", "city": "海部郡海陽町", "town": "相川", "full": "徳島県海部郡海陽町相川"}, {"postal_code": "7750101", "postal_hyphen": "775-0101", "pref": "徳島県", "city": "海部郡海陽町", "town": "浅川", "full": "徳島県海部郡海陽町浅川"}, {"postal_code": "7750310", "postal_hyphen": "775-0310", "pref": "徳島県", "city": "海部郡海陽町", "town": "大井", "full": "徳島県海部郡海陽町大井"}, {"postal_code": "7750203", "postal_hyphen": "775-0203", "pref": "徳島県", "city": "海部郡海陽町", "town": "大里", "full": "徳島県海部郡海陽町大里"}, {"postal_code": "7750412", "postal_hyphen": "775-0412", "pref": "徳島県", "city": "海部郡海陽町", "town": "小川", "full": "徳島県海部郡海陽町小川"}, {"postal_code": "7750302", "postal_hyphen": "775-0302", "pref": "徳島県", "city": "海部郡海陽町", "town": "奥浦", "full": "徳島県海部郡海陽町奥浦"}, {"postal_code": "7750504", "postal_hyphen": "775-0504", "pref": "徳島県", "city": "海部郡海陽町", "town": "尾崎", "full": "徳島県海部郡海陽町尾崎"}, {"postal_code": "7750506", "postal_hyphen": "775-0506", "pref": "徳島県", "city": "海部郡海陽町", "town": "角坂", "full": "徳島県海部郡海陽町角坂"}, {"postal_code": "7750511", "postal_hyphen": "775-0511", "pref": "徳島県", "city": "海部郡海陽町", "town": "久尾", "full": "徳島県海部郡海陽町久尾"}, {"postal_code": "7750505", "postal_hyphen": "775-0505", "pref": "徳島県", "city": "海部郡海陽町", "town": "芥附", "full": "徳島県海部郡海陽町芥附"}, {"postal_code": "7750306", "postal_hyphen": "775-0306", "pref": "徳島県", "city": "海部郡海陽町", "town": "櫛川", "full": "徳島県海部郡海陽町櫛川"}, {"postal_code": "7750502", "postal_hyphen": "775-0502", "pref": "徳島県", "city": "海部郡海陽町", "town": "久保", "full": "徳島県海部郡海陽町久保"}, {"postal_code": "7750413", "postal_hyphen": "775-0413", "pref": "徳島県", "city": "海部郡海陽町", "town": "神野", "full": "徳島県海部郡海陽町神野"}, {"postal_code": "7750508", "postal_hyphen": "775-0508", "pref": "徳島県", "city": "海部郡海陽町", "town": "小谷", "full": "徳島県海部郡海陽町小谷"}, {"postal_code": "7750509", "postal_hyphen": "775-0509", "pref": "徳島県", "city": "海部郡海陽町", "town": "塩深", "full": "徳島県海部郡海陽町塩深"}, {"postal_code": "7750513", "postal_hyphen": "775-0513", "pref": "徳島県", "city": "海部郡海陽町", "town": "宍喰浦（竹ケ島）", "full": "徳島県海部郡海陽町宍喰浦（竹ケ島）"}, {"postal_code": "7750512", "postal_hyphen": "775-0512", "pref": "徳島県", "city": "海部郡海陽町", "town": "宍喰浦（那佐）", "full": "徳島県海部郡海陽町宍喰浦（那佐）"}, {"postal_code": "7750501", "postal_hyphen": "775-0501", "pref": "徳島県", "city": "海部郡海陽町", "town": "宍喰浦（その他）", "full": "徳島県海部郡海陽町宍喰浦（その他）"}, {"postal_code": "7750307", "postal_hyphen": "775-0307", "pref": "徳島県", "city": "海部郡海陽町", "town": "芝", "full": "徳島県海部郡海陽町芝"}, {"postal_code": "7750202", "postal_hyphen": "775-0202", "pref": "徳島県", "city": "海部郡海陽町", "town": "四方原", "full": "徳島県海部郡海陽町四方原"}, {"postal_code": "7750206", "postal_hyphen": "775-0206", "pref": "徳島県", "city": "海部郡海陽町", "town": "熟田", "full": "徳島県海部郡海陽町熟田"}, {"postal_code": "7750303", "postal_hyphen": "775-0303", "pref": "徳島県", "city": "海部郡海陽町", "town": "高園", "full": "徳島県海部郡海陽町高園"}, {"postal_code": "7750204", "postal_hyphen": "775-0204", "pref": "徳島県", "city": "海部郡海陽町", "town": "多良", "full": "徳島県海部郡海陽町多良"}, {"postal_code": "7750309", "postal_hyphen": "775-0309", "pref": "徳島県", "city": "海部郡海陽町", "town": "富田", "full": "徳島県海部郡海陽町富田"}, {"postal_code": "7750301", "postal_hyphen": "775-0301", "pref": "徳島県", "city": "海部郡海陽町", "town": "鞆浦", "full": "徳島県海部郡海陽町鞆浦"}, {"postal_code": "7750305", "postal_hyphen": "775-0305", "pref": "徳島県", "city": "海部郡海陽町", "town": "中山", "full": "徳島県海部郡海陽町中山"}, {"postal_code": "7750304", "postal_hyphen": "775-0304", "pref": "徳島県", "city": "海部郡海陽町", "town": "野江", "full": "徳島県海部郡海陽町野江"}, {"postal_code": "7750503", "postal_hyphen": "775-0503", "pref": "徳島県", "city": "海部郡海陽町", "town": "日比原", "full": "徳島県海部郡海陽町日比原"}, {"postal_code": "7750411", "postal_hyphen": "775-0411", "pref": "徳島県", "city": "海部郡海陽町", "town": "平井", "full": "徳島県海部郡海陽町平井"}, {"postal_code": "7750507", "postal_hyphen": "775-0507", "pref": "徳島県", "city": "海部郡海陽町", "town": "広岡", "full": "徳島県海部郡海陽町広岡"}, {"postal_code": "7750510", "postal_hyphen": "775-0510", "pref": "徳島県", "city": "海部郡海陽町", "town": "船津", "full": "徳島県海部郡海陽町船津"}, {"postal_code": "7750308", "postal_hyphen": "775-0308", "pref": "徳島県", "city": "海部郡海陽町", "town": "吉田", "full": "徳島県海部郡海陽町吉田"}, {"postal_code": "7750205", "postal_hyphen": "775-0205", "pref": "徳島県", "city": "海部郡海陽町", "town": "吉野", "full": "徳島県海部郡海陽町吉野"}, {"postal_code": "7750414", "postal_hyphen": "775-0414", "pref": "徳島県", "city": "海部郡海陽町", "town": "若松", "full": "徳島県海部郡海陽町若松"}, {"postal_code": "7710200", "postal_hyphen": "771-0200", "pref": "徳島県", "city": "板野郡松茂町", "town": "", "full": "徳島県板野郡松茂町"}, {"postal_code": "7710219", "postal_hyphen": "771-0219", "pref": "徳島県", "city": "板野郡松茂町", "town": "笹木野", "full": "徳島県板野郡松茂町笹木野"}, {"postal_code": "7710218", "postal_hyphen": "771-0218", "pref": "徳島県", "city": "板野郡松茂町", "town": "住吉", "full": "徳島県板野郡松茂町住吉"}, {"postal_code": "7710215", "postal_hyphen": "771-0215", "pref": "徳島県", "city": "板野郡松茂町", "town": "豊岡", "full": "徳島県板野郡松茂町豊岡"}, {"postal_code": "7710217", "postal_hyphen": "771-0217", "pref": "徳島県", "city": "板野郡松茂町", "town": "豊中", "full": "徳島県板野郡松茂町豊中"}, {"postal_code": "7710213", "postal_hyphen": "771-0213", "pref": "徳島県", "city": "板野郡松茂町", "town": "豊久", "full": "徳島県板野郡松茂町豊久"}, {"postal_code": "7710212", "postal_hyphen": "771-0212", "pref": "徳島県", "city": "板野郡松茂町", "town": "中喜来", "full": "徳島県板野郡松茂町中喜来"}, {"postal_code": "7710211", "postal_hyphen": "771-0211", "pref": "徳島県", "city": "板野郡松茂町", "town": "長岸", "full": "徳島県板野郡松茂町長岸"}, {"postal_code": "7710216", "postal_hyphen": "771-0216", "pref": "徳島県", "city": "板野郡松茂町", "town": "長原", "full": "徳島県板野郡松茂町長原"}, {"postal_code": "7710220", "postal_hyphen": "771-0220", "pref": "徳島県", "city": "板野郡松茂町", "town": "広島", "full": "徳島県板野郡松茂町広島"}, {"postal_code": "7710214", "postal_hyphen": "771-0214", "pref": "徳島県", "city": "板野郡松茂町", "town": "満穂", "full": "徳島県板野郡松茂町満穂"}, {"postal_code": "7710200", "postal_hyphen": "771-0200", "pref": "徳島県", "city": "板野郡北島町", "town": "", "full": "徳島県板野郡北島町"}, {"postal_code": "7710205", "postal_hyphen": "771-0205", "pref": "徳島県", "city": "板野郡北島町", "town": "江尻", "full": "徳島県板野郡北島町江尻"}, {"postal_code": "7710201", "postal_hyphen": "771-0201", "pref": "徳島県", "city": "板野郡北島町", "town": "北村", "full": "徳島県板野郡北島町北村"}, {"postal_code": "7710207", "postal_hyphen": "771-0207", "pref": "徳島県", "city": "板野郡北島町", "town": "新喜来", "full": "徳島県板野郡北島町新喜来"}, {"postal_code": "7710204", "postal_hyphen": "771-0204", "pref": "徳島県", "city": "板野郡北島町", "town": "鯛浜", "full": "徳島県板野郡北島町鯛浜"}, {"postal_code": "7710206", "postal_hyphen": "771-0206", "pref": "徳島県", "city": "板野郡北島町", "town": "高房", "full": "徳島県板野郡北島町高房"}, {"postal_code": "7710202", "postal_hyphen": "771-0202", "pref": "徳島県", "city": "板野郡北島町", "town": "太郎八須", "full": "徳島県板野郡北島町太郎八須"}, {"postal_code": "7710203", "postal_hyphen": "771-0203", "pref": "徳島県", "city": "板野郡北島町", "town": "中村", "full": "徳島県板野郡北島町中村"}, {"postal_code": "7711200", "postal_hyphen": "771-1200", "pref": "徳島県", "city": "板野郡藍住町", "town": "", "full": "徳島県板野郡藍住町"}, {"postal_code": "7711202", "postal_hyphen": "771-1202", "pref": "徳島県", "city": "板野郡藍住町", "town": "奥野（猪熊）", "full": "徳島県板野郡藍住町奥野（猪熊）"}, {"postal_code": "7711202", "postal_hyphen": "771-1202", "pref": "徳島県", "city": "板野郡藍住町", "town": "奥野（東中須）", "full": "徳島県板野郡藍住町奥野（東中須）"}, {"postal_code": "7711202", "postal_hyphen": "771-1202", "pref": "徳島県", "city": "板野郡藍住町", "town": "奥野（前川）", "full": "徳島県板野郡藍住町奥野（前川）"}, {"postal_code": "7711203", "postal_hyphen": "771-1203", "pref": "徳島県", "city": "板野郡藍住町", "town": "奥野（矢上前）", "full": "徳島県板野郡藍住町奥野（矢上前）"}, {"postal_code": "7711202", "postal_hyphen": "771-1202", "pref": "徳島県", "city": "板野郡藍住町", "town": "奥野（和田）", "full": "徳島県板野郡藍住町奥野（和田）"}, {"postal_code": "7711201", "postal_hyphen": "771-1201", "pref": "徳島県", "city": "板野郡藍住町", "town": "奥野（その他）", "full": "徳島県板野郡藍住町奥野（その他）"}, {"postal_code": "7711240", "postal_hyphen": "771-1240", "pref": "徳島県", "city": "板野郡藍住町", "town": "乙瀬", "full": "徳島県板野郡藍住町乙瀬"}, {"postal_code": "7711262", "postal_hyphen": "771-1262", "pref": "徳島県", "city": "板野郡藍住町", "town": "笠木（中野）", "full": "徳島県板野郡藍住町笠木（中野）"}, {"postal_code": "7711261", "postal_hyphen": "771-1261", "pref": "徳島県", "city": "板野郡藍住町", "town": "笠木（東野）", "full": "徳島県板野郡藍住町笠木（東野）"}, {"postal_code": "7711262", "postal_hyphen": "771-1262", "pref": "徳島県", "city": "板野郡藍住町", "town": "笠木（西野）", "full": "徳島県板野郡藍住町笠木（西野）"}, {"postal_code": "7711260", "postal_hyphen": "771-1260", "pref": "徳島県", "city": "板野郡藍住町", "town": "笠木（その他）", "full": "徳島県板野郡藍住町笠木（その他）"}, {"postal_code": "7711271", "postal_hyphen": "771-1271", "pref": "徳島県", "city": "板野郡藍住町", "town": "勝瑞（幸島）", "full": "徳島県板野郡藍住町勝瑞（幸島）"}, {"postal_code": "7711273", "postal_hyphen": "771-1273", "pref": "徳島県", "city": "板野郡藍住町", "town": "勝瑞（正喜地）", "full": "徳島県板野郡藍住町勝瑞（正喜地）"}, {"postal_code": "7711272", "postal_hyphen": "771-1272", "pref": "徳島県", "city": "板野郡藍住町", "town": "勝瑞（成長）", "full": "徳島県板野郡藍住町勝瑞（成長）"}, {"postal_code": "7711273", "postal_hyphen": "771-1273", "pref": "徳島県", "city": "板野郡藍住町", "town": "勝瑞（東勝地）", "full": "徳島県板野郡藍住町勝瑞（東勝地）"}, {"postal_code": "7711270", "postal_hyphen": "771-1270", "pref": "徳島県", "city": "板野郡藍住町", "town": "勝瑞（その他）", "full": "徳島県板野郡藍住町勝瑞（その他）"}, {"postal_code": "7711267", "postal_hyphen": "771-1267", "pref": "徳島県", "city": "板野郡藍住町", "town": "住吉（乾）", "full": "徳島県板野郡藍住町住吉（乾）"}, {"postal_code": "7711267", "postal_hyphen": "771-1267", "pref": "徳島県", "city": "板野郡藍住町", "town": "住吉（江端）", "full": "徳島県板野郡藍住町住吉（江端）"}, {"postal_code": "7711265", "postal_hyphen": "771-1265", "pref": "徳島県", "city": "板野郡藍住町", "town": "住吉（逆藤）", "full": "徳島県板野郡藍住町住吉（逆藤）"}, {"postal_code": "7711265", "postal_hyphen": "771-1265", "pref": "徳島県", "city": "板野郡藍住町", "town": "住吉（神蔵）", "full": "徳島県板野郡藍住町住吉（神蔵）"}, {"postal_code": "7711265", "postal_hyphen": "771-1265", "pref": "徳島県", "city": "板野郡藍住町", "town": "住吉（千鳥ケ浜）", "full": "徳島県板野郡藍住町住吉（千鳥ケ浜）"}, {"postal_code": "7711266", "postal_hyphen": "771-1266", "pref": "徳島県", "city": "板野郡藍住町", "town": "住吉（藤ノ木）", "full": "徳島県板野郡藍住町住吉（藤ノ木）"}, {"postal_code": "7711266", "postal_hyphen": "771-1266", "pref": "徳島県", "city": "板野郡藍住町", "town": "住吉（若宮）", "full": "徳島県板野郡藍住町住吉（若宮）"}, {"postal_code": "7711264", "postal_hyphen": "771-1264", "pref": "徳島県", "city": "板野郡藍住町", "town": "住吉（その他）", "full": "徳島県板野郡藍住町住吉（その他）"}, {"postal_code": "7711212", "postal_hyphen": "771-1212", "pref": "徳島県", "city": "板野郡藍住町", "town": "徳命（前須東）", "full": "徳島県板野郡藍住町徳命（前須東）"}, {"postal_code": "7711212", "postal_hyphen": "771-1212", "pref": "徳島県", "city": "板野郡藍住町", "town": "徳命（前須西）", "full": "徳島県板野郡藍住町徳命（前須西）"}, {"postal_code": "7711211", "postal_hyphen": "771-1211", "pref": "徳島県", "city": "板野郡藍住町", "town": "徳命（元村）", "full": "徳島県板野郡藍住町徳命（元村）"}, {"postal_code": "7711211", "postal_hyphen": "771-1211", "pref": "徳島県", "city": "板野郡藍住町", "town": "徳命（元村東）", "full": "徳島県板野郡藍住町徳命（元村東）"}, {"postal_code": "7711210", "postal_hyphen": "771-1210", "pref": "徳島県", "city": "板野郡藍住町", "town": "徳命（その他）", "full": "徳島県板野郡藍住町徳命（その他）"}, {"postal_code": "7711232", "postal_hyphen": "771-1232", "pref": "徳島県", "city": "板野郡藍住町", "town": "富吉（地神）", "full": "徳島県板野郡藍住町富吉（地神）"}, {"postal_code": "7711231", "postal_hyphen": "771-1231", "pref": "徳島県", "city": "板野郡藍住町", "town": "富吉（須崎）", "full": "徳島県板野郡藍住町富吉（須崎）"}, {"postal_code": "7711231", "postal_hyphen": "771-1231", "pref": "徳島県", "city": "板野郡藍住町", "town": "富吉（富吉）", "full": "徳島県板野郡藍住町富吉（富吉）"}, {"postal_code": "7711231", "postal_hyphen": "771-1231", "pref": "徳島県", "city": "板野郡藍住町", "town": "富吉（豊吉）", "full": "徳島県板野郡藍住町富吉（豊吉）"}, {"postal_code": "7711232", "postal_hyphen": "771-1232", "pref": "徳島県", "city": "板野郡藍住町", "town": "富吉（穂実）", "full": "徳島県板野郡藍住町富吉（穂実）"}, {"postal_code": "7711230", "postal_hyphen": "771-1230", "pref": "徳島県", "city": "板野郡藍住町", "town": "富吉（その他）", "full": "徳島県板野郡藍住町富吉（その他）"}, {"postal_code": "7711224", "postal_hyphen": "771-1224", "pref": "徳島県", "city": "板野郡藍住町", "town": "東中富（大塚傍示）", "full": "徳島県板野郡藍住町東中富（大塚傍示）"}, {"postal_code": "7711222", "postal_hyphen": "771-1222", "pref": "徳島県", "city": "板野郡藍住町", "town": "東中富（北傍示）", "full": "徳島県板野郡藍住町東中富（北傍示）"}, {"postal_code": "7711224", "postal_hyphen": "771-1224", "pref": "徳島県", "city": "板野郡藍住町", "town": "東中富（慶長）", "full": "徳島県板野郡藍住町東中富（慶長）"}, {"postal_code": "7711223", "postal_hyphen": "771-1223", "pref": "徳島県", "city": "板野郡藍住町", "town": "東中富（敷地傍示）", "full": "徳島県板野郡藍住町東中富（敷地傍示）"}, {"postal_code": "7711224", "postal_hyphen": "771-1224", "pref": "徳島県", "city": "板野郡藍住町", "town": "東中富（貞享）", "full": "徳島県板野郡藍住町東中富（貞享）"}, {"postal_code": "7711223", "postal_hyphen": "771-1223", "pref": "徳島県", "city": "板野郡藍住町", "town": "東中富（天王傍示）", "full": "徳島県板野郡藍住町東中富（天王傍示）"}, {"postal_code": "7711221", "postal_hyphen": "771-1221", "pref": "徳島県", "city": "板野郡藍住町", "town": "東中富（長江傍示）", "full": "徳島県板野郡藍住町東中富（長江傍示）"}, {"postal_code": "7711224", "postal_hyphen": "771-1224", "pref": "徳島県", "city": "板野郡藍住町", "town": "東中富（東安永）", "full": "徳島県板野郡藍住町東中富（東安永）"}, {"postal_code": "7711224", "postal_hyphen": "771-1224", "pref": "徳島県", "city": "板野郡藍住町", "town": "東中富（西安永）", "full": "徳島県板野郡藍住町東中富（西安永）"}, {"postal_code": "7711224", "postal_hyphen": "771-1224", "pref": "徳島県", "city": "板野郡藍住町", "town": "東中富（鑓場傍示）", "full": "徳島県板野郡藍住町東中富（鑓場傍示）"}, {"postal_code": "7711220", "postal_hyphen": "771-1220", "pref": "徳島県", "city": "板野郡藍住町", "town": "東中富（その他）", "full": "徳島県板野郡藍住町東中富（その他）"}, {"postal_code": "7711253", "postal_hyphen": "771-1253", "pref": "徳島県", "city": "板野郡藍住町", "town": "矢上（江ノ口）", "full": "徳島県板野郡藍住町矢上（江ノ口）"}, {"postal_code": "7711252", "postal_hyphen": "771-1252", "pref": "徳島県", "city": "板野郡藍住町", "town": "矢上（春日）", "full": "徳島県板野郡藍住町矢上（春日）"}, {"postal_code": "7711252", "postal_hyphen": "771-1252", "pref": "徳島県", "city": "板野郡藍住町", "town": "矢上（北分）", "full": "徳島県板野郡藍住町矢上（北分）"}, {"postal_code": "7711251", "postal_hyphen": "771-1251", "pref": "徳島県", "city": "板野郡藍住町", "town": "矢上（西）", "full": "徳島県板野郡藍住町矢上（西）"}, {"postal_code": "7711251", "postal_hyphen": "771-1251", "pref": "徳島県", "city": "板野郡藍住町", "town": "矢上（原）", "full": "徳島県板野郡藍住町矢上（原）"}, {"postal_code": "7711253", "postal_hyphen": "771-1253", "pref": "徳島県", "city": "板野郡藍住町", "town": "矢上（安任）", "full": "徳島県板野郡藍住町矢上（安任）"}, {"postal_code": "7711250", "postal_hyphen": "771-1250", "pref": "徳島県", "city": "板野郡藍住町", "town": "矢上（その他）", "full": "徳島県板野郡藍住町矢上（その他）"}, {"postal_code": "7790100", "postal_hyphen": "779-0100", "pref": "徳島県", "city": "板野郡板野町", "town": "", "full": "徳島県板野郡板野町"}, {"postal_code": "7790108", "postal_hyphen": "779-0108", "pref": "徳島県", "city": "板野郡板野町", "town": "犬伏", "full": "徳島県板野郡板野町犬伏"}, {"postal_code": "7790101", "postal_hyphen": "779-0101", "pref": "徳島県", "city": "板野郡板野町", "town": "大坂", "full": "徳島県板野郡板野町大坂"}, {"postal_code": "7790106", "postal_hyphen": "779-0106", "pref": "徳島県", "city": "板野郡板野町", "town": "大寺（岡ノ宮）", "full": "徳島県板野郡板野町大寺（岡ノ宮）"}, {"postal_code": "7790105", "postal_hyphen": "779-0105", "pref": "徳島県", "city": "板野郡板野町", "town": "大寺（その他）", "full": "徳島県板野郡板野町大寺（その他）"}, {"postal_code": "7790103", "postal_hyphen": "779-0103", "pref": "徳島県", "city": "板野郡板野町", "town": "川端（新田）", "full": "徳島県板野郡板野町川端（新田）"}, {"postal_code": "7790102", "postal_hyphen": "779-0102", "pref": "徳島県", "city": "板野郡板野町", "town": "川端（その他）", "full": "徳島県板野郡板野町川端（その他）"}, {"postal_code": "7790113", "postal_hyphen": "779-0113", "pref": "徳島県", "city": "板野郡板野町", "town": "黒谷", "full": "徳島県板野郡板野町黒谷"}, {"postal_code": "7790118", "postal_hyphen": "779-0118", "pref": "徳島県", "city": "板野郡板野町", "town": "下庄", "full": "徳島県板野郡板野町下庄"}, {"postal_code": "7790116", "postal_hyphen": "779-0116", "pref": "徳島県", "city": "板野郡板野町", "town": "唐園", "full": "徳島県板野郡板野町唐園"}, {"postal_code": "7790117", "postal_hyphen": "779-0117", "pref": "徳島県", "city": "板野郡板野町", "town": "中久保", "full": "徳島県板野郡板野町中久保"}, {"postal_code": "7790111", "postal_hyphen": "779-0111", "pref": "徳島県", "city": "板野郡板野町", "town": "那東", "full": "徳島県板野郡板野町那東"}, {"postal_code": "7790119", "postal_hyphen": "779-0119", "pref": "徳島県", "city": "板野郡板野町", "town": "西中富", "full": "徳島県板野郡板野町西中富"}, {"postal_code": "7790104", "postal_hyphen": "779-0104", "pref": "徳島県", "city": "板野郡板野町", "town": "吹田", "full": "徳島県板野郡板野町吹田"}, {"postal_code": "7790107", "postal_hyphen": "779-0107", "pref": "徳島県", "city": "板野郡板野町", "town": "古城", "full": "徳島県板野郡板野町古城"}, {"postal_code": "7790112", "postal_hyphen": "779-0112", "pref": "徳島県", "city": "板野郡板野町", "town": "松谷", "full": "徳島県板野郡板野町松谷"}, {"postal_code": "7790115", "postal_hyphen": "779-0115", "pref": "徳島県", "city": "板野郡板野町", "town": "矢武", "full": "徳島県板野郡板野町矢武"}, {"postal_code": "7790114", "postal_hyphen": "779-0114", "pref": "徳島県", "city": "板野郡板野町", "town": "羅漢", "full": "徳島県板野郡板野町羅漢"}, {"postal_code": "7711300", "postal_hyphen": "771-1300", "pref": "徳島県", "city": "板野郡上板町", "town": "", "full": "徳島県板野郡上板町"}, {"postal_code": "7711310", "postal_hyphen": "771-1310", "pref": "徳島県", "city": "板野郡上板町", "town": "泉谷", "full": "徳島県板野郡上板町泉谷"}, {"postal_code": "7711301", "postal_hyphen": "771-1301", "pref": "徳島県", "city": "板野郡上板町", "town": "鍛冶屋原", "full": "徳島県板野郡上板町鍛冶屋原"}, {"postal_code": "7711345", "postal_hyphen": "771-1345", "pref": "徳島県", "city": "板野郡上板町", "town": "上六條", "full": "徳島県板野郡上板町上六條"}, {"postal_code": "7711320", "postal_hyphen": "771-1320", "pref": "徳島県", "city": "板野郡上板町", "town": "神宅", "full": "徳島県板野郡上板町神宅"}, {"postal_code": "7711342", "postal_hyphen": "771-1342", "pref": "徳島県", "city": "板野郡上板町", "town": "佐藤塚", "full": "徳島県板野郡上板町佐藤塚"}, {"postal_code": "7711343", "postal_hyphen": "771-1343", "pref": "徳島県", "city": "板野郡上板町", "town": "椎本", "full": "徳島県板野郡上板町椎本"}, {"postal_code": "7711302", "postal_hyphen": "771-1302", "pref": "徳島県", "city": "板野郡上板町", "town": "七條", "full": "徳島県板野郡上板町七條"}, {"postal_code": "7711344", "postal_hyphen": "771-1344", "pref": "徳島県", "city": "板野郡上板町", "town": "下六條", "full": "徳島県板野郡上板町下六條"}, {"postal_code": "7711350", "postal_hyphen": "771-1350", "pref": "徳島県", "city": "板野郡上板町", "town": "瀬部", "full": "徳島県板野郡上板町瀬部"}, {"postal_code": "7711341", "postal_hyphen": "771-1341", "pref": "徳島県", "city": "板野郡上板町", "town": "第十新田", "full": "徳島県板野郡上板町第十新田"}, {"postal_code": "7711346", "postal_hyphen": "771-1346", "pref": "徳島県", "city": "板野郡上板町", "town": "高磯", "full": "徳島県板野郡上板町高磯"}, {"postal_code": "7711347", "postal_hyphen": "771-1347", "pref": "徳島県", "city": "板野郡上板町", "town": "高瀬", "full": "徳島県板野郡上板町高瀬"}, {"postal_code": "7711330", "postal_hyphen": "771-1330", "pref": "徳島県", "city": "板野郡上板町", "town": "西分", "full": "徳島県板野郡上板町西分"}, {"postal_code": "7711311", "postal_hyphen": "771-1311", "pref": "徳島県", "city": "板野郡上板町", "town": "引野", "full": "徳島県板野郡上板町引野"}, {"postal_code": "7794100", "postal_hyphen": "779-4100", "pref": "徳島県", "city": "美馬郡つるぎ町", "town": "", "full": "徳島県美馬郡つるぎ町"}, {"postal_code": "7794302", "postal_hyphen": "779-4302", "pref": "徳島県", "city": "美馬郡つるぎ町", "town": "一宇（赤松、寺地）", "full": "徳島県美馬郡つるぎ町一宇（赤松、寺地）"}, {"postal_code": "7794305", "postal_hyphen": "779-4305", "pref": "徳島県", "city": "美馬郡つるぎ町", "town": "一宇（出羽、臼木、漆日浦、大屋内、白井、平、明谷）", "full": "徳島県美馬郡つるぎ町一宇（出羽、臼木、漆日浦、大屋内、白井、平、明谷）"}, {"postal_code": "7794301", "postal_hyphen": "779-4301", "pref": "徳島県", "city": "美馬郡つるぎ町", "town": "一宇（一宇、蔭、樫地、剪宇、太刀之本）", "full": "徳島県美馬郡つるぎ町一宇（一宇、蔭、樫地、剪宇、太刀之本）"}, {"postal_code": "7794304", "postal_hyphen": "779-4304", "pref": "徳島県", "city": "美馬郡つるぎ町", "town": "一宇（伊良原、大野、九藤中、子安、久藪）", "full": "徳島県美馬郡つるぎ町一宇（伊良原、大野、九藤中、子安、久藪）"}, {"postal_code": "7794306", "postal_hyphen": "779-4306", "pref": "徳島県", "city": "美馬郡つるぎ町", "town": "一宇（漆野瀬、河内、桑平、葛籠、平井、廣澤、法正）", "full": "徳島県美馬郡つるぎ町一宇（漆野瀬、河内、桑平、葛籠、平井、廣澤、法正）"}, {"postal_code": "7794307", "postal_hyphen": "779-4307", "pref": "徳島県", "city": "美馬郡つるぎ町", "town": "一宇（大佐古、奥大野、川又、實平、中野）", "full": "徳島県美馬郡つるぎ町一宇（大佐古、奥大野、川又、實平、中野）"}, {"postal_code": "7794303", "postal_hyphen": "779-4303", "pref": "徳島県", "city": "美馬郡つるぎ町", "town": "一宇（大横、木地屋、切越、十家、中横）", "full": "徳島県美馬郡つるぎ町一宇（大横、木地屋、切越、十家、中横）"}, {"postal_code": "7794101", "postal_hyphen": "779-4101", "pref": "徳島県", "city": "美馬郡つるぎ町", "town": "貞光（馬出、大須賀、中須賀、西浦、東浦、町、宮下）", "full": "徳島県美馬郡つるぎ町貞光（馬出、大須賀、中須賀、西浦、東浦、町、宮下）"}, {"postal_code": "7794105", "postal_hyphen": "779-4105", "pref": "徳島県", "city": "美馬郡つるぎ町", "town": "貞光（浦山、乙部、皆瀬、竹屋敷、長谷、西丸井、引地、宅熊）", "full": "徳島県美馬郡つるぎ町貞光（浦山、乙部、皆瀬、竹屋敷、長谷、西丸井、引地、宅熊）"}, {"postal_code": "7794103", "postal_hyphen": "779-4103", "pref": "徳島県", "city": "美馬郡つるぎ町", "town": "貞光（江ノ脇、岡、せせらぎ、宮内）", "full": "徳島県美馬郡つるぎ町貞光（江ノ脇、岡、せせらぎ、宮内）"}, {"postal_code": "7794106", "postal_hyphen": "779-4106", "pref": "徳島県", "city": "美馬郡つるぎ町", "town": "貞光（大久保、皆瀬川向、捨子谷南、捨子谷北、谷向、中山、西谷、白村）", "full": "徳島県美馬郡つるぎ町貞光（大久保、皆瀬川向、捨子谷南、捨子谷北、谷向、中山、西谷、白村）"}, {"postal_code": "7794104", "postal_hyphen": "779-4104", "pref": "徳島県", "city": "美馬郡つるぎ町", "town": "貞光（太田西、太田東、太田東山、小長谷、小山北、柴内、柴山、僧地、僧山）", "full": "徳島県美馬郡つるぎ町貞光（太田西、太田東、太田東山、小長谷、小山北、柴内、柴山、僧地、僧山）"}, {"postal_code": "7794108", "postal_hyphen": "779-4108", "pref": "徳島県", "city": "美馬郡つるぎ町", "town": "貞光（川見、川見津、川見西、長瀬、日浦川向、東丸井、三木枋、森ノ本）", "full": "徳島県美馬郡つるぎ町貞光（川見、川見津、川見西、長瀬、日浦川向、東丸井、三木枋、森ノ本）"}, {"postal_code": "7794109", "postal_hyphen": "779-4109", "pref": "徳島県", "city": "美馬郡つるぎ町", "town": "貞光（吉良、木屋、猿飼、成谷、日浦、宮平、横野）", "full": "徳島県美馬郡つるぎ町貞光（吉良、木屋、猿飼、成谷、日浦、宮平、横野）"}, {"postal_code": "7794107", "postal_hyphen": "779-4107", "pref": "徳島県", "city": "美馬郡つるぎ町", "town": "貞光（家賀道上、家賀道下、平野、長木、長木影、広谷、広谷影、広谷東）", "full": "徳島県美馬郡つるぎ町貞光（家賀道上、家賀道下、平野、長木、長木影、広谷、広谷影、広谷東）"}, {"postal_code": "7794102", "postal_hyphen": "779-4102", "pref": "徳島県", "city": "美馬郡つるぎ町", "town": "貞光（大坊、辻、西山、野口、平石、別所、前田）", "full": "徳島県美馬郡つるぎ町貞光（大坊、辻、西山、野口、平石、別所、前田）"}, {"postal_code": "7794404", "postal_hyphen": "779-4404", "pref": "徳島県", "city": "美馬郡つるぎ町", "town": "半田（青野、折坂、小井野、高清、坂根、下尾尻、下竹、上蓮、日谷尾）", "full": "徳島県美馬郡つるぎ町半田（青野、折坂、小井野、高清、坂根、下尾尻、下竹、上蓮、日谷尾）"}, {"postal_code": "7794402", "postal_hyphen": "779-4402", "pref": "徳島県", "city": "美馬郡つるぎ町", "town": "半田（上蔭、蔭名、田井、日浦）", "full": "徳島県美馬郡つるぎ町半田（上蔭、蔭名、田井、日浦）"}, {"postal_code": "7794401", "postal_hyphen": "779-4401", "pref": "徳島県", "city": "美馬郡つるぎ町", "town": "半田（逢坂、小野、天皇、中藪、松生）", "full": "徳島県美馬郡つるぎ町半田（逢坂、小野、天皇、中藪、松生）"}, {"postal_code": "7794406", "postal_hyphen": "779-4406", "pref": "徳島県", "city": "美馬郡つるぎ町", "town": "半田（樫尾、紙屋、小谷、佐古戸、下喜来）", "full": "徳島県美馬郡つるぎ町半田（樫尾、紙屋、小谷、佐古戸、下喜来）"}, {"postal_code": "7794405", "postal_hyphen": "779-4405", "pref": "徳島県", "city": "美馬郡つるぎ町", "town": "半田（葛城、上喜来、中熊、長野、日開野）", "full": "徳島県美馬郡つるぎ町半田（葛城、上喜来、中熊、長野、日開野）"}, {"postal_code": "7794403", "postal_hyphen": "779-4403", "pref": "徳島県", "city": "美馬郡つるぎ町", "town": "半田（木ノ内、京都、猿飼、白石、西久保、東久保、平良石）", "full": "徳島県美馬郡つるぎ町半田（木ノ内、京都、猿飼、白石、西久保、東久保、平良石）"}, {"postal_code": "7794407", "postal_hyphen": "779-4407", "pref": "徳島県", "city": "美馬郡つるぎ町", "town": "半田（東毛田）", "full": "徳島県美馬郡つるぎ町半田（東毛田）"}, {"postal_code": "7794700", "postal_hyphen": "779-4700", "pref": "徳島県", "city": "三好郡東みよし町", "town": "", "full": "徳島県三好郡東みよし町"}, {"postal_code": "7712502", "postal_hyphen": "771-2502", "pref": "徳島県", "city": "三好郡東みよし町", "town": "足代", "full": "徳島県三好郡東みよし町足代"}, {"postal_code": "7794701", "postal_hyphen": "779-4701", "pref": "徳島県", "city": "三好郡東みよし町", "town": "加茂", "full": "徳島県三好郡東みよし町加茂"}, {"postal_code": "7794707", "postal_hyphen": "779-4707", "pref": "徳島県", "city": "三好郡東みよし町", "town": "毛田（大藤）", "full": "徳島県三好郡東みよし町毛田（大藤）"}, {"postal_code": "7794706", "postal_hyphen": "779-4706", "pref": "徳島県", "city": "三好郡東みよし町", "town": "毛田（黒長谷）", "full": "徳島県三好郡東みよし町毛田（黒長谷）"}, {"postal_code": "7794705", "postal_hyphen": "779-4705", "pref": "徳島県", "city": "三好郡東みよし町", "town": "毛田（その他）", "full": "徳島県三好郡東みよし町毛田（その他）"}, {"postal_code": "7794704", "postal_hyphen": "779-4704", "pref": "徳島県", "city": "三好郡東みよし町", "town": "中庄（奥村）", "full": "徳島県三好郡東みよし町中庄（奥村）"}, {"postal_code": "7794703", "postal_hyphen": "779-4703", "pref": "徳島県", "city": "三好郡東みよし町", "town": "中庄（その他）", "full": "徳島県三好郡東みよし町中庄（その他）"}, {"postal_code": "7794702", "postal_hyphen": "779-4702", "pref": "徳島県", "city": "三好郡東みよし町", "town": "西庄", "full": "徳島県三好郡東みよし町西庄"}, {"postal_code": "7712503", "postal_hyphen": "771-2503", "pref": "徳島県", "city": "三好郡東みよし町", "town": "東山", "full": "徳島県三好郡東みよし町東山"}, {"postal_code": "7712501", "postal_hyphen": "771-2501", "pref": "徳島県", "city": "三好郡東みよし町", "town": "昼間", "full": "徳島県三好郡東みよし町昼間"}]