[{"postal_code": "9000000", "postal_hyphen": "900-0000", "pref": "沖縄県", "city": "那覇市", "town": "", "full": "沖縄県那覇市"}, {"postal_code": "9010154", "postal_hyphen": "901-0154", "pref": "沖縄県", "city": "那覇市", "town": "赤嶺", "full": "沖縄県那覇市赤嶺"}, {"postal_code": "9000002", "postal_hyphen": "900-0002", "pref": "沖縄県", "city": "那覇市", "town": "曙", "full": "沖縄県那覇市曙"}, {"postal_code": "9020067", "postal_hyphen": "902-0067", "pref": "沖縄県", "city": "那覇市", "town": "安里", "full": "沖縄県那覇市安里"}, {"postal_code": "9000029", "postal_hyphen": "900-0029", "pref": "沖縄県", "city": "那覇市", "town": "旭町", "full": "沖縄県那覇市旭町"}, {"postal_code": "9010143", "postal_hyphen": "901-0143", "pref": "沖縄県", "city": "那覇市", "town": "安次嶺", "full": "沖縄県那覇市安次嶺"}, {"postal_code": "9000003", "postal_hyphen": "900-0003", "pref": "沖縄県", "city": "那覇市", "town": "安謝", "full": "沖縄県那覇市安謝"}, {"postal_code": "9000005", "postal_hyphen": "900-0005", "pref": "沖縄県", "city": "那覇市", "town": "天久", "full": "沖縄県那覇市天久"}, {"postal_code": "9000021", "postal_hyphen": "900-0021", "pref": "沖縄県", "city": "那覇市", "town": "泉崎", "full": "沖縄県那覇市泉崎"}, {"postal_code": "9000011", "postal_hyphen": "900-0011", "pref": "沖縄県", "city": "那覇市", "town": "上之屋", "full": "沖縄県那覇市上之屋"}, {"postal_code": "9010153", "postal_hyphen": "901-0153", "pref": "沖縄県", "city": "那覇市", "town": "宇栄原", "full": "沖縄県那覇市宇栄原"}, {"postal_code": "9020073", "postal_hyphen": "902-0073", "pref": "沖縄県", "city": "那覇市", "town": "上間", "full": "沖縄県那覇市上間"}, {"postal_code": "9000026", "postal_hyphen": "900-0026", "pref": "沖縄県", "city": "那覇市", "town": "奥武山町", "full": "沖縄県那覇市奥武山町"}, {"postal_code": "9010148", "postal_hyphen": "901-0148", "pref": "沖縄県", "city": "那覇市", "town": "大嶺", "full": "沖縄県那覇市大嶺"}, {"postal_code": "9000006", "postal_hyphen": "900-0006", "pref": "沖縄県", "city": "那覇市", "town": "おもろまち", "full": "沖縄県那覇市おもろまち"}, {"postal_code": "9010152", "postal_hyphen": "901-0152", "pref": "沖縄県", "city": "那覇市", "town": "小禄", "full": "沖縄県那覇市小禄"}, {"postal_code": "9010142", "postal_hyphen": "901-0142", "pref": "沖縄県", "city": "那覇市", "town": "鏡水", "full": "沖縄県那覇市鏡水"}, {"postal_code": "9000028", "postal_hyphen": "900-0028", "pref": "沖縄県", "city": "那覇市", "town": "垣花町", "full": "沖縄県那覇市垣花町"}, {"postal_code": "9010155", "postal_hyphen": "901-0155", "pref": "沖縄県", "city": "那覇市", "town": "金城", "full": "沖縄県那覇市金城"}, {"postal_code": "9010151", "postal_hyphen": "901-0151", "pref": "沖縄県", "city": "那覇市", "town": "鏡原町", "full": "沖縄県那覇市鏡原町"}, {"postal_code": "9010146", "postal_hyphen": "901-0146", "pref": "沖縄県", "city": "那覇市", "town": "具志", "full": "沖縄県那覇市具志"}, {"postal_code": "9000033", "postal_hyphen": "900-0033", "pref": "沖縄県", "city": "那覇市", "town": "久米", "full": "沖縄県那覇市久米"}, {"postal_code": "9000015", "postal_hyphen": "900-0015", "pref": "沖縄県", "city": "那覇市", "town": "久茂地", "full": "沖縄県那覇市久茂地"}, {"postal_code": "9020075", "postal_hyphen": "902-0075", "pref": "沖縄県", "city": "那覇市", "town": "国場", "full": "沖縄県那覇市国場"}, {"postal_code": "9000024", "postal_hyphen": "900-0024", "pref": "沖縄県", "city": "那覇市", "town": "古波蔵", "full": "沖縄県那覇市古波蔵"}, {"postal_code": "9020078", "postal_hyphen": "902-0078", "pref": "沖縄県", "city": "那覇市", "town": "識名", "full": "沖縄県那覇市識名"}, {"postal_code": "9030813", "postal_hyphen": "903-0813", "pref": "沖縄県", "city": "那覇市", "town": "首里赤田町", "full": "沖縄県那覇市首里赤田町"}, {"postal_code": "9030811", "postal_hyphen": "903-0811", "pref": "沖縄県", "city": "那覇市", "town": "首里赤平町", "full": "沖縄県那覇市首里赤平町"}, {"postal_code": "9030824", "postal_hyphen": "903-0824", "pref": "沖縄県", "city": "那覇市", "town": "首里池端町", "full": "沖縄県那覇市首里池端町"}, {"postal_code": "9030804", "postal_hyphen": "903-0804", "pref": "沖縄県", "city": "那覇市", "town": "首里石嶺町", "full": "沖縄県那覇市首里石嶺町"}, {"postal_code": "9030823", "postal_hyphen": "903-0823", "pref": "沖縄県", "city": "那覇市", "town": "首里大中町", "full": "沖縄県那覇市首里大中町"}, {"postal_code": "9030802", "postal_hyphen": "903-0802", "pref": "沖縄県", "city": "那覇市", "town": "首里大名町", "full": "沖縄県那覇市首里大名町"}, {"postal_code": "9030815", "postal_hyphen": "903-0815", "pref": "沖縄県", "city": "那覇市", "town": "首里金城町", "full": "沖縄県那覇市首里金城町"}, {"postal_code": "9030821", "postal_hyphen": "903-0821", "pref": "沖縄県", "city": "那覇市", "town": "首里儀保町", "full": "沖縄県那覇市首里儀保町"}, {"postal_code": "9030807", "postal_hyphen": "903-0807", "pref": "沖縄県", "city": "那覇市", "town": "首里久場川町", "full": "沖縄県那覇市首里久場川町"}, {"postal_code": "9030814", "postal_hyphen": "903-0814", "pref": "沖縄県", "city": "那覇市", "town": "首里崎山町", "full": "沖縄県那覇市首里崎山町"}, {"postal_code": "9030826", "postal_hyphen": "903-0826", "pref": "沖縄県", "city": "那覇市", "town": "首里寒川町", "full": "沖縄県那覇市首里寒川町"}, {"postal_code": "9030801", "postal_hyphen": "903-0801", "pref": "沖縄県", "city": "那覇市", "town": "首里末吉町", "full": "沖縄県那覇市首里末吉町"}, {"postal_code": "9030803", "postal_hyphen": "903-0803", "pref": "沖縄県", "city": "那覇市", "town": "首里平良町", "full": "沖縄県那覇市首里平良町"}, {"postal_code": "9030806", "postal_hyphen": "903-0806", "pref": "沖縄県", "city": "那覇市", "town": "首里汀良町", "full": "沖縄県那覇市首里汀良町"}, {"postal_code": "9030812", "postal_hyphen": "903-0812", "pref": "沖縄県", "city": "那覇市", "town": "首里当蔵町", "full": "沖縄県那覇市首里当蔵町"}, {"postal_code": "9030822", "postal_hyphen": "903-0822", "pref": "沖縄県", "city": "那覇市", "town": "首里桃原町", "full": "沖縄県那覇市首里桃原町"}, {"postal_code": "9030805", "postal_hyphen": "903-0805", "pref": "沖縄県", "city": "那覇市", "town": "首里鳥堀町", "full": "沖縄県那覇市首里鳥堀町"}, {"postal_code": "9030816", "postal_hyphen": "903-0816", "pref": "沖縄県", "city": "那覇市", "town": "首里真和志町", "full": "沖縄県那覇市首里真和志町"}, {"postal_code": "9030825", "postal_hyphen": "903-0825", "pref": "沖縄県", "city": "那覇市", "town": "首里山川町", "full": "沖縄県那覇市首里山川町"}, {"postal_code": "9010141", "postal_hyphen": "901-0141", "pref": "沖縄県", "city": "那覇市", "town": "住吉町", "full": "沖縄県那覇市住吉町"}, {"postal_code": "9000023", "postal_hyphen": "900-0023", "pref": "沖縄県", "city": "那覇市", "town": "楚辺", "full": "沖縄県那覇市楚辺"}, {"postal_code": "9020066", "postal_hyphen": "902-0066", "pref": "沖縄県", "city": "那覇市", "town": "大道", "full": "沖縄県那覇市大道"}, {"postal_code": "9010145", "postal_hyphen": "901-0145", "pref": "沖縄県", "city": "那覇市", "town": "高良", "full": "沖縄県那覇市高良"}, {"postal_code": "9010156", "postal_hyphen": "901-0156", "pref": "沖縄県", "city": "那覇市", "town": "田原", "full": "沖縄県那覇市田原"}, {"postal_code": "9000037", "postal_hyphen": "900-0037", "pref": "沖縄県", "city": "那覇市", "town": "辻", "full": "沖縄県那覇市辻"}, {"postal_code": "9000025", "postal_hyphen": "900-0025", "pref": "沖縄県", "city": "那覇市", "town": "壺川", "full": "沖縄県那覇市壺川"}, {"postal_code": "9020065", "postal_hyphen": "902-0065", "pref": "沖縄県", "city": "那覇市", "town": "壺屋", "full": "沖縄県那覇市壺屋"}, {"postal_code": "9010144", "postal_hyphen": "901-0144", "pref": "沖縄県", "city": "那覇市", "town": "当間", "full": "沖縄県那覇市当間"}, {"postal_code": "9000012", "postal_hyphen": "900-0012", "pref": "沖縄県", "city": "那覇市", "town": "泊", "full": "沖縄県那覇市泊"}, {"postal_code": "9000035", "postal_hyphen": "900-0035", "pref": "沖縄県", "city": "那覇市", "town": "通堂町", "full": "沖縄県那覇市通堂町"}, {"postal_code": "9020074", "postal_hyphen": "902-0074", "pref": "沖縄県", "city": "那覇市", "town": "仲井真", "full": "沖縄県那覇市仲井真"}, {"postal_code": "9020077", "postal_hyphen": "902-0077", "pref": "沖縄県", "city": "那覇市", "town": "長田", "full": "沖縄県那覇市長田"}, {"postal_code": "9000036", "postal_hyphen": "900-0036", "pref": "沖縄県", "city": "那覇市", "town": "西", "full": "沖縄県那覇市西"}, {"postal_code": "9020071", "postal_hyphen": "902-0071", "pref": "沖縄県", "city": "那覇市", "town": "繁多川", "full": "沖縄県那覇市繁多川"}, {"postal_code": "9000034", "postal_hyphen": "900-0034", "pref": "沖縄県", "city": "那覇市", "town": "東町", "full": "沖縄県那覇市東町"}, {"postal_code": "9000022", "postal_hyphen": "900-0022", "pref": "沖縄県", "city": "那覇市", "town": "樋川", "full": "沖縄県那覇市樋川"}, {"postal_code": "9020061", "postal_hyphen": "902-0061", "pref": "沖縄県", "city": "那覇市", "town": "古島", "full": "沖縄県那覇市古島"}, {"postal_code": "9020072", "postal_hyphen": "902-0072", "pref": "沖縄県", "city": "那覇市", "town": "真地", "full": "沖縄県那覇市真地"}, {"postal_code": "9000016", "postal_hyphen": "900-0016", "pref": "沖縄県", "city": "那覇市", "town": "前島", "full": "沖縄県那覇市前島"}, {"postal_code": "9020068", "postal_hyphen": "902-0068", "pref": "沖縄県", "city": "那覇市", "town": "真嘉比", "full": "沖縄県那覇市真嘉比"}, {"postal_code": "9000013", "postal_hyphen": "900-0013", "pref": "沖縄県", "city": "那覇市", "town": "牧志", "full": "沖縄県那覇市牧志"}, {"postal_code": "9000014", "postal_hyphen": "900-0014", "pref": "沖縄県", "city": "那覇市", "town": "松尾", "full": "沖縄県那覇市松尾"}, {"postal_code": "9020062", "postal_hyphen": "902-0062", "pref": "沖縄県", "city": "那覇市", "town": "松川", "full": "沖縄県那覇市松川"}, {"postal_code": "9020069", "postal_hyphen": "902-0069", "pref": "沖縄県", "city": "那覇市", "town": "松島", "full": "沖縄県那覇市松島"}, {"postal_code": "9000032", "postal_hyphen": "900-0032", "pref": "沖縄県", "city": "那覇市", "town": "松山", "full": "沖縄県那覇市松山"}, {"postal_code": "9000001", "postal_hyphen": "900-0001", "pref": "沖縄県", "city": "那覇市", "town": "港町", "full": "沖縄県那覇市港町"}, {"postal_code": "9020063", "postal_hyphen": "902-0063", "pref": "沖縄県", "city": "那覇市", "town": "三原", "full": "沖縄県那覇市三原"}, {"postal_code": "9010147", "postal_hyphen": "901-0147", "pref": "沖縄県", "city": "那覇市", "town": "宮城", "full": "沖縄県那覇市宮城"}, {"postal_code": "9000004", "postal_hyphen": "900-0004", "pref": "沖縄県", "city": "那覇市", "town": "銘苅", "full": "沖縄県那覇市銘苅"}, {"postal_code": "9000027", "postal_hyphen": "900-0027", "pref": "沖縄県", "city": "那覇市", "town": "山下町", "full": "沖縄県那覇市山下町"}, {"postal_code": "9020076", "postal_hyphen": "902-0076", "pref": "沖縄県", "city": "那覇市", "town": "与儀", "full": "沖縄県那覇市与儀"}, {"postal_code": "9020064", "postal_hyphen": "902-0064", "pref": "沖縄県", "city": "那覇市", "town": "寄宮", "full": "沖縄県那覇市寄宮"}, {"postal_code": "9000031", "postal_hyphen": "900-0031", "pref": "沖縄県", "city": "那覇市", "town": "若狭", "full": "沖縄県那覇市若狭"}, {"postal_code": "9012200", "postal_hyphen": "901-2200", "pref": "沖縄県", "city": "宜野湾市", "town": "", "full": "沖縄県宜野湾市"}, {"postal_code": "9012206", "postal_hyphen": "901-2206", "pref": "沖縄県", "city": "宜野湾市", "town": "愛知", "full": "沖縄県宜野湾市愛知"}, {"postal_code": "9012205", "postal_hyphen": "901-2205", "pref": "沖縄県", "city": "宜野湾市", "town": "赤道", "full": "沖縄県宜野湾市赤道"}, {"postal_code": "9012201", "postal_hyphen": "901-2201", "pref": "沖縄県", "city": "宜野湾市", "town": "新城", "full": "沖縄県宜野湾市新城"}, {"postal_code": "9012221", "postal_hyphen": "901-2221", "pref": "沖縄県", "city": "宜野湾市", "town": "伊佐", "full": "沖縄県宜野湾市伊佐"}, {"postal_code": "9012204", "postal_hyphen": "901-2204", "pref": "沖縄県", "city": "宜野湾市", "town": "上原", "full": "沖縄県宜野湾市上原"}, {"postal_code": "9012227", "postal_hyphen": "901-2227", "pref": "沖縄県", "city": "宜野湾市", "town": "宇地泊", "full": "沖縄県宜野湾市宇地泊"}, {"postal_code": "9012225", "postal_hyphen": "901-2225", "pref": "沖縄県", "city": "宜野湾市", "town": "大謝名", "full": "沖縄県宜野湾市大謝名"}, {"postal_code": "9012223", "postal_hyphen": "901-2223", "pref": "沖縄県", "city": "宜野湾市", "town": "大山", "full": "沖縄県宜野湾市大山"}, {"postal_code": "9012226", "postal_hyphen": "901-2226", "pref": "沖縄県", "city": "宜野湾市", "town": "嘉数", "full": "沖縄県宜野湾市嘉数"}, {"postal_code": "9012214", "postal_hyphen": "901-2214", "pref": "沖縄県", "city": "宜野湾市", "town": "我如古", "full": "沖縄県宜野湾市我如古"}, {"postal_code": "9012207", "postal_hyphen": "901-2207", "pref": "沖縄県", "city": "宜野湾市", "town": "神山", "full": "沖縄県宜野湾市神山"}, {"postal_code": "9012211", "postal_hyphen": "901-2211", "pref": "沖縄県", "city": "宜野湾市", "town": "宜野湾", "full": "沖縄県宜野湾市宜野湾"}, {"postal_code": "9012222", "postal_hyphen": "901-2222", "pref": "沖縄県", "city": "宜野湾市", "town": "喜友名", "full": "沖縄県宜野湾市喜友名"}, {"postal_code": "9012216", "postal_hyphen": "901-2216", "pref": "沖縄県", "city": "宜野湾市", "town": "佐真下", "full": "沖縄県宜野湾市佐真下"}, {"postal_code": "9012213", "postal_hyphen": "901-2213", "pref": "沖縄県", "city": "宜野湾市", "town": "志真志", "full": "沖縄県宜野湾市志真志"}, {"postal_code": "9012212", "postal_hyphen": "901-2212", "pref": "沖縄県", "city": "宜野湾市", "town": "長田", "full": "沖縄県宜野湾市長田"}, {"postal_code": "9012203", "postal_hyphen": "901-2203", "pref": "沖縄県", "city": "宜野湾市", "town": "野嵩", "full": "沖縄県宜野湾市野嵩"}, {"postal_code": "9012202", "postal_hyphen": "901-2202", "pref": "沖縄県", "city": "宜野湾市", "town": "普天間", "full": "沖縄県宜野湾市普天間"}, {"postal_code": "9012215", "postal_hyphen": "901-2215", "pref": "沖縄県", "city": "宜野湾市", "town": "真栄原", "full": "沖縄県宜野湾市真栄原"}, {"postal_code": "9012224", "postal_hyphen": "901-2224", "pref": "沖縄県", "city": "宜野湾市", "town": "真志喜", "full": "沖縄県宜野湾市真志喜"}, {"postal_code": "9070000", "postal_hyphen": "907-0000", "pref": "沖縄県", "city": "石垣市", "town": "", "full": "沖縄県石垣市"}, {"postal_code": "9070024", "postal_hyphen": "907-0024", "pref": "沖縄県", "city": "石垣市", "town": "新川", "full": "沖縄県石垣市新川"}, {"postal_code": "9070023", "postal_hyphen": "907-0023", "pref": "沖縄県", "city": "石垣市", "town": "石垣", "full": "沖縄県石垣市石垣"}, {"postal_code": "9070332", "postal_hyphen": "907-0332", "pref": "沖縄県", "city": "石垣市", "town": "伊原間", "full": "沖縄県石垣市伊原間"}, {"postal_code": "9070022", "postal_hyphen": "907-0022", "pref": "沖縄県", "city": "石垣市", "town": "大川", "full": "沖縄県石垣市大川"}, {"postal_code": "9070001", "postal_hyphen": "907-0001", "pref": "沖縄県", "city": "石垣市", "town": "大浜", "full": "沖縄県石垣市大浜"}, {"postal_code": "9070453", "postal_hyphen": "907-0453", "pref": "沖縄県", "city": "石垣市", "town": "川平", "full": "沖縄県石垣市川平"}, {"postal_code": "9070452", "postal_hyphen": "907-0452", "pref": "沖縄県", "city": "石垣市", "town": "崎枝", "full": "沖縄県石垣市崎枝"}, {"postal_code": "9070242", "postal_hyphen": "907-0242", "pref": "沖縄県", "city": "石垣市", "town": "白保", "full": "沖縄県石垣市白保"}, {"postal_code": "9070014", "postal_hyphen": "907-0014", "pref": "沖縄県", "city": "石垣市", "town": "新栄町", "full": "沖縄県石垣市新栄町"}, {"postal_code": "9070241", "postal_hyphen": "907-0241", "pref": "沖縄県", "city": "石垣市", "town": "桃里", "full": "沖縄県石垣市桃里"}, {"postal_code": "9070004", "postal_hyphen": "907-0004", "pref": "沖縄県", "city": "石垣市", "town": "登野城", "full": "沖縄県石垣市登野城"}, {"postal_code": "9070031", "postal_hyphen": "907-0031", "pref": "沖縄県", "city": "石垣市", "town": "登野城尖閣", "full": "沖縄県石垣市登野城尖閣"}, {"postal_code": "9070021", "postal_hyphen": "907-0021", "pref": "沖縄県", "city": "石垣市", "town": "名蔵", "full": "沖縄県石垣市名蔵"}, {"postal_code": "9070333", "postal_hyphen": "907-0333", "pref": "沖縄県", "city": "石垣市", "town": "野底", "full": "沖縄県石垣市野底"}, {"postal_code": "9070015", "postal_hyphen": "907-0015", "pref": "沖縄県", "city": "石垣市", "town": "南ぬ浜町", "full": "沖縄県石垣市南ぬ浜町"}, {"postal_code": "9070013", "postal_hyphen": "907-0013", "pref": "沖縄県", "city": "石垣市", "town": "浜崎町", "full": "沖縄県石垣市浜崎町"}, {"postal_code": "9070003", "postal_hyphen": "907-0003", "pref": "沖縄県", "city": "石垣市", "town": "平得", "full": "沖縄県石垣市平得"}, {"postal_code": "9070331", "postal_hyphen": "907-0331", "pref": "沖縄県", "city": "石垣市", "town": "平久保", "full": "沖縄県石垣市平久保"}, {"postal_code": "9070451", "postal_hyphen": "907-0451", "pref": "沖縄県", "city": "石垣市", "town": "桴海", "full": "沖縄県石垣市桴海"}, {"postal_code": "9070002", "postal_hyphen": "907-0002", "pref": "沖縄県", "city": "石垣市", "town": "真栄里", "full": "沖縄県石垣市真栄里"}, {"postal_code": "9070012", "postal_hyphen": "907-0012", "pref": "沖縄県", "city": "石垣市", "town": "美崎町", "full": "沖縄県石垣市美崎町"}, {"postal_code": "9070243", "postal_hyphen": "907-0243", "pref": "沖縄県", "city": "石垣市", "town": "宮良", "full": "沖縄県石垣市宮良"}, {"postal_code": "9070244", "postal_hyphen": "907-0244", "pref": "沖縄県", "city": "石垣市", "town": "盛山", "full": "沖縄県石垣市盛山"}, {"postal_code": "9070011", "postal_hyphen": "907-0011", "pref": "沖縄県", "city": "石垣市", "town": "八島町", "full": "沖縄県石垣市八島町"}, {"postal_code": "9012100", "postal_hyphen": "901-2100", "pref": "沖縄県", "city": "浦添市", "town": "", "full": "沖縄県浦添市"}, {"postal_code": "9012114", "postal_hyphen": "901-2114", "pref": "沖縄県", "city": "浦添市", "town": "安波茶", "full": "沖縄県浦添市安波茶"}, {"postal_code": "9012132", "postal_hyphen": "901-2132", "pref": "沖縄県", "city": "浦添市", "town": "伊祖", "full": "沖縄県浦添市伊祖"}, {"postal_code": "9012128", "postal_hyphen": "901-2128", "pref": "沖縄県", "city": "浦添市", "town": "伊奈武瀬", "full": "沖縄県浦添市伊奈武瀬"}, {"postal_code": "9012123", "postal_hyphen": "901-2123", "pref": "沖縄県", "city": "浦添市", "town": "西洲", "full": "沖縄県浦添市西洲"}, {"postal_code": "9012121", "postal_hyphen": "901-2121", "pref": "沖縄県", "city": "浦添市", "town": "内間", "full": "沖縄県浦添市内間"}, {"postal_code": "9012113", "postal_hyphen": "901-2113", "pref": "沖縄県", "city": "浦添市", "town": "大平", "full": "沖縄県浦添市大平"}, {"postal_code": "9012111", "postal_hyphen": "901-2111", "pref": "沖縄県", "city": "浦添市", "town": "経塚", "full": "沖縄県浦添市経塚"}, {"postal_code": "9012133", "postal_hyphen": "901-2133", "pref": "沖縄県", "city": "浦添市", "town": "城間", "full": "沖縄県浦添市城間"}, {"postal_code": "9012124", "postal_hyphen": "901-2124", "pref": "沖縄県", "city": "浦添市", "town": "小湾", "full": "沖縄県浦添市小湾"}, {"postal_code": "9012122", "postal_hyphen": "901-2122", "pref": "沖縄県", "city": "浦添市", "town": "勢理客", "full": "沖縄県浦添市勢理客"}, {"postal_code": "9012112", "postal_hyphen": "901-2112", "pref": "沖縄県", "city": "浦添市", "town": "沢岻", "full": "沖縄県浦添市沢岻"}, {"postal_code": "9012104", "postal_hyphen": "901-2104", "pref": "沖縄県", "city": "浦添市", "town": "当山", "full": "沖縄県浦添市当山"}, {"postal_code": "9012103", "postal_hyphen": "901-2103", "pref": "沖縄県", "city": "浦添市", "town": "仲間", "full": "沖縄県浦添市仲間"}, {"postal_code": "9012125", "postal_hyphen": "901-2125", "pref": "沖縄県", "city": "浦添市", "town": "仲西", "full": "沖縄県浦添市仲西"}, {"postal_code": "9012101", "postal_hyphen": "901-2101", "pref": "沖縄県", "city": "浦添市", "town": "西原", "full": "沖縄県浦添市西原"}, {"postal_code": "9012102", "postal_hyphen": "901-2102", "pref": "沖縄県", "city": "浦添市", "town": "前田", "full": "沖縄県浦添市前田"}, {"postal_code": "9012131", "postal_hyphen": "901-2131", "pref": "沖縄県", "city": "浦添市", "town": "牧港", "full": "沖縄県浦添市牧港"}, {"postal_code": "9012134", "postal_hyphen": "901-2134", "pref": "沖縄県", "city": "浦添市", "town": "港川", "full": "沖縄県浦添市港川"}, {"postal_code": "9012126", "postal_hyphen": "901-2126", "pref": "沖縄県", "city": "浦添市", "town": "宮城", "full": "沖縄県浦添市宮城"}, {"postal_code": "9012127", "postal_hyphen": "901-2127", "pref": "沖縄県", "city": "浦添市", "town": "屋富祖", "full": "沖縄県浦添市屋富祖"}, {"postal_code": "9050000", "postal_hyphen": "905-0000", "pref": "沖縄県", "city": "名護市", "town": "", "full": "沖縄県名護市"}, {"postal_code": "9050021", "postal_hyphen": "905-0021", "pref": "沖縄県", "city": "名護市", "town": "東江", "full": "沖縄県名護市東江"}, {"postal_code": "9050003", "postal_hyphen": "905-0003", "pref": "沖縄県", "city": "名護市", "town": "旭川", "full": "沖縄県名護市旭川"}, {"postal_code": "9052263", "postal_hyphen": "905-2263", "pref": "沖縄県", "city": "名護市", "town": "安部", "full": "沖縄県名護市安部"}, {"postal_code": "9050001", "postal_hyphen": "905-0001", "pref": "沖縄県", "city": "名護市", "town": "安和", "full": "沖縄県名護市安和"}, {"postal_code": "9051152", "postal_hyphen": "905-1152", "pref": "沖縄県", "city": "名護市", "town": "伊差川", "full": "沖縄県名護市伊差川"}, {"postal_code": "9051142", "postal_hyphen": "905-1142", "pref": "沖縄県", "city": "名護市", "town": "稲嶺", "full": "沖縄県名護市稲嶺"}, {"postal_code": "9050006", "postal_hyphen": "905-0006", "pref": "沖縄県", "city": "名護市", "town": "宇茂佐", "full": "沖縄県名護市宇茂佐"}, {"postal_code": "9050009", "postal_hyphen": "905-0009", "pref": "沖縄県", "city": "名護市", "town": "宇茂佐の森", "full": "沖縄県名護市宇茂佐の森"}, {"postal_code": "9051634", "postal_hyphen": "905-1634", "pref": "沖縄県", "city": "名護市", "town": "運天原", "full": "沖縄県名護市運天原"}, {"postal_code": "9052267", "postal_hyphen": "905-2267", "pref": "沖縄県", "city": "名護市", "town": "大浦", "full": "沖縄県名護市大浦"}, {"postal_code": "9052268", "postal_hyphen": "905-2268", "pref": "沖縄県", "city": "名護市", "town": "大川", "full": "沖縄県名護市大川"}, {"postal_code": "9050019", "postal_hyphen": "905-0019", "pref": "沖縄県", "city": "名護市", "town": "大北", "full": "沖縄県名護市大北"}, {"postal_code": "9050017", "postal_hyphen": "905-0017", "pref": "沖縄県", "city": "名護市", "town": "大中", "full": "沖縄県名護市大中"}, {"postal_code": "9050018", "postal_hyphen": "905-0018", "pref": "沖縄県", "city": "名護市", "town": "大西", "full": "沖縄県名護市大西"}, {"postal_code": "9050016", "postal_hyphen": "905-0016", "pref": "沖縄県", "city": "名護市", "town": "大東", "full": "沖縄県名護市大東"}, {"postal_code": "9050015", "postal_hyphen": "905-0015", "pref": "沖縄県", "city": "名護市", "town": "大南", "full": "沖縄県名護市大南"}, {"postal_code": "9051146", "postal_hyphen": "905-1146", "pref": "沖縄県", "city": "名護市", "town": "親川", "full": "沖縄県名護市親川"}, {"postal_code": "9050002", "postal_hyphen": "905-0002", "pref": "沖縄県", "city": "名護市", "town": "勝山", "full": "沖縄県名護市勝山"}, {"postal_code": "9051633", "postal_hyphen": "905-1633", "pref": "沖縄県", "city": "名護市", "town": "我部", "full": "沖縄県名護市我部"}, {"postal_code": "9051155", "postal_hyphen": "905-1155", "pref": "沖縄県", "city": "名護市", "town": "我部祖河", "full": "沖縄県名護市我部祖河"}, {"postal_code": "9052262", "postal_hyphen": "905-2262", "pref": "沖縄県", "city": "名護市", "town": "嘉陽", "full": "沖縄県名護市嘉陽"}, {"postal_code": "9051145", "postal_hyphen": "905-1145", "pref": "沖縄県", "city": "名護市", "town": "川上", "full": "沖縄県名護市川上"}, {"postal_code": "9050026", "postal_hyphen": "905-0026", "pref": "沖縄県", "city": "名護市", "town": "喜瀬", "full": "沖縄県名護市喜瀬"}, {"postal_code": "9050024", "postal_hyphen": "905-0024", "pref": "沖縄県", "city": "名護市", "town": "許田", "full": "沖縄県名護市許田"}, {"postal_code": "9052173", "postal_hyphen": "905-2173", "pref": "沖縄県", "city": "名護市", "town": "久志", "full": "沖縄県名護市久志"}, {"postal_code": "9050013", "postal_hyphen": "905-0013", "pref": "沖縄県", "city": "名護市", "town": "城", "full": "沖縄県名護市城"}, {"postal_code": "9051141", "postal_hyphen": "905-1141", "pref": "沖縄県", "city": "名護市", "town": "源河", "full": "沖縄県名護市源河"}, {"postal_code": "9050025", "postal_hyphen": "905-0025", "pref": "沖縄県", "city": "名護市", "town": "幸喜", "full": "沖縄県名護市幸喜"}, {"postal_code": "9051154", "postal_hyphen": "905-1154", "pref": "沖縄県", "city": "名護市", "town": "呉我", "full": "沖縄県名護市呉我"}, {"postal_code": "9051156", "postal_hyphen": "905-1156", "pref": "沖縄県", "city": "名護市", "town": "古我知", "full": "沖縄県名護市古我知"}, {"postal_code": "9050023", "postal_hyphen": "905-0023", "pref": "沖縄県", "city": "名護市", "town": "数久田", "full": "沖縄県名護市数久田"}, {"postal_code": "9051635", "postal_hyphen": "905-1635", "pref": "沖縄県", "city": "名護市", "town": "済井出", "full": "沖縄県名護市済井出"}, {"postal_code": "9052266", "postal_hyphen": "905-2266", "pref": "沖縄県", "city": "名護市", "town": "瀬嵩", "full": "沖縄県名護市瀬嵩"}, {"postal_code": "9051147", "postal_hyphen": "905-1147", "pref": "沖縄県", "city": "名護市", "town": "田井等", "full": "沖縄県名護市田井等"}, {"postal_code": "9052265", "postal_hyphen": "905-2265", "pref": "沖縄県", "city": "名護市", "town": "汀間", "full": "沖縄県名護市汀間"}, {"postal_code": "9052261", "postal_hyphen": "905-2261", "pref": "沖縄県", "city": "名護市", "town": "天仁屋", "full": "沖縄県名護市天仁屋"}, {"postal_code": "9052172", "postal_hyphen": "905-2172", "pref": "沖縄県", "city": "名護市", "town": "豊原", "full": "沖縄県名護市豊原"}, {"postal_code": "9051153", "postal_hyphen": "905-1153", "pref": "沖縄県", "city": "名護市", "town": "仲尾", "full": "沖縄県名護市仲尾"}, {"postal_code": "9051144", "postal_hyphen": "905-1144", "pref": "沖縄県", "city": "名護市", "town": "仲尾次", "full": "沖縄県名護市仲尾次"}, {"postal_code": "9050004", "postal_hyphen": "905-0004", "pref": "沖縄県", "city": "名護市", "town": "中山", "full": "沖縄県名護市中山"}, {"postal_code": "9050012", "postal_hyphen": "905-0012", "pref": "沖縄県", "city": "名護市", "town": "名護", "full": "沖縄県名護市名護"}, {"postal_code": "9050005", "postal_hyphen": "905-0005", "pref": "沖縄県", "city": "名護市", "town": "為又", "full": "沖縄県名護市為又"}, {"postal_code": "9052269", "postal_hyphen": "905-2269", "pref": "沖縄県", "city": "名護市", "town": "二見", "full": "沖縄県名護市二見"}, {"postal_code": "9051151", "postal_hyphen": "905-1151", "pref": "沖縄県", "city": "名護市", "town": "振慶名", "full": "沖縄県名護市振慶名"}, {"postal_code": "9052171", "postal_hyphen": "905-2171", "pref": "沖縄県", "city": "名護市", "town": "辺野古", "full": "沖縄県名護市辺野古"}, {"postal_code": "9051143", "postal_hyphen": "905-1143", "pref": "沖縄県", "city": "名護市", "town": "真喜屋", "full": "沖縄県名護市真喜屋"}, {"postal_code": "9050014", "postal_hyphen": "905-0014", "pref": "沖縄県", "city": "名護市", "town": "港", "full": "沖縄県名護市港"}, {"postal_code": "9052264", "postal_hyphen": "905-2264", "pref": "沖縄県", "city": "名護市", "town": "三原", "full": "沖縄県名護市三原"}, {"postal_code": "9050011", "postal_hyphen": "905-0011", "pref": "沖縄県", "city": "名護市", "town": "宮里", "full": "沖縄県名護市宮里"}, {"postal_code": "9051631", "postal_hyphen": "905-1631", "pref": "沖縄県", "city": "名護市", "town": "屋我", "full": "沖縄県名護市屋我"}, {"postal_code": "9050007", "postal_hyphen": "905-0007", "pref": "沖縄県", "city": "名護市", "town": "屋部", "full": "沖縄県名護市屋部"}, {"postal_code": "9050008", "postal_hyphen": "905-0008", "pref": "沖縄県", "city": "名護市", "town": "山入端", "full": "沖縄県名護市山入端"}, {"postal_code": "9050022", "postal_hyphen": "905-0022", "pref": "沖縄県", "city": "名護市", "town": "世冨慶", "full": "沖縄県名護市世冨慶"}, {"postal_code": "9051632", "postal_hyphen": "905-1632", "pref": "沖縄県", "city": "名護市", "town": "饒平名", "full": "沖縄県名護市饒平名"}, {"postal_code": "9010300", "postal_hyphen": "901-0300", "pref": "沖縄県", "city": "糸満市", "town": "", "full": "沖縄県糸満市"}, {"postal_code": "9010301", "postal_hyphen": "901-0301", "pref": "沖縄県", "city": "糸満市", "town": "阿波根", "full": "沖縄県糸満市阿波根"}, {"postal_code": "9010323", "postal_hyphen": "901-0323", "pref": "沖縄県", "city": "糸満市", "town": "新垣", "full": "沖縄県糸満市新垣"}, {"postal_code": "9010363", "postal_hyphen": "901-0363", "pref": "沖縄県", "city": "糸満市", "town": "伊敷", "full": "沖縄県糸満市伊敷"}, {"postal_code": "9010342", "postal_hyphen": "901-0342", "pref": "沖縄県", "city": "糸満市", "town": "糸洲", "full": "沖縄県糸満市糸洲"}, {"postal_code": "9010361", "postal_hyphen": "901-0361", "pref": "沖縄県", "city": "糸満市", "town": "糸満", "full": "沖縄県糸満市糸満"}, {"postal_code": "9010344", "postal_hyphen": "901-0344", "pref": "沖縄県", "city": "糸満市", "town": "伊原", "full": "沖縄県糸満市伊原"}, {"postal_code": "9010332", "postal_hyphen": "901-0332", "pref": "沖縄県", "city": "糸満市", "town": "宇江城", "full": "沖縄県糸満市宇江城"}, {"postal_code": "9010325", "postal_hyphen": "901-0325", "pref": "沖縄県", "city": "糸満市", "town": "大里", "full": "沖縄県糸満市大里"}, {"postal_code": "9010334", "postal_hyphen": "901-0334", "pref": "沖縄県", "city": "糸満市", "town": "大度", "full": "沖縄県糸満市大度"}, {"postal_code": "9010313", "postal_hyphen": "901-0313", "pref": "沖縄県", "city": "糸満市", "town": "賀数", "full": "沖縄県糸満市賀数"}, {"postal_code": "9010303", "postal_hyphen": "901-0303", "pref": "沖縄県", "city": "糸満市", "town": "兼城", "full": "沖縄県糸満市兼城"}, {"postal_code": "9010312", "postal_hyphen": "901-0312", "pref": "沖縄県", "city": "糸満市", "town": "北波平", "full": "沖縄県糸満市北波平"}, {"postal_code": "9010354", "postal_hyphen": "901-0354", "pref": "沖縄県", "city": "糸満市", "town": "喜屋武", "full": "沖縄県糸満市喜屋武"}, {"postal_code": "9010324", "postal_hyphen": "901-0324", "pref": "沖縄県", "city": "糸満市", "town": "国吉", "full": "沖縄県糸満市国吉"}, {"postal_code": "9010341", "postal_hyphen": "901-0341", "pref": "沖縄県", "city": "糸満市", "town": "小波蔵", "full": "沖縄県糸満市小波蔵"}, {"postal_code": "9010335", "postal_hyphen": "901-0335", "pref": "沖縄県", "city": "糸満市", "town": "米須", "full": "沖縄県糸満市米須"}, {"postal_code": "9010314", "postal_hyphen": "901-0314", "pref": "沖縄県", "city": "糸満市", "town": "座波", "full": "沖縄県糸満市座波"}, {"postal_code": "9010364", "postal_hyphen": "901-0364", "pref": "沖縄県", "city": "糸満市", "town": "潮崎町", "full": "沖縄県糸満市潮崎町"}, {"postal_code": "9010302", "postal_hyphen": "901-0302", "pref": "沖縄県", "city": "糸満市", "town": "潮平", "full": "沖縄県糸満市潮平"}, {"postal_code": "9010311", "postal_hyphen": "901-0311", "pref": "沖縄県", "city": "糸満市", "town": "武富", "full": "沖縄県糸満市武富"}, {"postal_code": "9010353", "postal_hyphen": "901-0353", "pref": "沖縄県", "city": "糸満市", "town": "束里", "full": "沖縄県糸満市束里"}, {"postal_code": "9010315", "postal_hyphen": "901-0315", "pref": "沖縄県", "city": "糸満市", "town": "照屋", "full": "沖縄県糸満市照屋"}, {"postal_code": "9010321", "postal_hyphen": "901-0321", "pref": "沖縄県", "city": "糸満市", "town": "豊原", "full": "沖縄県糸満市豊原"}, {"postal_code": "9010351", "postal_hyphen": "901-0351", "pref": "沖縄県", "city": "糸満市", "town": "名城", "full": "沖縄県糸満市名城"}, {"postal_code": "9010304", "postal_hyphen": "901-0304", "pref": "沖縄県", "city": "糸満市", "town": "西川町", "full": "沖縄県糸満市西川町"}, {"postal_code": "9010305", "postal_hyphen": "901-0305", "pref": "沖縄県", "city": "糸満市", "town": "西崎", "full": "沖縄県糸満市西崎"}, {"postal_code": "9010306", "postal_hyphen": "901-0306", "pref": "沖縄県", "city": "糸満市", "town": "西崎町", "full": "沖縄県糸満市西崎町"}, {"postal_code": "9010345", "postal_hyphen": "901-0345", "pref": "沖縄県", "city": "糸満市", "town": "福地", "full": "沖縄県糸満市福地"}, {"postal_code": "9010362", "postal_hyphen": "901-0362", "pref": "沖縄県", "city": "糸満市", "town": "真栄里", "full": "沖縄県糸満市真栄里"}, {"postal_code": "9010331", "postal_hyphen": "901-0331", "pref": "沖縄県", "city": "糸満市", "town": "真栄平", "full": "沖縄県糸満市真栄平"}, {"postal_code": "9010336", "postal_hyphen": "901-0336", "pref": "沖縄県", "city": "糸満市", "town": "真壁", "full": "沖縄県糸満市真壁"}, {"postal_code": "9010333", "postal_hyphen": "901-0333", "pref": "沖縄県", "city": "糸満市", "town": "摩文仁", "full": "沖縄県糸満市摩文仁"}, {"postal_code": "9010343", "postal_hyphen": "901-0343", "pref": "沖縄県", "city": "糸満市", "town": "南波平", "full": "沖縄県糸満市南波平"}, {"postal_code": "9010352", "postal_hyphen": "901-0352", "pref": "沖縄県", "city": "糸満市", "town": "山城", "full": "沖縄県糸満市山城"}, {"postal_code": "9010322", "postal_hyphen": "901-0322", "pref": "沖縄県", "city": "糸満市", "town": "与座", "full": "沖縄県糸満市与座"}, {"postal_code": "9040000", "postal_hyphen": "904-0000", "pref": "沖縄県", "city": "沖縄市", "town": "", "full": "沖縄県沖縄市"}, {"postal_code": "9042152", "postal_hyphen": "904-2152", "pref": "沖縄県", "city": "沖縄市", "town": "明道", "full": "沖縄県沖縄市明道"}, {"postal_code": "9040012", "postal_hyphen": "904-0012", "pref": "沖縄県", "city": "沖縄市", "town": "安慶田", "full": "沖縄県沖縄市安慶田"}, {"postal_code": "9042172", "postal_hyphen": "904-2172", "pref": "沖縄県", "city": "沖縄市", "town": "泡瀬", "full": "沖縄県沖縄市泡瀬"}, {"postal_code": "9042141", "postal_hyphen": "904-2141", "pref": "沖縄県", "city": "沖縄市", "town": "池原", "full": "沖縄県沖縄市池原"}, {"postal_code": "9040031", "postal_hyphen": "904-0031", "pref": "沖縄県", "city": "沖縄市", "town": "上地", "full": "沖縄県沖縄市上地"}, {"postal_code": "9042163", "postal_hyphen": "904-2163", "pref": "沖縄県", "city": "沖縄市", "town": "大里", "full": "沖縄県沖縄市大里"}, {"postal_code": "9042162", "postal_hyphen": "904-2162", "pref": "沖縄県", "city": "沖縄市", "town": "海邦", "full": "沖縄県沖縄市海邦"}, {"postal_code": "9042162", "postal_hyphen": "904-2162", "pref": "沖縄県", "city": "沖縄市", "town": "海邦町", "full": "沖縄県沖縄市海邦町"}, {"postal_code": "9040005", "postal_hyphen": "904-0005", "pref": "沖縄県", "city": "沖縄市", "town": "嘉間良", "full": "沖縄県沖縄市嘉間良"}, {"postal_code": "9040023", "postal_hyphen": "904-0023", "pref": "沖縄県", "city": "沖縄市", "town": "久保田", "full": "沖縄県沖縄市久保田"}, {"postal_code": "9042145", "postal_hyphen": "904-2145", "pref": "沖縄県", "city": "沖縄市", "town": "倉敷", "full": "沖縄県沖縄市倉敷"}, {"postal_code": "9042161", "postal_hyphen": "904-2161", "pref": "沖縄県", "city": "沖縄市", "town": "古謝", "full": "沖縄県沖縄市古謝"}, {"postal_code": "9042166", "postal_hyphen": "904-2166", "pref": "沖縄県", "city": "沖縄市", "town": "古謝津嘉山町", "full": "沖縄県沖縄市古謝津嘉山町"}, {"postal_code": "9040001", "postal_hyphen": "904-0001", "pref": "沖縄県", "city": "沖縄市", "town": "越来", "full": "沖縄県沖縄市越来"}, {"postal_code": "9040021", "postal_hyphen": "904-0021", "pref": "沖縄県", "city": "沖縄市", "town": "胡屋", "full": "沖縄県沖縄市胡屋"}, {"postal_code": "9042175", "postal_hyphen": "904-2175", "pref": "沖縄県", "city": "沖縄市", "town": "潮乃森", "full": "沖縄県沖縄市潮乃森"}, {"postal_code": "9042144", "postal_hyphen": "904-2144", "pref": "沖縄県", "city": "沖縄市", "town": "白川", "full": "沖縄県沖縄市白川"}, {"postal_code": "9040002", "postal_hyphen": "904-0002", "pref": "沖縄県", "city": "沖縄市", "town": "城前町", "full": "沖縄県沖縄市城前町"}, {"postal_code": "9040003", "postal_hyphen": "904-0003", "pref": "沖縄県", "city": "沖縄市", "town": "住吉", "full": "沖縄県沖縄市住吉"}, {"postal_code": "9040022", "postal_hyphen": "904-0022", "pref": "沖縄県", "city": "沖縄市", "town": "園田", "full": "沖縄県沖縄市園田"}, {"postal_code": "9042171", "postal_hyphen": "904-2171", "pref": "沖縄県", "city": "沖縄市", "town": "高原", "full": "沖縄県沖縄市高原"}, {"postal_code": "9042143", "postal_hyphen": "904-2143", "pref": "沖縄県", "city": "沖縄市", "town": "知花", "full": "沖縄県沖縄市知花"}, {"postal_code": "9040004", "postal_hyphen": "904-0004", "pref": "沖縄県", "city": "沖縄市", "town": "中央", "full": "沖縄県沖縄市中央"}, {"postal_code": "9040011", "postal_hyphen": "904-0011", "pref": "沖縄県", "city": "沖縄市", "town": "照屋", "full": "沖縄県沖縄市照屋"}, {"postal_code": "9042164", "postal_hyphen": "904-2164", "pref": "沖縄県", "city": "沖縄市", "town": "桃原", "full": "沖縄県沖縄市桃原"}, {"postal_code": "9040014", "postal_hyphen": "904-0014", "pref": "沖縄県", "city": "沖縄市", "town": "仲宗根町", "full": "沖縄県沖縄市仲宗根町"}, {"postal_code": "9042142", "postal_hyphen": "904-2142", "pref": "沖縄県", "city": "沖縄市", "town": "登川", "full": "沖縄県沖縄市登川"}, {"postal_code": "9042154", "postal_hyphen": "904-2154", "pref": "沖縄県", "city": "沖縄市", "town": "東", "full": "沖縄県沖縄市東"}, {"postal_code": "9042173", "postal_hyphen": "904-2173", "pref": "沖縄県", "city": "沖縄市", "town": "比屋根", "full": "沖縄県沖縄市比屋根"}, {"postal_code": "9042151", "postal_hyphen": "904-2151", "pref": "沖縄県", "city": "沖縄市", "town": "松本", "full": "沖縄県沖縄市松本"}, {"postal_code": "9042153", "postal_hyphen": "904-2153", "pref": "沖縄県", "city": "沖縄市", "town": "美里", "full": "沖縄県沖縄市美里"}, {"postal_code": "9042156", "postal_hyphen": "904-2156", "pref": "沖縄県", "city": "沖縄市", "town": "美里仲原町", "full": "沖縄県沖縄市美里仲原町"}, {"postal_code": "9040035", "postal_hyphen": "904-0035", "pref": "沖縄県", "city": "沖縄市", "town": "南桃原", "full": "沖縄県沖縄市南桃原"}, {"postal_code": "9042155", "postal_hyphen": "904-2155", "pref": "沖縄県", "city": "沖縄市", "town": "美原", "full": "沖縄県沖縄市美原"}, {"postal_code": "9042165", "postal_hyphen": "904-2165", "pref": "沖縄県", "city": "沖縄市", "town": "宮里", "full": "沖縄県沖縄市宮里"}, {"postal_code": "9040013", "postal_hyphen": "904-0013", "pref": "沖縄県", "city": "沖縄市", "town": "室川", "full": "沖縄県沖縄市室川"}, {"postal_code": "9040032", "postal_hyphen": "904-0032", "pref": "沖縄県", "city": "沖縄市", "town": "諸見里", "full": "沖縄県沖縄市諸見里"}, {"postal_code": "9040006", "postal_hyphen": "904-0006", "pref": "沖縄県", "city": "沖縄市", "town": "八重島", "full": "沖縄県沖縄市八重島"}, {"postal_code": "9040034", "postal_hyphen": "904-0034", "pref": "沖縄県", "city": "沖縄市", "town": "山内", "full": "沖縄県沖縄市山内"}, {"postal_code": "9040033", "postal_hyphen": "904-0033", "pref": "沖縄県", "city": "沖縄市", "town": "山里", "full": "沖縄県沖縄市山里"}, {"postal_code": "9042174", "postal_hyphen": "904-2174", "pref": "沖縄県", "city": "沖縄市", "town": "与儀", "full": "沖縄県沖縄市与儀"}, {"postal_code": "9010200", "postal_hyphen": "901-0200", "pref": "沖縄県", "city": "豊見城市", "town": "", "full": "沖縄県豊見城市"}, {"postal_code": "9010232", "postal_hyphen": "901-0232", "pref": "沖縄県", "city": "豊見城市", "town": "伊良波", "full": "沖縄県豊見城市伊良波"}, {"postal_code": "9010243", "postal_hyphen": "901-0243", "pref": "沖縄県", "city": "豊見城市", "town": "上田", "full": "沖縄県豊見城市上田"}, {"postal_code": "9010223", "postal_hyphen": "901-0223", "pref": "沖縄県", "city": "豊見城市", "town": "翁長", "full": "沖縄県豊見城市翁長"}, {"postal_code": "9010202", "postal_hyphen": "901-0202", "pref": "沖縄県", "city": "豊見城市", "town": "嘉数", "full": "沖縄県豊見城市嘉数"}, {"postal_code": "9010231", "postal_hyphen": "901-0231", "pref": "沖縄県", "city": "豊見城市", "town": "我那覇", "full": "沖縄県豊見城市我那覇"}, {"postal_code": "9010204", "postal_hyphen": "901-0204", "pref": "沖縄県", "city": "豊見城市", "town": "金良", "full": "沖縄県豊見城市金良"}, {"postal_code": "9010244", "postal_hyphen": "901-0244", "pref": "沖縄県", "city": "豊見城市", "town": "宜保", "full": "沖縄県豊見城市宜保"}, {"postal_code": "9010221", "postal_hyphen": "901-0221", "pref": "沖縄県", "city": "豊見城市", "town": "座安", "full": "沖縄県豊見城市座安"}, {"postal_code": "9010233", "postal_hyphen": "901-0233", "pref": "沖縄県", "city": "豊見城市", "town": "瀬長", "full": "沖縄県豊見城市瀬長"}, {"postal_code": "9010212", "postal_hyphen": "901-0212", "pref": "沖縄県", "city": "豊見城市", "town": "平良", "full": "沖縄県豊見城市平良"}, {"postal_code": "9010213", "postal_hyphen": "901-0213", "pref": "沖縄県", "city": "豊見城市", "town": "高嶺", "full": "沖縄県豊見城市高嶺"}, {"postal_code": "9010242", "postal_hyphen": "901-0242", "pref": "沖縄県", "city": "豊見城市", "town": "高安", "full": "沖縄県豊見城市高安"}, {"postal_code": "9010234", "postal_hyphen": "901-0234", "pref": "沖縄県", "city": "豊見城市", "town": "田頭", "full": "沖縄県豊見城市田頭"}, {"postal_code": "9010215", "postal_hyphen": "901-0215", "pref": "沖縄県", "city": "豊見城市", "town": "渡嘉敷", "full": "沖縄県豊見城市渡嘉敷"}, {"postal_code": "9010222", "postal_hyphen": "901-0222", "pref": "沖縄県", "city": "豊見城市", "town": "渡橋名", "full": "沖縄県豊見城市渡橋名"}, {"postal_code": "9010241", "postal_hyphen": "901-0241", "pref": "沖縄県", "city": "豊見城市", "town": "豊見城", "full": "沖縄県豊見城市豊見城"}, {"postal_code": "9010225", "postal_hyphen": "901-0225", "pref": "沖縄県", "city": "豊見城市", "town": "豊崎", "full": "沖縄県豊見城市豊崎"}, {"postal_code": "9010235", "postal_hyphen": "901-0235", "pref": "沖縄県", "city": "豊見城市", "town": "名嘉地", "full": "沖縄県豊見城市名嘉地"}, {"postal_code": "9010203", "postal_hyphen": "901-0203", "pref": "沖縄県", "city": "豊見城市", "town": "長堂", "full": "沖縄県豊見城市長堂"}, {"postal_code": "9010205", "postal_hyphen": "901-0205", "pref": "沖縄県", "city": "豊見城市", "town": "根差部", "full": "沖縄県豊見城市根差部"}, {"postal_code": "9010211", "postal_hyphen": "901-0211", "pref": "沖縄県", "city": "豊見城市", "town": "饒波", "full": "沖縄県豊見城市饒波"}, {"postal_code": "9010214", "postal_hyphen": "901-0214", "pref": "沖縄県", "city": "豊見城市", "town": "保栄茂", "full": "沖縄県豊見城市保栄茂"}, {"postal_code": "9010201", "postal_hyphen": "901-0201", "pref": "沖縄県", "city": "豊見城市", "town": "真玉橋", "full": "沖縄県豊見城市真玉橋"}, {"postal_code": "9010224", "postal_hyphen": "901-0224", "pref": "沖縄県", "city": "豊見城市", "town": "与根", "full": "沖縄県豊見城市与根"}, {"postal_code": "9042200", "postal_hyphen": "904-2200", "pref": "沖縄県", "city": "うるま市", "town": "", "full": "沖縄県うるま市"}, {"postal_code": "9042212", "postal_hyphen": "904-2212", "pref": "沖縄県", "city": "うるま市", "town": "赤野", "full": "沖縄県うるま市赤野"}, {"postal_code": "9042245", "postal_hyphen": "904-2245", "pref": "沖縄県", "city": "うるま市", "town": "赤道", "full": "沖縄県うるま市赤道"}, {"postal_code": "9042214", "postal_hyphen": "904-2214", "pref": "沖縄県", "city": "うるま市", "town": "安慶名", "full": "沖縄県うるま市安慶名"}, {"postal_code": "9041106", "postal_hyphen": "904-1106", "pref": "沖縄県", "city": "うるま市", "town": "石川", "full": "沖縄県うるま市石川"}, {"postal_code": "9041103", "postal_hyphen": "904-1103", "pref": "沖縄県", "city": "うるま市", "town": "石川赤崎", "full": "沖縄県うるま市石川赤崎"}, {"postal_code": "9041102", "postal_hyphen": "904-1102", "pref": "沖縄県", "city": "うるま市", "town": "石川東山", "full": "沖縄県うるま市石川東山"}, {"postal_code": "9041101", "postal_hyphen": "904-1101", "pref": "沖縄県", "city": "うるま市", "town": "石川東山本町", "full": "沖縄県うるま市石川東山本町"}, {"postal_code": "9041107", "postal_hyphen": "904-1107", "pref": "沖縄県", "city": "うるま市", "town": "石川曙", "full": "沖縄県うるま市石川曙"}, {"postal_code": "9041104", "postal_hyphen": "904-1104", "pref": "沖縄県", "city": "うるま市", "town": "石川石崎", "full": "沖縄県うるま市石川石崎"}, {"postal_code": "9041115", "postal_hyphen": "904-1115", "pref": "沖縄県", "city": "うるま市", "town": "石川伊波", "full": "沖縄県うるま市石川伊波"}, {"postal_code": "9041114", "postal_hyphen": "904-1114", "pref": "沖縄県", "city": "うるま市", "town": "石川嘉手苅", "full": "沖縄県うるま市石川嘉手苅"}, {"postal_code": "9041105", "postal_hyphen": "904-1105", "pref": "沖縄県", "city": "うるま市", "town": "石川白浜", "full": "沖縄県うるま市石川白浜"}, {"postal_code": "9041112", "postal_hyphen": "904-1112", "pref": "沖縄県", "city": "うるま市", "town": "石川楚南", "full": "沖縄県うるま市石川楚南"}, {"postal_code": "9041111", "postal_hyphen": "904-1111", "pref": "沖縄県", "city": "うるま市", "town": "石川東恩納", "full": "沖縄県うるま市石川東恩納"}, {"postal_code": "9041108", "postal_hyphen": "904-1108", "pref": "沖縄県", "city": "うるま市", "town": "石川東恩納崎", "full": "沖縄県うるま市石川東恩納崎"}, {"postal_code": "9041113", "postal_hyphen": "904-1113", "pref": "沖縄県", "city": "うるま市", "town": "石川山城", "full": "沖縄県うるま市石川山城"}, {"postal_code": "9042204", "postal_hyphen": "904-2204", "pref": "沖縄県", "city": "うるま市", "town": "西原", "full": "沖縄県うるま市西原"}, {"postal_code": "9042222", "postal_hyphen": "904-2222", "pref": "沖縄県", "city": "うるま市", "town": "上江洲", "full": "沖縄県うるま市上江洲"}, {"postal_code": "9042211", "postal_hyphen": "904-2211", "pref": "沖縄県", "city": "うるま市", "town": "宇堅", "full": "沖縄県うるま市宇堅"}, {"postal_code": "9042244", "postal_hyphen": "904-2244", "pref": "沖縄県", "city": "うるま市", "town": "江洲", "full": "沖縄県うるま市江洲"}, {"postal_code": "9042205", "postal_hyphen": "904-2205", "pref": "沖縄県", "city": "うるま市", "town": "栄野比", "full": "沖縄県うるま市栄野比"}, {"postal_code": "9042224", "postal_hyphen": "904-2224", "pref": "沖縄県", "city": "うるま市", "town": "大田", "full": "沖縄県うるま市大田"}, {"postal_code": "9042313", "postal_hyphen": "904-2313", "pref": "沖縄県", "city": "うるま市", "town": "勝連内間", "full": "沖縄県うるま市勝連内間"}, {"postal_code": "9042317", "postal_hyphen": "904-2317", "pref": "沖縄県", "city": "うるま市", "town": "勝連津堅", "full": "沖縄県うるま市勝連津堅"}, {"postal_code": "9042311", "postal_hyphen": "904-2311", "pref": "沖縄県", "city": "うるま市", "town": "勝連南風原", "full": "沖縄県うるま市勝連南風原"}, {"postal_code": "9042315", "postal_hyphen": "904-2315", "pref": "沖縄県", "city": "うるま市", "town": "勝連浜", "full": "沖縄県うるま市勝連浜"}, {"postal_code": "9042316", "postal_hyphen": "904-2316", "pref": "沖縄県", "city": "うるま市", "town": "勝連比嘉", "full": "沖縄県うるま市勝連比嘉"}, {"postal_code": "9042314", "postal_hyphen": "904-2314", "pref": "沖縄県", "city": "うるま市", "town": "勝連平敷屋", "full": "沖縄県うるま市勝連平敷屋"}, {"postal_code": "9042312", "postal_hyphen": "904-2312", "pref": "沖縄県", "city": "うるま市", "town": "勝連平安名", "full": "沖縄県うるま市勝連平安名"}, {"postal_code": "9042241", "postal_hyphen": "904-2241", "pref": "沖縄県", "city": "うるま市", "town": "兼箇段", "full": "沖縄県うるま市兼箇段"}, {"postal_code": "9042203", "postal_hyphen": "904-2203", "pref": "沖縄県", "city": "うるま市", "town": "川崎", "full": "沖縄県うるま市川崎"}, {"postal_code": "9042232", "postal_hyphen": "904-2232", "pref": "沖縄県", "city": "うるま市", "town": "川田", "full": "沖縄県うるま市川田"}, {"postal_code": "9042236", "postal_hyphen": "904-2236", "pref": "沖縄県", "city": "うるま市", "town": "喜仲", "full": "沖縄県うるま市喜仲"}, {"postal_code": "9042225", "postal_hyphen": "904-2225", "pref": "沖縄県", "city": "うるま市", "town": "喜屋武", "full": "沖縄県うるま市喜屋武"}, {"postal_code": "9042223", "postal_hyphen": "904-2223", "pref": "沖縄県", "city": "うるま市", "town": "具志川", "full": "沖縄県うるま市具志川"}, {"postal_code": "9042201", "postal_hyphen": "904-2201", "pref": "沖縄県", "city": "うるま市", "town": "昆布", "full": "沖縄県うるま市昆布"}, {"postal_code": "9042231", "postal_hyphen": "904-2231", "pref": "沖縄県", "city": "うるま市", "town": "塩屋", "full": "沖縄県うるま市塩屋"}, {"postal_code": "9042234", "postal_hyphen": "904-2234", "pref": "沖縄県", "city": "うるま市", "town": "州崎", "full": "沖縄県うるま市州崎"}, {"postal_code": "9042221", "postal_hyphen": "904-2221", "pref": "沖縄県", "city": "うるま市", "town": "平良川", "full": "沖縄県うるま市平良川"}, {"postal_code": "9042242", "postal_hyphen": "904-2242", "pref": "沖縄県", "city": "うるま市", "town": "高江洲", "full": "沖縄県うるま市高江洲"}, {"postal_code": "9042213", "postal_hyphen": "904-2213", "pref": "沖縄県", "city": "うるま市", "town": "田場", "full": "沖縄県うるま市田場"}, {"postal_code": "9042202", "postal_hyphen": "904-2202", "pref": "沖縄県", "city": "うるま市", "town": "天願", "full": "沖縄県うるま市天願"}, {"postal_code": "9042233", "postal_hyphen": "904-2233", "pref": "沖縄県", "city": "うるま市", "town": "豊原", "full": "沖縄県うるま市豊原"}, {"postal_code": "9042226", "postal_hyphen": "904-2226", "pref": "沖縄県", "city": "うるま市", "town": "仲嶺", "full": "沖縄県うるま市仲嶺"}, {"postal_code": "9042235", "postal_hyphen": "904-2235", "pref": "沖縄県", "city": "うるま市", "town": "前原", "full": "沖縄県うるま市前原"}, {"postal_code": "9042215", "postal_hyphen": "904-2215", "pref": "沖縄県", "city": "うるま市", "town": "みどり町", "full": "沖縄県うるま市みどり町"}, {"postal_code": "9042243", "postal_hyphen": "904-2243", "pref": "沖縄県", "city": "うるま市", "town": "宮里", "full": "沖縄県うるま市宮里"}, {"postal_code": "9042303", "postal_hyphen": "904-2303", "pref": "沖縄県", "city": "うるま市", "town": "与那城", "full": "沖縄県うるま市与那城"}, {"postal_code": "9042306", "postal_hyphen": "904-2306", "pref": "沖縄県", "city": "うるま市", "town": "与那城安勢理", "full": "沖縄県うるま市与那城安勢理"}, {"postal_code": "9042421", "postal_hyphen": "904-2421", "pref": "沖縄県", "city": "うるま市", "town": "与那城伊計", "full": "沖縄県うるま市与那城伊計"}, {"postal_code": "9042422", "postal_hyphen": "904-2422", "pref": "沖縄県", "city": "うるま市", "town": "与那城池味", "full": "沖縄県うるま市与那城池味"}, {"postal_code": "9042424", "postal_hyphen": "904-2424", "pref": "沖縄県", "city": "うるま市", "town": "与那城上原", "full": "沖縄県うるま市与那城上原"}, {"postal_code": "9042305", "postal_hyphen": "904-2305", "pref": "沖縄県", "city": "うるま市", "town": "与那城中央", "full": "沖縄県うるま市与那城中央"}, {"postal_code": "9042301", "postal_hyphen": "904-2301", "pref": "沖縄県", "city": "うるま市", "town": "与那城照間", "full": "沖縄県うるま市与那城照間"}, {"postal_code": "9042425", "postal_hyphen": "904-2425", "pref": "沖縄県", "city": "うるま市", "town": "与那城桃原", "full": "沖縄県うるま市与那城桃原"}, {"postal_code": "9042302", "postal_hyphen": "904-2302", "pref": "沖縄県", "city": "うるま市", "town": "与那城西原", "full": "沖縄県うるま市与那城西原"}, {"postal_code": "9042307", "postal_hyphen": "904-2307", "pref": "沖縄県", "city": "うるま市", "town": "与那城饒辺", "full": "沖縄県うるま市与那城饒辺"}, {"postal_code": "9042428", "postal_hyphen": "904-2428", "pref": "沖縄県", "city": "うるま市", "town": "与那城平宮", "full": "沖縄県うるま市与那城平宮"}, {"postal_code": "9042426", "postal_hyphen": "904-2426", "pref": "沖縄県", "city": "うるま市", "town": "与那城平安座", "full": "沖縄県うるま市与那城平安座"}, {"postal_code": "9042423", "postal_hyphen": "904-2423", "pref": "沖縄県", "city": "うるま市", "town": "与那城宮城", "full": "沖縄県うるま市与那城宮城"}, {"postal_code": "9042304", "postal_hyphen": "904-2304", "pref": "沖縄県", "city": "うるま市", "town": "与那城屋慶名", "full": "沖縄県うるま市与那城屋慶名"}, {"postal_code": "9042427", "postal_hyphen": "904-2427", "pref": "沖縄県", "city": "うるま市", "town": "与那城屋平", "full": "沖縄県うるま市与那城屋平"}, {"postal_code": "9060000", "postal_hyphen": "906-0000", "pref": "沖縄県", "city": "宮古島市", "town": "", "full": "沖縄県宮古島市"}, {"postal_code": "9060502", "postal_hyphen": "906-0502", "pref": "沖縄県", "city": "宮古島市", "town": "伊良部池間添", "full": "沖縄県宮古島市伊良部池間添"}, {"postal_code": "9060503", "postal_hyphen": "906-0503", "pref": "沖縄県", "city": "宮古島市", "town": "伊良部伊良部", "full": "沖縄県宮古島市伊良部伊良部"}, {"postal_code": "9060505", "postal_hyphen": "906-0505", "pref": "沖縄県", "city": "宮古島市", "town": "伊良部国仲", "full": "沖縄県宮古島市伊良部国仲"}, {"postal_code": "9060507", "postal_hyphen": "906-0507", "pref": "沖縄県", "city": "宮古島市", "town": "伊良部佐和田", "full": "沖縄県宮古島市伊良部佐和田"}, {"postal_code": "9060504", "postal_hyphen": "906-0504", "pref": "沖縄県", "city": "宮古島市", "town": "伊良部仲地", "full": "沖縄県宮古島市伊良部仲地"}, {"postal_code": "9060506", "postal_hyphen": "906-0506", "pref": "沖縄県", "city": "宮古島市", "town": "伊良部長浜", "full": "沖縄県宮古島市伊良部長浜"}, {"postal_code": "9060501", "postal_hyphen": "906-0501", "pref": "沖縄県", "city": "宮古島市", "town": "伊良部前里添", "full": "沖縄県宮古島市伊良部前里添"}, {"postal_code": "9060204", "postal_hyphen": "906-0204", "pref": "沖縄県", "city": "宮古島市", "town": "上野上野", "full": "沖縄県宮古島市上野上野"}, {"postal_code": "9060202", "postal_hyphen": "906-0202", "pref": "沖縄県", "city": "宮古島市", "town": "上野新里", "full": "沖縄県宮古島市上野新里"}, {"postal_code": "9060201", "postal_hyphen": "906-0201", "pref": "沖縄県", "city": "宮古島市", "town": "上野野原", "full": "沖縄県宮古島市上野野原"}, {"postal_code": "9060203", "postal_hyphen": "906-0203", "pref": "沖縄県", "city": "宮古島市", "town": "上野宮国", "full": "沖縄県宮古島市上野宮国"}, {"postal_code": "9060102", "postal_hyphen": "906-0102", "pref": "沖縄県", "city": "宮古島市", "town": "城辺新城", "full": "沖縄県宮古島市城辺新城"}, {"postal_code": "9060108", "postal_hyphen": "906-0108", "pref": "沖縄県", "city": "宮古島市", "town": "城辺砂川", "full": "沖縄県宮古島市城辺砂川"}, {"postal_code": "9060109", "postal_hyphen": "906-0109", "pref": "沖縄県", "city": "宮古島市", "town": "城辺下里添", "full": "沖縄県宮古島市城辺下里添"}, {"postal_code": "9060107", "postal_hyphen": "906-0107", "pref": "沖縄県", "city": "宮古島市", "town": "城辺友利", "full": "沖縄県宮古島市城辺友利"}, {"postal_code": "9060105", "postal_hyphen": "906-0105", "pref": "沖縄県", "city": "宮古島市", "town": "城辺長間", "full": "沖縄県宮古島市城辺長間"}, {"postal_code": "9060106", "postal_hyphen": "906-0106", "pref": "沖縄県", "city": "宮古島市", "town": "城辺西里添", "full": "沖縄県宮古島市城辺西里添"}, {"postal_code": "9060104", "postal_hyphen": "906-0104", "pref": "沖縄県", "city": "宮古島市", "town": "城辺比嘉", "full": "沖縄県宮古島市城辺比嘉"}, {"postal_code": "9060103", "postal_hyphen": "906-0103", "pref": "沖縄県", "city": "宮古島市", "town": "城辺福里", "full": "沖縄県宮古島市城辺福里"}, {"postal_code": "9060101", "postal_hyphen": "906-0101", "pref": "沖縄県", "city": "宮古島市", "town": "城辺保良", "full": "沖縄県宮古島市城辺保良"}, {"postal_code": "9060304", "postal_hyphen": "906-0304", "pref": "沖縄県", "city": "宮古島市", "town": "下地上地", "full": "沖縄県宮古島市下地上地"}, {"postal_code": "9060302", "postal_hyphen": "906-0302", "pref": "沖縄県", "city": "宮古島市", "town": "下地嘉手苅", "full": "沖縄県宮古島市下地嘉手苅"}, {"postal_code": "9060301", "postal_hyphen": "906-0301", "pref": "沖縄県", "city": "宮古島市", "town": "下地川満", "full": "沖縄県宮古島市下地川満"}, {"postal_code": "9060306", "postal_hyphen": "906-0306", "pref": "沖縄県", "city": "宮古島市", "town": "下地来間", "full": "沖縄県宮古島市下地来間"}, {"postal_code": "9060303", "postal_hyphen": "906-0303", "pref": "沖縄県", "city": "宮古島市", "town": "下地洲鎌", "full": "沖縄県宮古島市下地洲鎌"}, {"postal_code": "9060305", "postal_hyphen": "906-0305", "pref": "沖縄県", "city": "宮古島市", "town": "下地与那覇", "full": "沖縄県宮古島市下地与那覇"}, {"postal_code": "9060421", "postal_hyphen": "906-0421", "pref": "沖縄県", "city": "宮古島市", "town": "平良池間", "full": "沖縄県宮古島市平良池間"}, {"postal_code": "9060004", "postal_hyphen": "906-0004", "pref": "沖縄県", "city": "宮古島市", "town": "平良大浦", "full": "沖縄県宮古島市平良大浦"}, {"postal_code": "9060001", "postal_hyphen": "906-0001", "pref": "沖縄県", "city": "宮古島市", "town": "平良大神", "full": "沖縄県宮古島市平良大神"}, {"postal_code": "9060002", "postal_hyphen": "906-0002", "pref": "沖縄県", "city": "宮古島市", "town": "平良狩俣", "full": "沖縄県宮古島市平良狩俣"}, {"postal_code": "9060015", "postal_hyphen": "906-0015", "pref": "沖縄県", "city": "宮古島市", "town": "平良久貝", "full": "沖縄県宮古島市平良久貝"}, {"postal_code": "9060003", "postal_hyphen": "906-0003", "pref": "沖縄県", "city": "宮古島市", "town": "平良島尻", "full": "沖縄県宮古島市平良島尻"}, {"postal_code": "9060013", "postal_hyphen": "906-0013", "pref": "沖縄県", "city": "宮古島市", "town": "平良下里", "full": "沖縄県宮古島市平良下里"}, {"postal_code": "9060008", "postal_hyphen": "906-0008", "pref": "沖縄県", "city": "宮古島市", "town": "平良荷川取", "full": "沖縄県宮古島市平良荷川取"}, {"postal_code": "9060012", "postal_hyphen": "906-0012", "pref": "沖縄県", "city": "宮古島市", "town": "平良西里", "full": "沖縄県宮古島市平良西里"}, {"postal_code": "9060006", "postal_hyphen": "906-0006", "pref": "沖縄県", "city": "宮古島市", "town": "平良西仲宗根", "full": "沖縄県宮古島市平良西仲宗根"}, {"postal_code": "9060005", "postal_hyphen": "906-0005", "pref": "沖縄県", "city": "宮古島市", "town": "平良西原", "full": "沖縄県宮古島市平良西原"}, {"postal_code": "9060007", "postal_hyphen": "906-0007", "pref": "沖縄県", "city": "宮古島市", "town": "平良東仲宗根", "full": "沖縄県宮古島市平良東仲宗根"}, {"postal_code": "9060011", "postal_hyphen": "906-0011", "pref": "沖縄県", "city": "宮古島市", "town": "平良東仲宗根添", "full": "沖縄県宮古島市平良東仲宗根添"}, {"postal_code": "9060422", "postal_hyphen": "906-0422", "pref": "沖縄県", "city": "宮古島市", "town": "平良前里", "full": "沖縄県宮古島市平良前里"}, {"postal_code": "9060014", "postal_hyphen": "906-0014", "pref": "沖縄県", "city": "宮古島市", "town": "平良松原", "full": "沖縄県宮古島市平良松原"}, {"postal_code": "9011400", "postal_hyphen": "901-1400", "pref": "沖縄県", "city": "南城市", "town": "", "full": "沖縄県南城市"}, {"postal_code": "9011204", "postal_hyphen": "901-1204", "pref": "沖縄県", "city": "南城市", "town": "大里稲嶺", "full": "沖縄県南城市大里稲嶺"}, {"postal_code": "9011202", "postal_hyphen": "901-1202", "pref": "沖縄県", "city": "南城市", "town": "大里大里", "full": "沖縄県南城市大里大里"}, {"postal_code": "9011203", "postal_hyphen": "901-1203", "pref": "沖縄県", "city": "南城市", "town": "大里大城", "full": "沖縄県南城市大里大城"}, {"postal_code": "9011208", "postal_hyphen": "901-1208", "pref": "沖縄県", "city": "南城市", "town": "大里平良", "full": "沖縄県南城市大里平良"}, {"postal_code": "9011205", "postal_hyphen": "901-1205", "pref": "沖縄県", "city": "南城市", "town": "大里高平", "full": "沖縄県南城市大里高平"}, {"postal_code": "9011206", "postal_hyphen": "901-1206", "pref": "沖縄県", "city": "南城市", "town": "大里仲間", "full": "沖縄県南城市大里仲間"}, {"postal_code": "9011207", "postal_hyphen": "901-1207", "pref": "沖縄県", "city": "南城市", "town": "大里古堅", "full": "沖縄県南城市大里古堅"}, {"postal_code": "9011201", "postal_hyphen": "901-1201", "pref": "沖縄県", "city": "南城市", "town": "大里嶺井", "full": "沖縄県南城市大里嶺井"}, {"postal_code": "9011401", "postal_hyphen": "901-1401", "pref": "沖縄県", "city": "南城市", "town": "佐敷伊原", "full": "沖縄県南城市佐敷伊原"}, {"postal_code": "9011413", "postal_hyphen": "901-1413", "pref": "沖縄県", "city": "南城市", "town": "佐敷小谷", "full": "沖縄県南城市佐敷小谷"}, {"postal_code": "9011411", "postal_hyphen": "901-1411", "pref": "沖縄県", "city": "南城市", "town": "佐敷兼久", "full": "沖縄県南城市佐敷兼久"}, {"postal_code": "9011403", "postal_hyphen": "901-1403", "pref": "沖縄県", "city": "南城市", "town": "佐敷佐敷", "full": "沖縄県南城市佐敷佐敷"}, {"postal_code": "9011415", "postal_hyphen": "901-1415", "pref": "沖縄県", "city": "南城市", "town": "佐敷新開", "full": "沖縄県南城市佐敷新開"}, {"postal_code": "9011412", "postal_hyphen": "901-1412", "pref": "沖縄県", "city": "南城市", "town": "佐敷新里", "full": "沖縄県南城市佐敷新里"}, {"postal_code": "9011414", "postal_hyphen": "901-1414", "pref": "沖縄県", "city": "南城市", "town": "佐敷津波古", "full": "沖縄県南城市佐敷津波古"}, {"postal_code": "9011402", "postal_hyphen": "901-1402", "pref": "沖縄県", "city": "南城市", "town": "佐敷手登根", "full": "沖縄県南城市佐敷手登根"}, {"postal_code": "9011405", "postal_hyphen": "901-1405", "pref": "沖縄県", "city": "南城市", "town": "佐敷仲伊保", "full": "沖縄県南城市佐敷仲伊保"}, {"postal_code": "9011404", "postal_hyphen": "901-1404", "pref": "沖縄県", "city": "南城市", "town": "佐敷冨祖崎", "full": "沖縄県南城市佐敷冨祖崎"}, {"postal_code": "9011406", "postal_hyphen": "901-1406", "pref": "沖縄県", "city": "南城市", "town": "佐敷屋比久", "full": "沖縄県南城市佐敷屋比久"}, {"postal_code": "9010617", "postal_hyphen": "901-0617", "pref": "沖縄県", "city": "南城市", "town": "玉城愛地", "full": "沖縄県南城市玉城愛地"}, {"postal_code": "9010606", "postal_hyphen": "901-0606", "pref": "沖縄県", "city": "南城市", "town": "玉城糸数", "full": "沖縄県南城市玉城糸数"}, {"postal_code": "9010614", "postal_hyphen": "901-0614", "pref": "沖縄県", "city": "南城市", "town": "玉城奥武", "full": "沖縄県南城市玉城奥武"}, {"postal_code": "9010608", "postal_hyphen": "901-0608", "pref": "沖縄県", "city": "南城市", "town": "玉城親慶原", "full": "沖縄県南城市玉城親慶原"}, {"postal_code": "9010601", "postal_hyphen": "901-0601", "pref": "沖縄県", "city": "南城市", "town": "玉城垣花", "full": "沖縄県南城市玉城垣花"}, {"postal_code": "9010607", "postal_hyphen": "901-0607", "pref": "沖縄県", "city": "南城市", "town": "玉城喜良原", "full": "沖縄県南城市玉城喜良原"}, {"postal_code": "9010613", "postal_hyphen": "901-0613", "pref": "沖縄県", "city": "南城市", "town": "玉城志堅原", "full": "沖縄県南城市玉城志堅原"}, {"postal_code": "9010604", "postal_hyphen": "901-0604", "pref": "沖縄県", "city": "南城市", "town": "玉城玉城", "full": "沖縄県南城市玉城玉城"}, {"postal_code": "9010612", "postal_hyphen": "901-0612", "pref": "沖縄県", "city": "南城市", "town": "玉城當山", "full": "沖縄県南城市玉城當山"}, {"postal_code": "9010605", "postal_hyphen": "901-0605", "pref": "沖縄県", "city": "南城市", "town": "玉城中山", "full": "沖縄県南城市玉城中山"}, {"postal_code": "9010602", "postal_hyphen": "901-0602", "pref": "沖縄県", "city": "南城市", "town": "玉城仲村渠", "full": "沖縄県南城市玉城仲村渠"}, {"postal_code": "9010603", "postal_hyphen": "901-0603", "pref": "沖縄県", "city": "南城市", "town": "玉城百名", "full": "沖縄県南城市玉城百名"}, {"postal_code": "9010611", "postal_hyphen": "901-0611", "pref": "沖縄県", "city": "南城市", "town": "玉城富里", "full": "沖縄県南城市玉城富里"}, {"postal_code": "9010618", "postal_hyphen": "901-0618", "pref": "沖縄県", "city": "南城市", "town": "玉城船越", "full": "沖縄県南城市玉城船越"}, {"postal_code": "9010615", "postal_hyphen": "901-0615", "pref": "沖縄県", "city": "南城市", "town": "玉城堀川", "full": "沖縄県南城市玉城堀川"}, {"postal_code": "9010616", "postal_hyphen": "901-0616", "pref": "沖縄県", "city": "南城市", "town": "玉城前川", "full": "沖縄県南城市玉城前川"}, {"postal_code": "9010619", "postal_hyphen": "901-0619", "pref": "沖縄県", "city": "南城市", "town": "玉城屋嘉部", "full": "沖縄県南城市玉城屋嘉部"}, {"postal_code": "9011502", "postal_hyphen": "901-1502", "pref": "沖縄県", "city": "南城市", "town": "知念安座真", "full": "沖縄県南城市知念安座真"}, {"postal_code": "9011504", "postal_hyphen": "901-1504", "pref": "沖縄県", "city": "南城市", "town": "知念海野", "full": "沖縄県南城市知念海野"}, {"postal_code": "9011514", "postal_hyphen": "901-1514", "pref": "沖縄県", "city": "南城市", "town": "知念具志堅", "full": "沖縄県南城市知念具志堅"}, {"postal_code": "9011501", "postal_hyphen": "901-1501", "pref": "沖縄県", "city": "南城市", "town": "知念久高", "full": "沖縄県南城市知念久高"}, {"postal_code": "9011511", "postal_hyphen": "901-1511", "pref": "沖縄県", "city": "南城市", "town": "知念久手堅", "full": "沖縄県南城市知念久手堅"}, {"postal_code": "9011505", "postal_hyphen": "901-1505", "pref": "沖縄県", "city": "南城市", "town": "知念久原", "full": "沖縄県南城市知念久原"}, {"postal_code": "9011516", "postal_hyphen": "901-1516", "pref": "沖縄県", "city": "南城市", "town": "知念志喜屋", "full": "沖縄県南城市知念志喜屋"}, {"postal_code": "9011503", "postal_hyphen": "901-1503", "pref": "沖縄県", "city": "南城市", "town": "知念知名", "full": "沖縄県南城市知念知名"}, {"postal_code": "9011513", "postal_hyphen": "901-1513", "pref": "沖縄県", "city": "南城市", "town": "知念知念", "full": "沖縄県南城市知念知念"}, {"postal_code": "9011515", "postal_hyphen": "901-1515", "pref": "沖縄県", "city": "南城市", "town": "知念山里", "full": "沖縄県南城市知念山里"}, {"postal_code": "9011512", "postal_hyphen": "901-1512", "pref": "沖縄県", "city": "南城市", "town": "知念吉富", "full": "沖縄県南城市知念吉富"}, {"postal_code": "9011407", "postal_hyphen": "901-1407", "pref": "沖縄県", "city": "南城市", "town": "つきしろ", "full": "沖縄県南城市つきしろ"}, {"postal_code": "9051400", "postal_hyphen": "905-1400", "pref": "沖縄県", "city": "国頭郡国頭村", "town": "", "full": "沖縄県国頭郡国頭村"}, {"postal_code": "9051503", "postal_hyphen": "905-1503", "pref": "沖縄県", "city": "国頭郡国頭村", "town": "安田", "full": "沖縄県国頭郡国頭村安田"}, {"postal_code": "9051504", "postal_hyphen": "905-1504", "pref": "沖縄県", "city": "国頭郡国頭村", "town": "安波", "full": "沖縄県国頭郡国頭村安波"}, {"postal_code": "9051428", "postal_hyphen": "905-1428", "pref": "沖縄県", "city": "国頭郡国頭村", "town": "伊地", "full": "沖縄県国頭郡国頭村伊地"}, {"postal_code": "9051423", "postal_hyphen": "905-1423", "pref": "沖縄県", "city": "国頭郡国頭村", "town": "宇嘉", "full": "沖縄県国頭郡国頭村宇嘉"}, {"postal_code": "9051429", "postal_hyphen": "905-1429", "pref": "沖縄県", "city": "国頭郡国頭村", "town": "宇良", "full": "沖縄県国頭郡国頭村宇良"}, {"postal_code": "9051501", "postal_hyphen": "905-1501", "pref": "沖縄県", "city": "国頭郡国頭村", "town": "奥", "full": "沖縄県国頭郡国頭村奥"}, {"postal_code": "9051412", "postal_hyphen": "905-1412", "pref": "沖縄県", "city": "国頭郡国頭村", "town": "奥間", "full": "沖縄県国頭郡国頭村奥間"}, {"postal_code": "9051416", "postal_hyphen": "905-1416", "pref": "沖縄県", "city": "国頭郡国頭村", "town": "鏡地", "full": "沖縄県国頭郡国頭村鏡地"}, {"postal_code": "9051422", "postal_hyphen": "905-1422", "pref": "沖縄県", "city": "国頭郡国頭村", "town": "宜名真", "full": "沖縄県国頭郡国頭村宜名真"}, {"postal_code": "9051425", "postal_hyphen": "905-1425", "pref": "沖縄県", "city": "国頭郡国頭村", "town": "佐手", "full": "沖縄県国頭郡国頭村佐手"}, {"postal_code": "9051426", "postal_hyphen": "905-1426", "pref": "沖縄県", "city": "国頭郡国頭村", "town": "謝敷", "full": "沖縄県国頭郡国頭村謝敷"}, {"postal_code": "9051502", "postal_hyphen": "905-1502", "pref": "沖縄県", "city": "国頭郡国頭村", "town": "楚洲", "full": "沖縄県国頭郡国頭村楚洲"}, {"postal_code": "9051417", "postal_hyphen": "905-1417", "pref": "沖縄県", "city": "国頭郡国頭村", "town": "桃原", "full": "沖縄県国頭郡国頭村桃原"}, {"postal_code": "9051415", "postal_hyphen": "905-1415", "pref": "沖縄県", "city": "国頭郡国頭村", "town": "浜", "full": "沖縄県国頭郡国頭村浜"}, {"postal_code": "9051414", "postal_hyphen": "905-1414", "pref": "沖縄県", "city": "国頭郡国頭村", "town": "半地", "full": "沖縄県国頭郡国頭村半地"}, {"postal_code": "9051413", "postal_hyphen": "905-1413", "pref": "沖縄県", "city": "国頭郡国頭村", "town": "比地", "full": "沖縄県国頭郡国頭村比地"}, {"postal_code": "9051421", "postal_hyphen": "905-1421", "pref": "沖縄県", "city": "国頭郡国頭村", "town": "辺戸", "full": "沖縄県国頭郡国頭村辺戸"}, {"postal_code": "9051424", "postal_hyphen": "905-1424", "pref": "沖縄県", "city": "国頭郡国頭村", "town": "辺野喜", "full": "沖縄県国頭郡国頭村辺野喜"}, {"postal_code": "9051411", "postal_hyphen": "905-1411", "pref": "沖縄県", "city": "国頭郡国頭村", "town": "辺土名", "full": "沖縄県国頭郡国頭村辺土名"}, {"postal_code": "9051427", "postal_hyphen": "905-1427", "pref": "沖縄県", "city": "国頭郡国頭村", "town": "与那", "full": "沖縄県国頭郡国頭村与那"}, {"postal_code": "9051300", "postal_hyphen": "905-1300", "pref": "沖縄県", "city": "国頭郡大宜味村", "town": "", "full": "沖縄県国頭郡大宜味村"}, {"postal_code": "9051308", "postal_hyphen": "905-1308", "pref": "沖縄県", "city": "国頭郡大宜味村", "town": "上原", "full": "沖縄県国頭郡大宜味村上原"}, {"postal_code": "9051317", "postal_hyphen": "905-1317", "pref": "沖縄県", "city": "国頭郡大宜味村", "town": "江洲", "full": "沖縄県国頭郡大宜味村江洲"}, {"postal_code": "9051305", "postal_hyphen": "905-1305", "pref": "沖縄県", "city": "国頭郡大宜味村", "town": "大兼久", "full": "沖縄県国頭郡大宜味村大兼久"}, {"postal_code": "9051306", "postal_hyphen": "905-1306", "pref": "沖縄県", "city": "国頭郡大宜味村", "town": "大宜味", "full": "沖縄県国頭郡大宜味村大宜味"}, {"postal_code": "9051313", "postal_hyphen": "905-1313", "pref": "沖縄県", "city": "国頭郡大宜味村", "town": "押川", "full": "沖縄県国頭郡大宜味村押川"}, {"postal_code": "9051303", "postal_hyphen": "905-1303", "pref": "沖縄県", "city": "国頭郡大宜味村", "town": "喜如嘉", "full": "沖縄県国頭郡大宜味村喜如嘉"}, {"postal_code": "9051311", "postal_hyphen": "905-1311", "pref": "沖縄県", "city": "国頭郡大宜味村", "town": "塩屋", "full": "沖縄県国頭郡大宜味村塩屋"}, {"postal_code": "9051302", "postal_hyphen": "905-1302", "pref": "沖縄県", "city": "国頭郡大宜味村", "town": "謝名城", "full": "沖縄県国頭郡大宜味村謝名城"}, {"postal_code": "9051316", "postal_hyphen": "905-1316", "pref": "沖縄県", "city": "国頭郡大宜味村", "town": "白浜", "full": "沖縄県国頭郡大宜味村白浜"}, {"postal_code": "9051315", "postal_hyphen": "905-1315", "pref": "沖縄県", "city": "国頭郡大宜味村", "town": "大保", "full": "沖縄県国頭郡大宜味村大保"}, {"postal_code": "9051301", "postal_hyphen": "905-1301", "pref": "沖縄県", "city": "国頭郡大宜味村", "town": "田嘉里", "full": "沖縄県国頭郡大宜味村田嘉里"}, {"postal_code": "9051314", "postal_hyphen": "905-1314", "pref": "沖縄県", "city": "国頭郡大宜味村", "town": "田港", "full": "沖縄県国頭郡大宜味村田港"}, {"postal_code": "9051318", "postal_hyphen": "905-1318", "pref": "沖縄県", "city": "国頭郡大宜味村", "town": "津波", "full": "沖縄県国頭郡大宜味村津波"}, {"postal_code": "9051304", "postal_hyphen": "905-1304", "pref": "沖縄県", "city": "国頭郡大宜味村", "town": "饒波", "full": "沖縄県国頭郡大宜味村饒波"}, {"postal_code": "9051307", "postal_hyphen": "905-1307", "pref": "沖縄県", "city": "国頭郡大宜味村", "town": "根路銘", "full": "沖縄県国頭郡大宜味村根路銘"}, {"postal_code": "9051319", "postal_hyphen": "905-1319", "pref": "沖縄県", "city": "国頭郡大宜味村", "town": "宮城", "full": "沖縄県国頭郡大宜味村宮城"}, {"postal_code": "9051312", "postal_hyphen": "905-1312", "pref": "沖縄県", "city": "国頭郡大宜味村", "town": "屋古", "full": "沖縄県国頭郡大宜味村屋古"}, {"postal_code": "9051200", "postal_hyphen": "905-1200", "pref": "沖縄県", "city": "国頭郡東村", "town": "", "full": "沖縄県国頭郡東村"}, {"postal_code": "9051206", "postal_hyphen": "905-1206", "pref": "沖縄県", "city": "国頭郡東村", "town": "有銘", "full": "沖縄県国頭郡東村有銘"}, {"postal_code": "9051203", "postal_hyphen": "905-1203", "pref": "沖縄県", "city": "国頭郡東村", "town": "川田", "full": "沖縄県国頭郡東村川田"}, {"postal_code": "9051205", "postal_hyphen": "905-1205", "pref": "沖縄県", "city": "国頭郡東村", "town": "慶佐次", "full": "沖縄県国頭郡東村慶佐次"}, {"postal_code": "9051204", "postal_hyphen": "905-1204", "pref": "沖縄県", "city": "国頭郡東村", "town": "平良", "full": "沖縄県国頭郡東村平良"}, {"postal_code": "9051201", "postal_hyphen": "905-1201", "pref": "沖縄県", "city": "国頭郡東村", "town": "高江", "full": "沖縄県国頭郡東村高江"}, {"postal_code": "9051202", "postal_hyphen": "905-1202", "pref": "沖縄県", "city": "国頭郡東村", "town": "宮城", "full": "沖縄県国頭郡東村宮城"}, {"postal_code": "9050400", "postal_hyphen": "905-0400", "pref": "沖縄県", "city": "国頭郡今帰仁村", "town": "", "full": "沖縄県国頭郡今帰仁村"}, {"postal_code": "9050411", "postal_hyphen": "905-0411", "pref": "沖縄県", "city": "国頭郡今帰仁村", "town": "天底", "full": "沖縄県国頭郡今帰仁村天底"}, {"postal_code": "9050428", "postal_hyphen": "905-0428", "pref": "沖縄県", "city": "国頭郡今帰仁村", "town": "今泊", "full": "沖縄県国頭郡今帰仁村今泊"}, {"postal_code": "9050403", "postal_hyphen": "905-0403", "pref": "沖縄県", "city": "国頭郡今帰仁村", "town": "運天", "full": "沖縄県国頭郡今帰仁村運天"}, {"postal_code": "9050427", "postal_hyphen": "905-0427", "pref": "沖縄県", "city": "国頭郡今帰仁村", "town": "兼次", "full": "沖縄県国頭郡今帰仁村兼次"}, {"postal_code": "9050404", "postal_hyphen": "905-0404", "pref": "沖縄県", "city": "国頭郡今帰仁村", "town": "上運天", "full": "沖縄県国頭郡今帰仁村上運天"}, {"postal_code": "9050406", "postal_hyphen": "905-0406", "pref": "沖縄県", "city": "国頭郡今帰仁村", "town": "古宇利", "full": "沖縄県国頭郡今帰仁村古宇利"}, {"postal_code": "9050421", "postal_hyphen": "905-0421", "pref": "沖縄県", "city": "国頭郡今帰仁村", "town": "越地", "full": "沖縄県国頭郡今帰仁村越地"}, {"postal_code": "9050413", "postal_hyphen": "905-0413", "pref": "沖縄県", "city": "国頭郡今帰仁村", "town": "呉我山", "full": "沖縄県国頭郡今帰仁村呉我山"}, {"postal_code": "9050422", "postal_hyphen": "905-0422", "pref": "沖縄県", "city": "国頭郡今帰仁村", "town": "崎山", "full": "沖縄県国頭郡今帰仁村崎山"}, {"postal_code": "9050414", "postal_hyphen": "905-0414", "pref": "沖縄県", "city": "国頭郡今帰仁村", "town": "謝名", "full": "沖縄県国頭郡今帰仁村謝名"}, {"postal_code": "9050426", "postal_hyphen": "905-0426", "pref": "沖縄県", "city": "国頭郡今帰仁村", "town": "諸志", "full": "沖縄県国頭郡今帰仁村諸志"}, {"postal_code": "9050405", "postal_hyphen": "905-0405", "pref": "沖縄県", "city": "国頭郡今帰仁村", "town": "勢理客", "full": "沖縄県国頭郡今帰仁村勢理客"}, {"postal_code": "9050415", "postal_hyphen": "905-0415", "pref": "沖縄県", "city": "国頭郡今帰仁村", "town": "玉城", "full": "沖縄県国頭郡今帰仁村玉城"}, {"postal_code": "9050402", "postal_hyphen": "905-0402", "pref": "沖縄県", "city": "国頭郡今帰仁村", "town": "渡喜仁", "full": "沖縄県国頭郡今帰仁村渡喜仁"}, {"postal_code": "9050424", "postal_hyphen": "905-0424", "pref": "沖縄県", "city": "国頭郡今帰仁村", "town": "仲尾次", "full": "沖縄県国頭郡今帰仁村仲尾次"}, {"postal_code": "9050401", "postal_hyphen": "905-0401", "pref": "沖縄県", "city": "国頭郡今帰仁村", "town": "仲宗根", "full": "沖縄県国頭郡今帰仁村仲宗根"}, {"postal_code": "9050423", "postal_hyphen": "905-0423", "pref": "沖縄県", "city": "国頭郡今帰仁村", "town": "平敷", "full": "沖縄県国頭郡今帰仁村平敷"}, {"postal_code": "9050425", "postal_hyphen": "905-0425", "pref": "沖縄県", "city": "国頭郡今帰仁村", "town": "与那嶺", "full": "沖縄県国頭郡今帰仁村与那嶺"}, {"postal_code": "9050412", "postal_hyphen": "905-0412", "pref": "沖縄県", "city": "国頭郡今帰仁村", "town": "湧川", "full": "沖縄県国頭郡今帰仁村湧川"}, {"postal_code": "9050200", "postal_hyphen": "905-0200", "pref": "沖縄県", "city": "国頭郡本部町", "town": "", "full": "沖縄県国頭郡本部町"}, {"postal_code": "9050206", "postal_hyphen": "905-0206", "pref": "沖縄県", "city": "国頭郡本部町", "town": "石川", "full": "沖縄県国頭郡本部町石川"}, {"postal_code": "9050221", "postal_hyphen": "905-0221", "pref": "沖縄県", "city": "国頭郡本部町", "town": "伊豆味", "full": "沖縄県国頭郡本部町伊豆味"}, {"postal_code": "9050228", "postal_hyphen": "905-0228", "pref": "沖縄県", "city": "国頭郡本部町", "town": "伊野波", "full": "沖縄県国頭郡本部町伊野波"}, {"postal_code": "9050229", "postal_hyphen": "905-0229", "pref": "沖縄県", "city": "国頭郡本部町", "town": "大堂", "full": "沖縄県国頭郡本部町大堂"}, {"postal_code": "9050217", "postal_hyphen": "905-0217", "pref": "沖縄県", "city": "国頭郡本部町", "town": "浦崎", "full": "沖縄県国頭郡本部町浦崎"}, {"postal_code": "9050223", "postal_hyphen": "905-0223", "pref": "沖縄県", "city": "国頭郡本部町", "town": "大嘉陽", "full": "沖縄県国頭郡本部町大嘉陽"}, {"postal_code": "9050212", "postal_hyphen": "905-0212", "pref": "沖縄県", "city": "国頭郡本部町", "town": "大浜", "full": "沖縄県国頭郡本部町大浜"}, {"postal_code": "9050202", "postal_hyphen": "905-0202", "pref": "沖縄県", "city": "国頭郡本部町", "town": "嘉津宇", "full": "沖縄県国頭郡本部町嘉津宇"}, {"postal_code": "9050209", "postal_hyphen": "905-0209", "pref": "沖縄県", "city": "国頭郡本部町", "town": "北里", "full": "沖縄県国頭郡本部町北里"}, {"postal_code": "9050201", "postal_hyphen": "905-0201", "pref": "沖縄県", "city": "国頭郡本部町", "town": "具志堅", "full": "沖縄県国頭郡本部町具志堅"}, {"postal_code": "9050226", "postal_hyphen": "905-0226", "pref": "沖縄県", "city": "国頭郡本部町", "town": "健堅", "full": "沖縄県国頭郡本部町健堅"}, {"postal_code": "9050225", "postal_hyphen": "905-0225", "pref": "沖縄県", "city": "国頭郡本部町", "town": "崎本部", "full": "沖縄県国頭郡本部町崎本部"}, {"postal_code": "9050203", "postal_hyphen": "905-0203", "pref": "沖縄県", "city": "国頭郡本部町", "town": "謝花", "full": "沖縄県国頭郡本部町謝花"}, {"postal_code": "9050208", "postal_hyphen": "905-0208", "pref": "沖縄県", "city": "国頭郡本部町", "town": "新里", "full": "沖縄県国頭郡本部町新里"}, {"postal_code": "9050227", "postal_hyphen": "905-0227", "pref": "沖縄県", "city": "国頭郡本部町", "town": "瀬底", "full": "沖縄県国頭郡本部町瀬底"}, {"postal_code": "9050213", "postal_hyphen": "905-0213", "pref": "沖縄県", "city": "国頭郡本部町", "town": "谷茶", "full": "沖縄県国頭郡本部町谷茶"}, {"postal_code": "9050214", "postal_hyphen": "905-0214", "pref": "沖縄県", "city": "国頭郡本部町", "town": "渡久地", "full": "沖縄県国頭郡本部町渡久地"}, {"postal_code": "9050204", "postal_hyphen": "905-0204", "pref": "沖縄県", "city": "国頭郡本部町", "town": "豊原", "full": "沖縄県国頭郡本部町豊原"}, {"postal_code": "9050222", "postal_hyphen": "905-0222", "pref": "沖縄県", "city": "国頭郡本部町", "town": "並里", "full": "沖縄県国頭郡本部町並里"}, {"postal_code": "9050215", "postal_hyphen": "905-0215", "pref": "沖縄県", "city": "国頭郡本部町", "town": "野原", "full": "沖縄県国頭郡本部町野原"}, {"postal_code": "9050216", "postal_hyphen": "905-0216", "pref": "沖縄県", "city": "国頭郡本部町", "town": "浜元", "full": "沖縄県国頭郡本部町浜元"}, {"postal_code": "9050211", "postal_hyphen": "905-0211", "pref": "沖縄県", "city": "国頭郡本部町", "town": "東", "full": "沖縄県国頭郡本部町東"}, {"postal_code": "9050207", "postal_hyphen": "905-0207", "pref": "沖縄県", "city": "国頭郡本部町", "town": "備瀬", "full": "沖縄県国頭郡本部町備瀬"}, {"postal_code": "9050218", "postal_hyphen": "905-0218", "pref": "沖縄県", "city": "国頭郡本部町", "town": "古島", "full": "沖縄県国頭郡本部町古島"}, {"postal_code": "9050224", "postal_hyphen": "905-0224", "pref": "沖縄県", "city": "国頭郡本部町", "town": "辺名地", "full": "沖縄県国頭郡本部町辺名地"}, {"postal_code": "9050205", "postal_hyphen": "905-0205", "pref": "沖縄県", "city": "国頭郡本部町", "town": "山川", "full": "沖縄県国頭郡本部町山川"}, {"postal_code": "9050219", "postal_hyphen": "905-0219", "pref": "沖縄県", "city": "国頭郡本部町", "town": "山里", "full": "沖縄県国頭郡本部町山里"}, {"postal_code": "9040400", "postal_hyphen": "904-0400", "pref": "沖縄県", "city": "国頭郡恩納村", "town": "", "full": "沖縄県国頭郡恩納村"}, {"postal_code": "9040402", "postal_hyphen": "904-0402", "pref": "沖縄県", "city": "国頭郡恩納村", "town": "安富祖", "full": "沖縄県国頭郡恩納村安富祖"}, {"postal_code": "9040411", "postal_hyphen": "904-0411", "pref": "沖縄県", "city": "国頭郡恩納村", "town": "恩納", "full": "沖縄県国頭郡恩納村恩納"}, {"postal_code": "9040403", "postal_hyphen": "904-0403", "pref": "沖縄県", "city": "国頭郡恩納村", "town": "喜瀬武原", "full": "沖縄県国頭郡恩納村喜瀬武原"}, {"postal_code": "9040404", "postal_hyphen": "904-0404", "pref": "沖縄県", "city": "国頭郡恩納村", "town": "瀬良垣", "full": "沖縄県国頭郡恩納村瀬良垣"}, {"postal_code": "9040412", "postal_hyphen": "904-0412", "pref": "沖縄県", "city": "国頭郡恩納村", "town": "谷茶", "full": "沖縄県国頭郡恩納村谷茶"}, {"postal_code": "9040415", "postal_hyphen": "904-0415", "pref": "沖縄県", "city": "国頭郡恩納村", "town": "仲泊", "full": "沖縄県国頭郡恩納村仲泊"}, {"postal_code": "9040401", "postal_hyphen": "904-0401", "pref": "沖縄県", "city": "国頭郡恩納村", "town": "名嘉真", "full": "沖縄県国頭郡恩納村名嘉真"}, {"postal_code": "9040413", "postal_hyphen": "904-0413", "pref": "沖縄県", "city": "国頭郡恩納村", "town": "冨着", "full": "沖縄県国頭郡恩納村冨着"}, {"postal_code": "9040414", "postal_hyphen": "904-0414", "pref": "沖縄県", "city": "国頭郡恩納村", "town": "前兼久", "full": "沖縄県国頭郡恩納村前兼久"}, {"postal_code": "9040417", "postal_hyphen": "904-0417", "pref": "沖縄県", "city": "国頭郡恩納村", "town": "真栄田", "full": "沖縄県国頭郡恩納村真栄田"}, {"postal_code": "9040416", "postal_hyphen": "904-0416", "pref": "沖縄県", "city": "国頭郡恩納村", "town": "山田", "full": "沖縄県国頭郡恩納村山田"}, {"postal_code": "9041300", "postal_hyphen": "904-1300", "pref": "沖縄県", "city": "国頭郡宜野座村", "town": "", "full": "沖縄県国頭郡宜野座村"}, {"postal_code": "9041304", "postal_hyphen": "904-1304", "pref": "沖縄県", "city": "国頭郡宜野座村", "town": "漢那", "full": "沖縄県国頭郡宜野座村漢那"}, {"postal_code": "9041302", "postal_hyphen": "904-1302", "pref": "沖縄県", "city": "国頭郡宜野座村", "town": "宜野座", "full": "沖縄県国頭郡宜野座村宜野座"}, {"postal_code": "9041303", "postal_hyphen": "904-1303", "pref": "沖縄県", "city": "国頭郡宜野座村", "town": "惣慶", "full": "沖縄県国頭郡宜野座村惣慶"}, {"postal_code": "9041301", "postal_hyphen": "904-1301", "pref": "沖縄県", "city": "国頭郡宜野座村", "town": "松田", "full": "沖縄県国頭郡宜野座村松田"}, {"postal_code": "9041200", "postal_hyphen": "904-1200", "pref": "沖縄県", "city": "国頭郡金武町", "town": "", "full": "沖縄県国頭郡金武町"}, {"postal_code": "9041202", "postal_hyphen": "904-1202", "pref": "沖縄県", "city": "国頭郡金武町", "town": "伊芸", "full": "沖縄県国頭郡金武町伊芸"}, {"postal_code": "9041201", "postal_hyphen": "904-1201", "pref": "沖縄県", "city": "国頭郡金武町", "town": "金武", "full": "沖縄県国頭郡金武町金武"}, {"postal_code": "9041203", "postal_hyphen": "904-1203", "pref": "沖縄県", "city": "国頭郡金武町", "town": "屋嘉", "full": "沖縄県国頭郡金武町屋嘉"}, {"postal_code": "9050500", "postal_hyphen": "905-0500", "pref": "沖縄県", "city": "国頭郡伊江村", "town": "", "full": "沖縄県国頭郡伊江村"}, {"postal_code": "9050503", "postal_hyphen": "905-0503", "pref": "沖縄県", "city": "国頭郡伊江村", "town": "川平", "full": "沖縄県国頭郡伊江村川平"}, {"postal_code": "9050505", "postal_hyphen": "905-0505", "pref": "沖縄県", "city": "国頭郡伊江村", "town": "西江上", "full": "沖縄県国頭郡伊江村西江上"}, {"postal_code": "9050504", "postal_hyphen": "905-0504", "pref": "沖縄県", "city": "国頭郡伊江村", "town": "西江前", "full": "沖縄県国頭郡伊江村西江前"}, {"postal_code": "9050501", "postal_hyphen": "905-0501", "pref": "沖縄県", "city": "国頭郡伊江村", "town": "東江上", "full": "沖縄県国頭郡伊江村東江上"}, {"postal_code": "9050502", "postal_hyphen": "905-0502", "pref": "沖縄県", "city": "国頭郡伊江村", "town": "東江前", "full": "沖縄県国頭郡伊江村東江前"}, {"postal_code": "9040300", "postal_hyphen": "904-0300", "pref": "沖縄県", "city": "中頭郡読谷村", "town": "", "full": "沖縄県中頭郡読谷村"}, {"postal_code": "9040303", "postal_hyphen": "904-0303", "pref": "沖縄県", "city": "中頭郡読谷村", "town": "伊良皆", "full": "沖縄県中頭郡読谷村伊良皆"}, {"postal_code": "9040321", "postal_hyphen": "904-0321", "pref": "沖縄県", "city": "中頭郡読谷村", "town": "上地", "full": "沖縄県中頭郡読谷村上地"}, {"postal_code": "9040328", "postal_hyphen": "904-0328", "pref": "沖縄県", "city": "中頭郡読谷村", "town": "宇座", "full": "沖縄県中頭郡読谷村宇座"}, {"postal_code": "9040316", "postal_hyphen": "904-0316", "pref": "沖縄県", "city": "中頭郡読谷村", "town": "大木", "full": "沖縄県中頭郡読谷村大木"}, {"postal_code": "9040313", "postal_hyphen": "904-0313", "pref": "沖縄県", "city": "中頭郡読谷村", "town": "大湾", "full": "沖縄県中頭郡読谷村大湾"}, {"postal_code": "9040302", "postal_hyphen": "904-0302", "pref": "沖縄県", "city": "中頭郡読谷村", "town": "喜名", "full": "沖縄県中頭郡読谷村喜名"}, {"postal_code": "9040327", "postal_hyphen": "904-0327", "pref": "沖縄県", "city": "中頭郡読谷村", "town": "儀間", "full": "沖縄県中頭郡読谷村儀間"}, {"postal_code": "9040301", "postal_hyphen": "904-0301", "pref": "沖縄県", "city": "中頭郡読谷村", "town": "座喜味", "full": "沖縄県中頭郡読谷村座喜味"}, {"postal_code": "9040325", "postal_hyphen": "904-0325", "pref": "沖縄県", "city": "中頭郡読谷村", "town": "瀬名波", "full": "沖縄県中頭郡読谷村瀬名波"}, {"postal_code": "9040304", "postal_hyphen": "904-0304", "pref": "沖縄県", "city": "中頭郡読谷村", "town": "楚辺", "full": "沖縄県中頭郡読谷村楚辺"}, {"postal_code": "9040323", "postal_hyphen": "904-0323", "pref": "沖縄県", "city": "中頭郡読谷村", "town": "高志保", "full": "沖縄県中頭郡読谷村高志保"}, {"postal_code": "9040317", "postal_hyphen": "904-0317", "pref": "沖縄県", "city": "中頭郡読谷村", "town": "ときわ", "full": "沖縄県中頭郡読谷村ときわ"}, {"postal_code": "9040315", "postal_hyphen": "904-0315", "pref": "沖縄県", "city": "中頭郡読谷村", "town": "渡具知", "full": "沖縄県中頭郡読谷村渡具知"}, {"postal_code": "9040326", "postal_hyphen": "904-0326", "pref": "沖縄県", "city": "中頭郡読谷村", "town": "渡慶次", "full": "沖縄県中頭郡読谷村渡慶次"}, {"postal_code": "9040305", "postal_hyphen": "904-0305", "pref": "沖縄県", "city": "中頭郡読谷村", "town": "都屋", "full": "沖縄県中頭郡読谷村都屋"}, {"postal_code": "9040324", "postal_hyphen": "904-0324", "pref": "沖縄県", "city": "中頭郡読谷村", "town": "長浜", "full": "沖縄県中頭郡読谷村長浜"}, {"postal_code": "9040322", "postal_hyphen": "904-0322", "pref": "沖縄県", "city": "中頭郡読谷村", "town": "波平", "full": "沖縄県中頭郡読谷村波平"}, {"postal_code": "9040311", "postal_hyphen": "904-0311", "pref": "沖縄県", "city": "中頭郡読谷村", "town": "比謝", "full": "沖縄県中頭郡読谷村比謝"}, {"postal_code": "9040312", "postal_hyphen": "904-0312", "pref": "沖縄県", "city": "中頭郡読谷村", "town": "比謝矼", "full": "沖縄県中頭郡読谷村比謝矼"}, {"postal_code": "9040314", "postal_hyphen": "904-0314", "pref": "沖縄県", "city": "中頭郡読谷村", "town": "古堅", "full": "沖縄県中頭郡読谷村古堅"}, {"postal_code": "9040200", "postal_hyphen": "904-0200", "pref": "沖縄県", "city": "中頭郡嘉手納町", "town": "", "full": "沖縄県中頭郡嘉手納町"}, {"postal_code": "9040203", "postal_hyphen": "904-0203", "pref": "沖縄県", "city": "中頭郡嘉手納町", "town": "嘉手納", "full": "沖縄県中頭郡嘉手納町嘉手納"}, {"postal_code": "9040205", "postal_hyphen": "904-0205", "pref": "沖縄県", "city": "中頭郡嘉手納町", "town": "兼久", "full": "沖縄県中頭郡嘉手納町兼久"}, {"postal_code": "9040201", "postal_hyphen": "904-0201", "pref": "沖縄県", "city": "中頭郡嘉手納町", "town": "久得", "full": "沖縄県中頭郡嘉手納町久得"}, {"postal_code": "9040204", "postal_hyphen": "904-0204", "pref": "沖縄県", "city": "中頭郡嘉手納町", "town": "水釜", "full": "沖縄県中頭郡嘉手納町水釜"}, {"postal_code": "9040202", "postal_hyphen": "904-0202", "pref": "沖縄県", "city": "中頭郡嘉手納町", "town": "屋良", "full": "沖縄県中頭郡嘉手納町屋良"}, {"postal_code": "9040100", "postal_hyphen": "904-0100", "pref": "沖縄県", "city": "中頭郡北谷町", "town": "", "full": "沖縄県中頭郡北谷町"}, {"postal_code": "9040102", "postal_hyphen": "904-0102", "pref": "沖縄県", "city": "中頭郡北谷町", "town": "伊平", "full": "沖縄県中頭郡北谷町伊平"}, {"postal_code": "9040107", "postal_hyphen": "904-0107", "pref": "沖縄県", "city": "中頭郡北谷町", "town": "大村", "full": "沖縄県中頭郡北谷町大村"}, {"postal_code": "9040101", "postal_hyphen": "904-0101", "pref": "沖縄県", "city": "中頭郡北谷町", "town": "上勢頭", "full": "沖縄県中頭郡北谷町上勢頭"}, {"postal_code": "9040117", "postal_hyphen": "904-0117", "pref": "沖縄県", "city": "中頭郡北谷町", "town": "北前", "full": "沖縄県中頭郡北谷町北前"}, {"postal_code": "9040103", "postal_hyphen": "904-0103", "pref": "沖縄県", "city": "中頭郡北谷町", "town": "桑江", "full": "沖縄県中頭郡北谷町桑江"}, {"postal_code": "9040111", "postal_hyphen": "904-0111", "pref": "沖縄県", "city": "中頭郡北谷町", "town": "砂辺", "full": "沖縄県中頭郡北谷町砂辺"}, {"postal_code": "9040106", "postal_hyphen": "904-0106", "pref": "沖縄県", "city": "中頭郡北谷町", "town": "玉上", "full": "沖縄県中頭郡北谷町玉上"}, {"postal_code": "9040116", "postal_hyphen": "904-0116", "pref": "沖縄県", "city": "中頭郡北谷町", "town": "北谷", "full": "沖縄県中頭郡北谷町北谷"}, {"postal_code": "9040104", "postal_hyphen": "904-0104", "pref": "沖縄県", "city": "中頭郡北谷町", "town": "桃原", "full": "沖縄県中頭郡北谷町桃原"}, {"postal_code": "9040112", "postal_hyphen": "904-0112", "pref": "沖縄県", "city": "中頭郡北谷町", "town": "浜川", "full": "沖縄県中頭郡北谷町浜川"}, {"postal_code": "9040114", "postal_hyphen": "904-0114", "pref": "沖縄県", "city": "中頭郡北谷町", "town": "港", "full": "沖縄県中頭郡北谷町港"}, {"postal_code": "9040115", "postal_hyphen": "904-0115", "pref": "沖縄県", "city": "中頭郡北谷町", "town": "美浜", "full": "沖縄県中頭郡北谷町美浜"}, {"postal_code": "9040113", "postal_hyphen": "904-0113", "pref": "沖縄県", "city": "中頭郡北谷町", "town": "宮城", "full": "沖縄県中頭郡北谷町宮城"}, {"postal_code": "9040105", "postal_hyphen": "904-0105", "pref": "沖縄県", "city": "中頭郡北谷町", "town": "吉原", "full": "沖縄県中頭郡北谷町吉原"}, {"postal_code": "9012300", "postal_hyphen": "901-2300", "pref": "沖縄県", "city": "中頭郡北中城村", "town": "", "full": "沖縄県中頭郡北中城村"}, {"postal_code": "9012316", "postal_hyphen": "901-2316", "pref": "沖縄県", "city": "中頭郡北中城村", "town": "安谷屋", "full": "沖縄県中頭郡北中城村安谷屋"}, {"postal_code": "9012313", "postal_hyphen": "901-2313", "pref": "沖縄県", "city": "中頭郡北中城村", "town": "熱田", "full": "沖縄県中頭郡北中城村熱田"}, {"postal_code": "9012314", "postal_hyphen": "901-2314", "pref": "沖縄県", "city": "中頭郡北中城村", "town": "大城", "full": "沖縄県中頭郡北中城村大城"}, {"postal_code": "9012315", "postal_hyphen": "901-2315", "pref": "沖縄県", "city": "中頭郡北中城村", "town": "荻道", "full": "沖縄県中頭郡北中城村荻道"}, {"postal_code": "9012311", "postal_hyphen": "901-2311", "pref": "沖縄県", "city": "中頭郡北中城村", "town": "喜舎場", "full": "沖縄県中頭郡北中城村喜舎場"}, {"postal_code": "9012301", "postal_hyphen": "901-2301", "pref": "沖縄県", "city": "中頭郡北中城村", "town": "島袋", "full": "沖縄県中頭郡北中城村島袋"}, {"postal_code": "9012317", "postal_hyphen": "901-2317", "pref": "沖縄県", "city": "中頭郡北中城村", "town": "瑞慶覧", "full": "沖縄県中頭郡北中城村瑞慶覧"}, {"postal_code": "9012303", "postal_hyphen": "901-2303", "pref": "沖縄県", "city": "中頭郡北中城村", "town": "仲順", "full": "沖縄県中頭郡北中城村仲順"}, {"postal_code": "9012302", "postal_hyphen": "901-2302", "pref": "沖縄県", "city": "中頭郡北中城村", "town": "渡口", "full": "沖縄県中頭郡北中城村渡口"}, {"postal_code": "9012305", "postal_hyphen": "901-2305", "pref": "沖縄県", "city": "中頭郡北中城村", "town": "比嘉", "full": "沖縄県中頭郡北中城村比嘉"}, {"postal_code": "9012321", "postal_hyphen": "901-2321", "pref": "沖縄県", "city": "中頭郡北中城村", "town": "美崎", "full": "沖縄県中頭郡北中城村美崎"}, {"postal_code": "9012304", "postal_hyphen": "901-2304", "pref": "沖縄県", "city": "中頭郡北中城村", "town": "屋宜原", "full": "沖縄県中頭郡北中城村屋宜原"}, {"postal_code": "9012306", "postal_hyphen": "901-2306", "pref": "沖縄県", "city": "中頭郡北中城村", "town": "ライカム", "full": "沖縄県中頭郡北中城村ライカム"}, {"postal_code": "9012312", "postal_hyphen": "901-2312", "pref": "沖縄県", "city": "中頭郡北中城村", "town": "和仁屋", "full": "沖縄県中頭郡北中城村和仁屋"}, {"postal_code": "9012400", "postal_hyphen": "901-2400", "pref": "沖縄県", "city": "中頭郡中城村", "town": "", "full": "沖縄県中頭郡中城村"}, {"postal_code": "9012407", "postal_hyphen": "901-2407", "pref": "沖縄県", "city": "中頭郡中城村", "town": "安里", "full": "沖縄県中頭郡中城村安里"}, {"postal_code": "9012422", "postal_hyphen": "901-2422", "pref": "沖縄県", "city": "中頭郡中城村", "town": "新垣", "full": "沖縄県中頭郡中城村新垣"}, {"postal_code": "9012403", "postal_hyphen": "901-2403", "pref": "沖縄県", "city": "中頭郡中城村", "town": "伊舎堂", "full": "沖縄県中頭郡中城村伊舎堂"}, {"postal_code": "9012417", "postal_hyphen": "901-2417", "pref": "沖縄県", "city": "中頭郡中城村", "town": "伊集", "full": "沖縄県中頭郡中城村伊集"}, {"postal_code": "9012412", "postal_hyphen": "901-2412", "pref": "沖縄県", "city": "中頭郡中城村", "town": "奥間", "full": "沖縄県中頭郡中城村奥間"}, {"postal_code": "9012423", "postal_hyphen": "901-2423", "pref": "沖縄県", "city": "中頭郡中城村", "town": "北上原", "full": "沖縄県中頭郡中城村北上原"}, {"postal_code": "9012414", "postal_hyphen": "901-2414", "pref": "沖縄県", "city": "中頭郡中城村", "town": "北浜", "full": "沖縄県中頭郡中城村北浜"}, {"postal_code": "9012401", "postal_hyphen": "901-2401", "pref": "沖縄県", "city": "中頭郡中城村", "town": "久場", "full": "沖縄県中頭郡中城村久場"}, {"postal_code": "9012404", "postal_hyphen": "901-2404", "pref": "沖縄県", "city": "中頭郡中城村", "town": "添石", "full": "沖縄県中頭郡中城村添石"}, {"postal_code": "9012413", "postal_hyphen": "901-2413", "pref": "沖縄県", "city": "中頭郡中城村", "town": "津覇", "full": "沖縄県中頭郡中城村津覇"}, {"postal_code": "9012406", "postal_hyphen": "901-2406", "pref": "沖縄県", "city": "中頭郡中城村", "town": "当間", "full": "沖縄県中頭郡中城村当間"}, {"postal_code": "9012402", "postal_hyphen": "901-2402", "pref": "沖縄県", "city": "中頭郡中城村", "town": "泊", "full": "沖縄県中頭郡中城村泊"}, {"postal_code": "9012421", "postal_hyphen": "901-2421", "pref": "沖縄県", "city": "中頭郡中城村", "town": "登又", "full": "沖縄県中頭郡中城村登又"}, {"postal_code": "9012411", "postal_hyphen": "901-2411", "pref": "沖縄県", "city": "中頭郡中城村", "town": "浜", "full": "沖縄県中頭郡中城村浜"}, {"postal_code": "9012424", "postal_hyphen": "901-2424", "pref": "沖縄県", "city": "中頭郡中城村", "town": "南上原", "full": "沖縄県中頭郡中城村南上原"}, {"postal_code": "9012415", "postal_hyphen": "901-2415", "pref": "沖縄県", "city": "中頭郡中城村", "town": "南浜", "full": "沖縄県中頭郡中城村南浜"}, {"postal_code": "9012405", "postal_hyphen": "901-2405", "pref": "沖縄県", "city": "中頭郡中城村", "town": "屋宜", "full": "沖縄県中頭郡中城村屋宜"}, {"postal_code": "9012416", "postal_hyphen": "901-2416", "pref": "沖縄県", "city": "中頭郡中城村", "town": "和宇慶", "full": "沖縄県中頭郡中城村和宇慶"}, {"postal_code": "9030100", "postal_hyphen": "903-0100", "pref": "沖縄県", "city": "中頭郡西原町", "town": "", "full": "沖縄県中頭郡西原町"}, {"postal_code": "9030105", "postal_hyphen": "903-0105", "pref": "沖縄県", "city": "中頭郡西原町", "town": "東崎", "full": "沖縄県中頭郡西原町東崎"}, {"postal_code": "9030113", "postal_hyphen": "903-0113", "pref": "沖縄県", "city": "中頭郡西原町", "town": "安室", "full": "沖縄県中頭郡西原町安室"}, {"postal_code": "9030115", "postal_hyphen": "903-0115", "pref": "沖縄県", "city": "中頭郡西原町", "town": "池田", "full": "沖縄県中頭郡西原町池田"}, {"postal_code": "9030125", "postal_hyphen": "903-0125", "pref": "沖縄県", "city": "中頭郡西原町", "town": "上原", "full": "沖縄県中頭郡西原町上原"}, {"postal_code": "9030121", "postal_hyphen": "903-0121", "pref": "沖縄県", "city": "中頭郡西原町", "town": "内間", "full": "沖縄県中頭郡西原町内間"}, {"postal_code": "9030117", "postal_hyphen": "903-0117", "pref": "沖縄県", "city": "中頭郡西原町", "town": "翁長", "full": "沖縄県中頭郡西原町翁長"}, {"postal_code": "9030103", "postal_hyphen": "903-0103", "pref": "沖縄県", "city": "中頭郡西原町", "town": "小那覇", "full": "沖縄県中頭郡西原町小那覇"}, {"postal_code": "9030101", "postal_hyphen": "903-0101", "pref": "沖縄県", "city": "中頭郡西原町", "town": "掛保久", "full": "沖縄県中頭郡西原町掛保久"}, {"postal_code": "9030112", "postal_hyphen": "903-0112", "pref": "沖縄県", "city": "中頭郡西原町", "town": "我謝", "full": "沖縄県中頭郡西原町我謝"}, {"postal_code": "9030102", "postal_hyphen": "903-0102", "pref": "沖縄県", "city": "中頭郡西原町", "town": "嘉手苅", "full": "沖縄県中頭郡西原町嘉手苅"}, {"postal_code": "9030104", "postal_hyphen": "903-0104", "pref": "沖縄県", "city": "中頭郡西原町", "town": "兼久", "full": "沖縄県中頭郡西原町兼久"}, {"postal_code": "9030116", "postal_hyphen": "903-0116", "pref": "沖縄県", "city": "中頭郡西原町", "town": "幸地", "full": "沖縄県中頭郡西原町幸地"}, {"postal_code": "9030122", "postal_hyphen": "903-0122", "pref": "沖縄県", "city": "中頭郡西原町", "town": "小橋川", "full": "沖縄県中頭郡西原町小橋川"}, {"postal_code": "9030118", "postal_hyphen": "903-0118", "pref": "沖縄県", "city": "中頭郡西原町", "town": "小波津", "full": "沖縄県中頭郡西原町小波津"}, {"postal_code": "9030124", "postal_hyphen": "903-0124", "pref": "沖縄県", "city": "中頭郡西原町", "town": "呉屋", "full": "沖縄県中頭郡西原町呉屋"}, {"postal_code": "9030129", "postal_hyphen": "903-0129", "pref": "沖縄県", "city": "中頭郡西原町", "town": "千原", "full": "沖縄県中頭郡西原町千原"}, {"postal_code": "9030126", "postal_hyphen": "903-0126", "pref": "沖縄県", "city": "中頭郡西原町", "town": "棚原", "full": "沖縄県中頭郡西原町棚原"}, {"postal_code": "9030123", "postal_hyphen": "903-0123", "pref": "沖縄県", "city": "中頭郡西原町", "town": "津花波", "full": "沖縄県中頭郡西原町津花波"}, {"postal_code": "9030114", "postal_hyphen": "903-0114", "pref": "沖縄県", "city": "中頭郡西原町", "town": "桃原", "full": "沖縄県中頭郡西原町桃原"}, {"postal_code": "9030127", "postal_hyphen": "903-0127", "pref": "沖縄県", "city": "中頭郡西原町", "town": "徳佐田", "full": "沖縄県中頭郡西原町徳佐田"}, {"postal_code": "9030128", "postal_hyphen": "903-0128", "pref": "沖縄県", "city": "中頭郡西原町", "town": "森川", "full": "沖縄県中頭郡西原町森川"}, {"postal_code": "9030111", "postal_hyphen": "903-0111", "pref": "沖縄県", "city": "中頭郡西原町", "town": "与那城", "full": "沖縄県中頭郡西原町与那城"}, {"postal_code": "9011300", "postal_hyphen": "901-1300", "pref": "沖縄県", "city": "島尻郡与那原町", "town": "", "full": "沖縄県島尻郡与那原町"}, {"postal_code": "9011304", "postal_hyphen": "901-1304", "pref": "沖縄県", "city": "島尻郡与那原町", "town": "東浜", "full": "沖縄県島尻郡与那原町東浜"}, {"postal_code": "9011301", "postal_hyphen": "901-1301", "pref": "沖縄県", "city": "島尻郡与那原町", "town": "板良敷", "full": "沖縄県島尻郡与那原町板良敷"}, {"postal_code": "9011302", "postal_hyphen": "901-1302", "pref": "沖縄県", "city": "島尻郡与那原町", "town": "上与那原", "full": "沖縄県島尻郡与那原町上与那原"}, {"postal_code": "9011303", "postal_hyphen": "901-1303", "pref": "沖縄県", "city": "島尻郡与那原町", "town": "与那原", "full": "沖縄県島尻郡与那原町与那原"}, {"postal_code": "9011100", "postal_hyphen": "901-1100", "pref": "沖縄県", "city": "島尻郡南風原町", "town": "", "full": "沖縄県島尻郡南風原町"}, {"postal_code": "9011105", "postal_hyphen": "901-1105", "pref": "沖縄県", "city": "島尻郡南風原町", "town": "新川", "full": "沖縄県島尻郡南風原町新川"}, {"postal_code": "9011101", "postal_hyphen": "901-1101", "pref": "沖縄県", "city": "島尻郡南風原町", "town": "大名", "full": "沖縄県島尻郡南風原町大名"}, {"postal_code": "9011111", "postal_hyphen": "901-1111", "pref": "沖縄県", "city": "島尻郡南風原町", "town": "兼城", "full": "沖縄県島尻郡南風原町兼城"}, {"postal_code": "9011114", "postal_hyphen": "901-1114", "pref": "沖縄県", "city": "島尻郡南風原町", "town": "神里", "full": "沖縄県島尻郡南風原町神里"}, {"postal_code": "9011113", "postal_hyphen": "901-1113", "pref": "沖縄県", "city": "島尻郡南風原町", "town": "喜屋武", "full": "沖縄県島尻郡南風原町喜屋武"}, {"postal_code": "9011117", "postal_hyphen": "901-1117", "pref": "沖縄県", "city": "島尻郡南風原町", "town": "津嘉山", "full": "沖縄県島尻郡南風原町津嘉山"}, {"postal_code": "9011116", "postal_hyphen": "901-1116", "pref": "沖縄県", "city": "島尻郡南風原町", "town": "照屋", "full": "沖縄県島尻郡南風原町照屋"}, {"postal_code": "9011102", "postal_hyphen": "901-1102", "pref": "沖縄県", "city": "島尻郡南風原町", "town": "宮城", "full": "沖縄県島尻郡南風原町宮城"}, {"postal_code": "9011104", "postal_hyphen": "901-1104", "pref": "沖縄県", "city": "島尻郡南風原町", "town": "宮平", "full": "沖縄県島尻郡南風原町宮平"}, {"postal_code": "9011112", "postal_hyphen": "901-1112", "pref": "沖縄県", "city": "島尻郡南風原町", "town": "本部", "full": "沖縄県島尻郡南風原町本部"}, {"postal_code": "9011115", "postal_hyphen": "901-1115", "pref": "沖縄県", "city": "島尻郡南風原町", "town": "山川", "full": "沖縄県島尻郡南風原町山川"}, {"postal_code": "9011103", "postal_hyphen": "901-1103", "pref": "沖縄県", "city": "島尻郡南風原町", "town": "与那覇", "full": "沖縄県島尻郡南風原町与那覇"}, {"postal_code": "9013500", "postal_hyphen": "901-3500", "pref": "沖縄県", "city": "島尻郡渡嘉敷村", "town": "", "full": "沖縄県島尻郡渡嘉敷村"}, {"postal_code": "9013502", "postal_hyphen": "901-3502", "pref": "沖縄県", "city": "島尻郡渡嘉敷村", "town": "阿波連", "full": "沖縄県島尻郡渡嘉敷村阿波連"}, {"postal_code": "9013501", "postal_hyphen": "901-3501", "pref": "沖縄県", "city": "島尻郡渡嘉敷村", "town": "渡嘉敷", "full": "沖縄県島尻郡渡嘉敷村渡嘉敷"}, {"postal_code": "9013400", "postal_hyphen": "901-3400", "pref": "沖縄県", "city": "島尻郡座間味村", "town": "", "full": "沖縄県島尻郡座間味村"}, {"postal_code": "9013311", "postal_hyphen": "901-3311", "pref": "沖縄県", "city": "島尻郡座間味村", "town": "阿嘉", "full": "沖縄県島尻郡座間味村阿嘉"}, {"postal_code": "9013401", "postal_hyphen": "901-3401", "pref": "沖縄県", "city": "島尻郡座間味村", "town": "阿佐", "full": "沖縄県島尻郡座間味村阿佐"}, {"postal_code": "9013403", "postal_hyphen": "901-3403", "pref": "沖縄県", "city": "島尻郡座間味村", "town": "阿真", "full": "沖縄県島尻郡座間味村阿真"}, {"postal_code": "9013312", "postal_hyphen": "901-3312", "pref": "沖縄県", "city": "島尻郡座間味村", "town": "慶留間", "full": "沖縄県島尻郡座間味村慶留間"}, {"postal_code": "9013402", "postal_hyphen": "901-3402", "pref": "沖縄県", "city": "島尻郡座間味村", "town": "座間味", "full": "沖縄県島尻郡座間味村座間味"}, {"postal_code": "9013700", "postal_hyphen": "901-3700", "pref": "沖縄県", "city": "島尻郡粟国村", "town": "", "full": "沖縄県島尻郡粟国村"}, {"postal_code": "9013703", "postal_hyphen": "901-3703", "pref": "沖縄県", "city": "島尻郡粟国村", "town": "西", "full": "沖縄県島尻郡粟国村西"}, {"postal_code": "9013701", "postal_hyphen": "901-3701", "pref": "沖縄県", "city": "島尻郡粟国村", "town": "浜", "full": "沖縄県島尻郡粟国村浜"}, {"postal_code": "9013702", "postal_hyphen": "901-3702", "pref": "沖縄県", "city": "島尻郡粟国村", "town": "東", "full": "沖縄県島尻郡粟国村東"}, {"postal_code": "9013601", "postal_hyphen": "901-3601", "pref": "沖縄県", "city": "島尻郡渡名喜村", "town": "渡名喜村一円", "full": "沖縄県島尻郡渡名喜村渡名喜村一円"}, {"postal_code": "9013800", "postal_hyphen": "901-3800", "pref": "沖縄県", "city": "島尻郡南大東村", "town": "", "full": "沖縄県島尻郡南大東村"}, {"postal_code": "9013806", "postal_hyphen": "901-3806", "pref": "沖縄県", "city": "島尻郡南大東村", "town": "池之沢", "full": "沖縄県島尻郡南大東村池之沢"}, {"postal_code": "9013801", "postal_hyphen": "901-3801", "pref": "沖縄県", "city": "島尻郡南大東村", "town": "北", "full": "沖縄県島尻郡南大東村北"}, {"postal_code": "9013803", "postal_hyphen": "901-3803", "pref": "沖縄県", "city": "島尻郡南大東村", "town": "旧東", "full": "沖縄県島尻郡南大東村旧東"}, {"postal_code": "9013805", "postal_hyphen": "901-3805", "pref": "沖縄県", "city": "島尻郡南大東村", "town": "在所", "full": "沖縄県島尻郡南大東村在所"}, {"postal_code": "9013802", "postal_hyphen": "901-3802", "pref": "沖縄県", "city": "島尻郡南大東村", "town": "新東", "full": "沖縄県島尻郡南大東村新東"}, {"postal_code": "9013804", "postal_hyphen": "901-3804", "pref": "沖縄県", "city": "島尻郡南大東村", "town": "南", "full": "沖縄県島尻郡南大東村南"}, {"postal_code": "9013900", "postal_hyphen": "901-3900", "pref": "沖縄県", "city": "島尻郡北大東村", "town": "", "full": "沖縄県島尻郡北大東村"}, {"postal_code": "9013902", "postal_hyphen": "901-3902", "pref": "沖縄県", "city": "島尻郡北大東村", "town": "中野", "full": "沖縄県島尻郡北大東村中野"}, {"postal_code": "9013903", "postal_hyphen": "901-3903", "pref": "沖縄県", "city": "島尻郡北大東村", "town": "港", "full": "沖縄県島尻郡北大東村港"}, {"postal_code": "9013901", "postal_hyphen": "901-3901", "pref": "沖縄県", "city": "島尻郡北大東村", "town": "南", "full": "沖縄県島尻郡北大東村南"}, {"postal_code": "9050700", "postal_hyphen": "905-0700", "pref": "沖縄県", "city": "島尻郡伊平屋村", "town": "", "full": "沖縄県島尻郡伊平屋村"}, {"postal_code": "9050703", "postal_hyphen": "905-0703", "pref": "沖縄県", "city": "島尻郡伊平屋村", "town": "我喜屋", "full": "沖縄県島尻郡伊平屋村我喜屋"}, {"postal_code": "9050704", "postal_hyphen": "905-0704", "pref": "沖縄県", "city": "島尻郡伊平屋村", "town": "島尻", "full": "沖縄県島尻郡伊平屋村島尻"}, {"postal_code": "9050701", "postal_hyphen": "905-0701", "pref": "沖縄県", "city": "島尻郡伊平屋村", "town": "田名", "full": "沖縄県島尻郡伊平屋村田名"}, {"postal_code": "9050705", "postal_hyphen": "905-0705", "pref": "沖縄県", "city": "島尻郡伊平屋村", "town": "野甫", "full": "沖縄県島尻郡伊平屋村野甫"}, {"postal_code": "9050702", "postal_hyphen": "905-0702", "pref": "沖縄県", "city": "島尻郡伊平屋村", "town": "前泊", "full": "沖縄県島尻郡伊平屋村前泊"}, {"postal_code": "9050600", "postal_hyphen": "905-0600", "pref": "沖縄県", "city": "島尻郡伊是名村", "town": "", "full": "沖縄県島尻郡伊是名村"}, {"postal_code": "9050604", "postal_hyphen": "905-0604", "pref": "沖縄県", "city": "島尻郡伊是名村", "town": "伊是名", "full": "沖縄県島尻郡伊是名村伊是名"}, {"postal_code": "9050601", "postal_hyphen": "905-0601", "pref": "沖縄県", "city": "島尻郡伊是名村", "town": "内花", "full": "沖縄県島尻郡伊是名村内花"}, {"postal_code": "9050602", "postal_hyphen": "905-0602", "pref": "沖縄県", "city": "島尻郡伊是名村", "town": "諸見", "full": "沖縄県島尻郡伊是名村諸見"}, {"postal_code": "9050605", "postal_hyphen": "905-0605", "pref": "沖縄県", "city": "島尻郡伊是名村", "town": "勢理客", "full": "沖縄県島尻郡伊是名村勢理客"}, {"postal_code": "9050603", "postal_hyphen": "905-0603", "pref": "沖縄県", "city": "島尻郡伊是名村", "town": "仲田", "full": "沖縄県島尻郡伊是名村仲田"}, {"postal_code": "9013100", "postal_hyphen": "901-3100", "pref": "沖縄県", "city": "島尻郡久米島町", "town": "", "full": "沖縄県島尻郡久米島町"}, {"postal_code": "9013103", "postal_hyphen": "901-3103", "pref": "沖縄県", "city": "島尻郡久米島町", "town": "阿嘉", "full": "沖縄県島尻郡久米島町阿嘉"}, {"postal_code": "9013101", "postal_hyphen": "901-3101", "pref": "沖縄県", "city": "島尻郡久米島町", "town": "宇江城", "full": "沖縄県島尻郡久米島町宇江城"}, {"postal_code": "9013138", "postal_hyphen": "901-3138", "pref": "沖縄県", "city": "島尻郡久米島町", "town": "上江洲", "full": "沖縄県島尻郡久米島町上江洲"}, {"postal_code": "9013105", "postal_hyphen": "901-3105", "pref": "沖縄県", "city": "島尻郡久米島町", "town": "宇根", "full": "沖縄県島尻郡久米島町宇根"}, {"postal_code": "9013106", "postal_hyphen": "901-3106", "pref": "沖縄県", "city": "島尻郡久米島町", "town": "奥武", "full": "沖縄県島尻郡久米島町奥武"}, {"postal_code": "9013123", "postal_hyphen": "901-3123", "pref": "沖縄県", "city": "島尻郡久米島町", "town": "大田", "full": "沖縄県島尻郡久米島町大田"}, {"postal_code": "9013132", "postal_hyphen": "901-3132", "pref": "沖縄県", "city": "島尻郡久米島町", "town": "大原", "full": "沖縄県島尻郡久米島町大原"}, {"postal_code": "9013121", "postal_hyphen": "901-3121", "pref": "沖縄県", "city": "島尻郡久米島町", "town": "嘉手苅", "full": "沖縄県島尻郡久米島町嘉手苅"}, {"postal_code": "9013122", "postal_hyphen": "901-3122", "pref": "沖縄県", "city": "島尻郡久米島町", "town": "兼城", "full": "沖縄県島尻郡久米島町兼城"}, {"postal_code": "9013133", "postal_hyphen": "901-3133", "pref": "沖縄県", "city": "島尻郡久米島町", "town": "北原", "full": "沖縄県島尻郡久米島町北原"}, {"postal_code": "9013115", "postal_hyphen": "901-3115", "pref": "沖縄県", "city": "島尻郡久米島町", "town": "儀間", "full": "沖縄県島尻郡久米島町儀間"}, {"postal_code": "9013134", "postal_hyphen": "901-3134", "pref": "沖縄県", "city": "島尻郡久米島町", "town": "具志川", "full": "沖縄県島尻郡久米島町具志川"}, {"postal_code": "9013114", "postal_hyphen": "901-3114", "pref": "沖縄県", "city": "島尻郡久米島町", "town": "島尻", "full": "沖縄県島尻郡久米島町島尻"}, {"postal_code": "9013107", "postal_hyphen": "901-3107", "pref": "沖縄県", "city": "島尻郡久米島町", "town": "謝名堂", "full": "沖縄県島尻郡久米島町謝名堂"}, {"postal_code": "9013113", "postal_hyphen": "901-3113", "pref": "沖縄県", "city": "島尻郡久米島町", "town": "銭田", "full": "沖縄県島尻郡久米島町銭田"}, {"postal_code": "9013125", "postal_hyphen": "901-3125", "pref": "沖縄県", "city": "島尻郡久米島町", "town": "鳥島", "full": "沖縄県島尻郡久米島町鳥島"}, {"postal_code": "9013136", "postal_hyphen": "901-3136", "pref": "沖縄県", "city": "島尻郡久米島町", "town": "仲地", "full": "沖縄県島尻郡久米島町仲地"}, {"postal_code": "9013124", "postal_hyphen": "901-3124", "pref": "沖縄県", "city": "島尻郡久米島町", "town": "仲泊", "full": "沖縄県島尻郡久米島町仲泊"}, {"postal_code": "9013135", "postal_hyphen": "901-3135", "pref": "沖縄県", "city": "島尻郡久米島町", "town": "仲村渠", "full": "沖縄県島尻郡久米島町仲村渠"}, {"postal_code": "9013131", "postal_hyphen": "901-3131", "pref": "沖縄県", "city": "島尻郡久米島町", "town": "西銘", "full": "沖縄県島尻郡久米島町西銘"}, {"postal_code": "9013108", "postal_hyphen": "901-3108", "pref": "沖縄県", "city": "島尻郡久米島町", "town": "比嘉", "full": "沖縄県島尻郡久米島町比嘉"}, {"postal_code": "9013102", "postal_hyphen": "901-3102", "pref": "沖縄県", "city": "島尻郡久米島町", "town": "比屋定", "full": "沖縄県島尻郡久米島町比屋定"}, {"postal_code": "9013112", "postal_hyphen": "901-3112", "pref": "沖縄県", "city": "島尻郡久米島町", "town": "真我里", "full": "沖縄県島尻郡久米島町真我里"}, {"postal_code": "9013104", "postal_hyphen": "901-3104", "pref": "沖縄県", "city": "島尻郡久米島町", "town": "真謝", "full": "沖縄県島尻郡久米島町真謝"}, {"postal_code": "9013111", "postal_hyphen": "901-3111", "pref": "沖縄県", "city": "島尻郡久米島町", "town": "山城", "full": "沖縄県島尻郡久米島町山城"}, {"postal_code": "9013137", "postal_hyphen": "901-3137", "pref": "沖縄県", "city": "島尻郡久米島町", "town": "山里", "full": "沖縄県島尻郡久米島町山里"}, {"postal_code": "9010400", "postal_hyphen": "901-0400", "pref": "沖縄県", "city": "島尻郡八重瀬町", "town": "", "full": "沖縄県島尻郡八重瀬町"}, {"postal_code": "9010514", "postal_hyphen": "901-0514", "pref": "沖縄県", "city": "島尻郡八重瀬町", "town": "安里", "full": "沖縄県島尻郡八重瀬町安里"}, {"postal_code": "9010503", "postal_hyphen": "901-0503", "pref": "沖縄県", "city": "島尻郡八重瀬町", "town": "新城", "full": "沖縄県島尻郡八重瀬町新城"}, {"postal_code": "9010405", "postal_hyphen": "901-0405", "pref": "沖縄県", "city": "島尻郡八重瀬町", "town": "伊覇", "full": "沖縄県島尻郡八重瀬町伊覇"}, {"postal_code": "9010412", "postal_hyphen": "901-0412", "pref": "沖縄県", "city": "島尻郡八重瀬町", "town": "上田原", "full": "沖縄県島尻郡八重瀬町上田原"}, {"postal_code": "9010502", "postal_hyphen": "901-0502", "pref": "沖縄県", "city": "島尻郡八重瀬町", "town": "大頓", "full": "沖縄県島尻郡八重瀬町大頓"}, {"postal_code": "9010416", "postal_hyphen": "901-0416", "pref": "沖縄県", "city": "島尻郡八重瀬町", "town": "宜次", "full": "沖縄県島尻郡八重瀬町宜次"}, {"postal_code": "9010512", "postal_hyphen": "901-0512", "pref": "沖縄県", "city": "島尻郡八重瀬町", "town": "具志頭", "full": "沖縄県島尻郡八重瀬町具志頭"}, {"postal_code": "9010415", "postal_hyphen": "901-0415", "pref": "沖縄県", "city": "島尻郡八重瀬町", "town": "小城", "full": "沖縄県島尻郡八重瀬町小城"}, {"postal_code": "9010504", "postal_hyphen": "901-0504", "pref": "沖縄県", "city": "島尻郡八重瀬町", "town": "後原", "full": "沖縄県島尻郡八重瀬町後原"}, {"postal_code": "9010401", "postal_hyphen": "901-0401", "pref": "沖縄県", "city": "島尻郡八重瀬町", "town": "東風平", "full": "沖縄県島尻郡八重瀬町東風平"}, {"postal_code": "9010413", "postal_hyphen": "901-0413", "pref": "沖縄県", "city": "島尻郡八重瀬町", "town": "志多伯", "full": "沖縄県島尻郡八重瀬町志多伯"}, {"postal_code": "9010404", "postal_hyphen": "901-0404", "pref": "沖縄県", "city": "島尻郡八重瀬町", "town": "高良", "full": "沖縄県島尻郡八重瀬町高良"}, {"postal_code": "9010414", "postal_hyphen": "901-0414", "pref": "沖縄県", "city": "島尻郡八重瀬町", "town": "当銘", "full": "沖縄県島尻郡八重瀬町当銘"}, {"postal_code": "9010411", "postal_hyphen": "901-0411", "pref": "沖縄県", "city": "島尻郡八重瀬町", "town": "友寄", "full": "沖縄県島尻郡八重瀬町友寄"}, {"postal_code": "9010402", "postal_hyphen": "901-0402", "pref": "沖縄県", "city": "島尻郡八重瀬町", "town": "富盛", "full": "沖縄県島尻郡八重瀬町富盛"}, {"postal_code": "9010516", "postal_hyphen": "901-0516", "pref": "沖縄県", "city": "島尻郡八重瀬町", "town": "仲座", "full": "沖縄県島尻郡八重瀬町仲座"}, {"postal_code": "9010501", "postal_hyphen": "901-0501", "pref": "沖縄県", "city": "島尻郡八重瀬町", "town": "長毛", "full": "沖縄県島尻郡八重瀬町長毛"}, {"postal_code": "9010513", "postal_hyphen": "901-0513", "pref": "沖縄県", "city": "島尻郡八重瀬町", "town": "玻名城", "full": "沖縄県島尻郡八重瀬町玻名城"}, {"postal_code": "9010417", "postal_hyphen": "901-0417", "pref": "沖縄県", "city": "島尻郡八重瀬町", "town": "外間", "full": "沖縄県島尻郡八重瀬町外間"}, {"postal_code": "9010511", "postal_hyphen": "901-0511", "pref": "沖縄県", "city": "島尻郡八重瀬町", "town": "港川", "full": "沖縄県島尻郡八重瀬町港川"}, {"postal_code": "9010406", "postal_hyphen": "901-0406", "pref": "沖縄県", "city": "島尻郡八重瀬町", "town": "屋宜原", "full": "沖縄県島尻郡八重瀬町屋宜原"}, {"postal_code": "9010515", "postal_hyphen": "901-0515", "pref": "沖縄県", "city": "島尻郡八重瀬町", "town": "与座", "full": "沖縄県島尻郡八重瀬町与座"}, {"postal_code": "9010403", "postal_hyphen": "901-0403", "pref": "沖縄県", "city": "島尻郡八重瀬町", "town": "世名城", "full": "沖縄県島尻郡八重瀬町世名城"}, {"postal_code": "9060600", "postal_hyphen": "906-0600", "pref": "沖縄県", "city": "宮古郡多良間村", "town": "", "full": "沖縄県宮古郡多良間村"}, {"postal_code": "9060601", "postal_hyphen": "906-0601", "pref": "沖縄県", "city": "宮古郡多良間村", "town": "塩川", "full": "沖縄県宮古郡多良間村塩川"}, {"postal_code": "9060602", "postal_hyphen": "906-0602", "pref": "沖縄県", "city": "宮古郡多良間村", "town": "仲筋", "full": "沖縄県宮古郡多良間村仲筋"}, {"postal_code": "9060603", "postal_hyphen": "906-0603", "pref": "沖縄県", "city": "宮古郡多良間村", "town": "水納", "full": "沖縄県宮古郡多良間村水納"}, {"postal_code": "9070000", "postal_hyphen": "907-0000", "pref": "沖縄県", "city": "八重山郡竹富町", "town": "", "full": "沖縄県八重山郡竹富町"}, {"postal_code": "9071435", "postal_hyphen": "907-1435", "pref": "沖縄県", "city": "八重山郡竹富町", "town": "新城", "full": "沖縄県八重山郡竹富町新城"}, {"postal_code": "9071542", "postal_hyphen": "907-1542", "pref": "沖縄県", "city": "八重山郡竹富町", "town": "西表", "full": "沖縄県八重山郡竹富町西表"}, {"postal_code": "9071541", "postal_hyphen": "907-1541", "pref": "沖縄県", "city": "八重山郡竹富町", "town": "上原", "full": "沖縄県八重山郡竹富町上原"}, {"postal_code": "9071311", "postal_hyphen": "907-1311", "pref": "沖縄県", "city": "八重山郡竹富町", "town": "黒島", "full": "沖縄県八重山郡竹富町黒島"}, {"postal_code": "9071221", "postal_hyphen": "907-1221", "pref": "沖縄県", "city": "八重山郡竹富町", "town": "小浜", "full": "沖縄県八重山郡竹富町小浜"}, {"postal_code": "9071432", "postal_hyphen": "907-1432", "pref": "沖縄県", "city": "八重山郡竹富町", "town": "古見", "full": "沖縄県八重山郡竹富町古見"}, {"postal_code": "9071543", "postal_hyphen": "907-1543", "pref": "沖縄県", "city": "八重山郡竹富町", "town": "崎山", "full": "沖縄県八重山郡竹富町崎山"}, {"postal_code": "9071431", "postal_hyphen": "907-1431", "pref": "沖縄県", "city": "八重山郡竹富町", "town": "高那", "full": "沖縄県八重山郡竹富町高那"}, {"postal_code": "9071101", "postal_hyphen": "907-1101", "pref": "沖縄県", "city": "八重山郡竹富町", "town": "竹富", "full": "沖縄県八重山郡竹富町竹富"}, {"postal_code": "9071434", "postal_hyphen": "907-1434", "pref": "沖縄県", "city": "八重山郡竹富町", "town": "南風見", "full": "沖縄県八重山郡竹富町南風見"}, {"postal_code": "9071433", "postal_hyphen": "907-1433", "pref": "沖縄県", "city": "八重山郡竹富町", "town": "南風見仲", "full": "沖縄県八重山郡竹富町南風見仲"}, {"postal_code": "9071751", "postal_hyphen": "907-1751", "pref": "沖縄県", "city": "八重山郡竹富町", "town": "波照間", "full": "沖縄県八重山郡竹富町波照間"}, {"postal_code": "9071544", "postal_hyphen": "907-1544", "pref": "沖縄県", "city": "八重山郡竹富町", "town": "鳩間", "full": "沖縄県八重山郡竹富町鳩間"}, {"postal_code": "9071800", "postal_hyphen": "907-1800", "pref": "沖縄県", "city": "八重山郡与那国町", "town": "", "full": "沖縄県八重山郡与那国町"}, {"postal_code": "9071801", "postal_hyphen": "907-1801", "pref": "沖縄県", "city": "八重山郡与那国町", "town": "与那国", "full": "沖縄県八重山郡与那国町与那国"}]