[{"postal_code": "3710000", "postal_hyphen": "371-0000", "pref": "群馬県", "city": "前橋市", "town": "", "full": "群馬県前橋市"}, {"postal_code": "3703573", "postal_hyphen": "370-3573", "pref": "群馬県", "city": "前橋市", "town": "青梨子町", "full": "群馬県前橋市青梨子町"}, {"postal_code": "3710826", "postal_hyphen": "371-0826", "pref": "群馬県", "city": "前橋市", "town": "青葉町", "full": "群馬県前橋市青葉町"}, {"postal_code": "3710056", "postal_hyphen": "371-0056", "pref": "群馬県", "city": "前橋市", "town": "青柳町", "full": "群馬県前橋市青柳町"}, {"postal_code": "3710811", "postal_hyphen": "371-0811", "pref": "群馬県", "city": "前橋市", "town": "朝倉町", "full": "群馬県前橋市朝倉町"}, {"postal_code": "3710832", "postal_hyphen": "371-0832", "pref": "群馬県", "city": "前橋市", "town": "朝日が丘町", "full": "群馬県前橋市朝日が丘町"}, {"postal_code": "3710014", "postal_hyphen": "371-0014", "pref": "群馬県", "city": "前橋市", "town": "朝日町", "full": "群馬県前橋市朝日町"}, {"postal_code": "3792154", "postal_hyphen": "379-2154", "pref": "群馬県", "city": "前橋市", "town": "天川大島町", "full": "群馬県前橋市天川大島町"}, {"postal_code": "3710803", "postal_hyphen": "371-0803", "pref": "群馬県", "city": "前橋市", "town": "天川原町", "full": "群馬県前橋市天川原町"}, {"postal_code": "3710802", "postal_hyphen": "371-0802", "pref": "群馬県", "city": "前橋市", "town": "天川町", "full": "群馬県前橋市天川町"}, {"postal_code": "3792112", "postal_hyphen": "379-2112", "pref": "群馬県", "city": "前橋市", "town": "新井町", "full": "群馬県前橋市新井町"}, {"postal_code": "3792107", "postal_hyphen": "379-2107", "pref": "群馬県", "city": "前橋市", "town": "荒口町", "full": "群馬県前橋市荒口町"}, {"postal_code": "3792106", "postal_hyphen": "379-2106", "pref": "群馬県", "city": "前橋市", "town": "荒子町", "full": "群馬県前橋市荒子町"}, {"postal_code": "3710044", "postal_hyphen": "371-0044", "pref": "群馬県", "city": "前橋市", "town": "荒牧町", "full": "群馬県前橋市荒牧町"}, {"postal_code": "3792111", "postal_hyphen": "379-2111", "pref": "群馬県", "city": "前橋市", "town": "飯土井町", "full": "群馬県前橋市飯土井町"}, {"postal_code": "3703571", "postal_hyphen": "370-3571", "pref": "群馬県", "city": "前橋市", "town": "池端町", "full": "群馬県前橋市池端町"}, {"postal_code": "3710841", "postal_hyphen": "371-0841", "pref": "群馬県", "city": "前橋市", "town": "石倉町", "full": "群馬県前橋市石倉町"}, {"postal_code": "3710006", "postal_hyphen": "371-0006", "pref": "群馬県", "city": "前橋市", "town": "石関町", "full": "群馬県前橋市石関町"}, {"postal_code": "3792101", "postal_hyphen": "379-2101", "pref": "群馬県", "city": "前橋市", "town": "泉沢町", "full": "群馬県前橋市泉沢町"}, {"postal_code": "3710245", "postal_hyphen": "371-0245", "pref": "群馬県", "city": "前橋市", "town": "市之関町", "full": "群馬県前橋市市之関町"}, {"postal_code": "3792116", "postal_hyphen": "379-2116", "pref": "群馬県", "city": "前橋市", "town": "今井町", "full": "群馬県前橋市今井町"}, {"postal_code": "3710035", "postal_hyphen": "371-0035", "pref": "群馬県", "city": "前橋市", "town": "岩神町", "full": "群馬県前橋市岩神町"}, {"postal_code": "3792115", "postal_hyphen": "379-2115", "pref": "群馬県", "city": "前橋市", "town": "笂井町", "full": "群馬県前橋市笂井町"}, {"postal_code": "3710002", "postal_hyphen": "371-0002", "pref": "群馬県", "city": "前橋市", "town": "江木町", "full": "群馬県前橋市江木町"}, {"postal_code": "3710836", "postal_hyphen": "371-0836", "pref": "群馬県", "city": "前橋市", "town": "江田町", "full": "群馬県前橋市江田町"}, {"postal_code": "3710223", "postal_hyphen": "371-0223", "pref": "群馬県", "city": "前橋市", "town": "大胡町", "full": "群馬県前橋市大胡町"}, {"postal_code": "3710026", "postal_hyphen": "371-0026", "pref": "群馬県", "city": "前橋市", "town": "大手町", "full": "群馬県前橋市大手町"}, {"postal_code": "3710825", "postal_hyphen": "371-0825", "pref": "群馬県", "city": "前橋市", "town": "大利根町", "full": "群馬県前橋市大利根町"}, {"postal_code": "3710847", "postal_hyphen": "371-0847", "pref": "群馬県", "city": "前橋市", "town": "大友町", "full": "群馬県前橋市大友町"}, {"postal_code": "3710243", "postal_hyphen": "371-0243", "pref": "群馬県", "city": "前橋市", "town": "大前田町", "full": "群馬県前橋市大前田町"}, {"postal_code": "3710854", "postal_hyphen": "371-0854", "pref": "群馬県", "city": "前橋市", "town": "大渡町", "full": "群馬県前橋市大渡町"}, {"postal_code": "3710001", "postal_hyphen": "371-0001", "pref": "群馬県", "city": "前橋市", "town": "荻窪町", "full": "群馬県前橋市荻窪町"}, {"postal_code": "3792163", "postal_hyphen": "379-2163", "pref": "群馬県", "city": "前橋市", "town": "女屋町", "full": "群馬県前橋市女屋町"}, {"postal_code": "3710024", "postal_hyphen": "371-0024", "pref": "群馬県", "city": "前橋市", "town": "表町", "full": "群馬県前橋市表町"}, {"postal_code": "3710246", "postal_hyphen": "371-0246", "pref": "群馬県", "city": "前橋市", "town": "柏倉町", "full": "群馬県前橋市柏倉町"}, {"postal_code": "3710206", "postal_hyphen": "371-0206", "pref": "群馬県", "city": "前橋市", "town": "粕川町新屋", "full": "群馬県前橋市粕川町新屋"}, {"postal_code": "3710207", "postal_hyphen": "371-0207", "pref": "群馬県", "city": "前橋市", "town": "粕川町稲里", "full": "群馬県前橋市粕川町稲里"}, {"postal_code": "3710214", "postal_hyphen": "371-0214", "pref": "群馬県", "city": "前橋市", "town": "粕川町女渕", "full": "群馬県前橋市粕川町女渕"}, {"postal_code": "3710211", "postal_hyphen": "371-0211", "pref": "群馬県", "city": "前橋市", "town": "粕川町上東田面", "full": "群馬県前橋市粕川町上東田面"}, {"postal_code": "3710216", "postal_hyphen": "371-0216", "pref": "群馬県", "city": "前橋市", "town": "粕川町込皆戸", "full": "群馬県前橋市粕川町込皆戸"}, {"postal_code": "3710212", "postal_hyphen": "371-0212", "pref": "群馬県", "city": "前橋市", "town": "粕川町下東田面", "full": "群馬県前橋市粕川町下東田面"}, {"postal_code": "3710204", "postal_hyphen": "371-0204", "pref": "群馬県", "city": "前橋市", "town": "粕川町膳", "full": "群馬県前橋市粕川町膳"}, {"postal_code": "3710203", "postal_hyphen": "371-0203", "pref": "群馬県", "city": "前橋市", "town": "粕川町月田", "full": "群馬県前橋市粕川町月田"}, {"postal_code": "3710205", "postal_hyphen": "371-0205", "pref": "群馬県", "city": "前橋市", "town": "粕川町中", "full": "群馬県前橋市粕川町中"}, {"postal_code": "3710201", "postal_hyphen": "371-0201", "pref": "群馬県", "city": "前橋市", "town": "粕川町中之沢", "full": "群馬県前橋市粕川町中之沢"}, {"postal_code": "3710217", "postal_hyphen": "371-0217", "pref": "群馬県", "city": "前橋市", "town": "粕川町西田面", "full": "群馬県前橋市粕川町西田面"}, {"postal_code": "3710213", "postal_hyphen": "371-0213", "pref": "群馬県", "city": "前橋市", "town": "粕川町一日市", "full": "群馬県前橋市粕川町一日市"}, {"postal_code": "3710215", "postal_hyphen": "371-0215", "pref": "群馬県", "city": "前橋市", "town": "粕川町深津", "full": "群馬県前橋市粕川町深津"}, {"postal_code": "3710218", "postal_hyphen": "371-0218", "pref": "群馬県", "city": "前橋市", "town": "粕川町前皆戸", "full": "群馬県前橋市粕川町前皆戸"}, {"postal_code": "3710202", "postal_hyphen": "371-0202", "pref": "群馬県", "city": "前橋市", "town": "粕川町室沢", "full": "群馬県前橋市粕川町室沢"}, {"postal_code": "3710124", "postal_hyphen": "371-0124", "pref": "群馬県", "city": "前橋市", "town": "勝沢町", "full": "群馬県前橋市勝沢町"}, {"postal_code": "3710121", "postal_hyphen": "371-0121", "pref": "群馬県", "city": "前橋市", "town": "金丸町", "full": "群馬県前橋市金丸町"}, {"postal_code": "3703572", "postal_hyphen": "370-3572", "pref": "群馬県", "city": "前橋市", "town": "上青梨子町", "full": "群馬県前橋市上青梨子町"}, {"postal_code": "3710007", "postal_hyphen": "371-0007", "pref": "群馬県", "city": "前橋市", "town": "上泉町", "full": "群馬県前橋市上泉町"}, {"postal_code": "3792153", "postal_hyphen": "379-2153", "pref": "群馬県", "city": "前橋市", "town": "上大島町", "full": "群馬県前橋市上大島町"}, {"postal_code": "3710222", "postal_hyphen": "371-0222", "pref": "群馬県", "city": "前橋市", "town": "上大屋町", "full": "群馬県前橋市上大屋町"}, {"postal_code": "3710052", "postal_hyphen": "371-0052", "pref": "群馬県", "city": "前橋市", "town": "上沖町", "full": "群馬県前橋市上沖町"}, {"postal_code": "3710037", "postal_hyphen": "371-0037", "pref": "群馬県", "city": "前橋市", "town": "上小出町", "full": "群馬県前橋市上小出町"}, {"postal_code": "3710816", "postal_hyphen": "371-0816", "pref": "群馬県", "city": "前橋市", "town": "上佐鳥町", "full": "群馬県前橋市上佐鳥町"}, {"postal_code": "3710821", "postal_hyphen": "371-0821", "pref": "群馬県", "city": "前橋市", "town": "上新田町", "full": "群馬県前橋市上新田町"}, {"postal_code": "3792165", "postal_hyphen": "379-2165", "pref": "群馬県", "city": "前橋市", "town": "上長磯町", "full": "群馬県前橋市上長磯町"}, {"postal_code": "3710051", "postal_hyphen": "371-0051", "pref": "群馬県", "city": "前橋市", "town": "上細井町", "full": "群馬県前橋市上細井町"}, {"postal_code": "3792114", "postal_hyphen": "379-2114", "pref": "群馬県", "city": "前橋市", "town": "上増田町", "full": "群馬県前橋市上増田町"}, {"postal_code": "3710004", "postal_hyphen": "371-0004", "pref": "群馬県", "city": "前橋市", "town": "亀泉町", "full": "群馬県前橋市亀泉町"}, {"postal_code": "3792147", "postal_hyphen": "379-2147", "pref": "群馬県", "city": "前橋市", "town": "亀里町", "full": "群馬県前橋市亀里町"}, {"postal_code": "3710041", "postal_hyphen": "371-0041", "pref": "群馬県", "city": "前橋市", "town": "川端町", "full": "群馬県前橋市川端町"}, {"postal_code": "3710046", "postal_hyphen": "371-0046", "pref": "群馬県", "city": "前橋市", "town": "川原町", "full": "群馬県前橋市川原町"}, {"postal_code": "3710823", "postal_hyphen": "371-0823", "pref": "群馬県", "city": "前橋市", "town": "川曲町", "full": "群馬県前橋市川曲町"}, {"postal_code": "3710224", "postal_hyphen": "371-0224", "pref": "群馬県", "city": "前橋市", "town": "河原浜町", "full": "群馬県前橋市河原浜町"}, {"postal_code": "3792103", "postal_hyphen": "379-2103", "pref": "群馬県", "city": "前橋市", "town": "神沢の森", "full": "群馬県前橋市神沢の森"}, {"postal_code": "3710055", "postal_hyphen": "371-0055", "pref": "群馬県", "city": "前橋市", "town": "北代田町", "full": "群馬県前橋市北代田町"}, {"postal_code": "3703574", "postal_hyphen": "370-3574", "pref": "群馬県", "city": "前橋市", "town": "清野町", "full": "群馬県前橋市清野町"}, {"postal_code": "3792146", "postal_hyphen": "379-2146", "pref": "群馬県", "city": "前橋市", "town": "公田町", "full": "群馬県前橋市公田町"}, {"postal_code": "3710831", "postal_hyphen": "371-0831", "pref": "群馬県", "city": "前橋市", "town": "小相木町", "full": "群馬県前橋市小相木町"}, {"postal_code": "3710025", "postal_hyphen": "371-0025", "pref": "群馬県", "city": "前橋市", "town": "紅雲町", "full": "群馬県前橋市紅雲町"}, {"postal_code": "3710053", "postal_hyphen": "371-0053", "pref": "群馬県", "city": "前橋市", "town": "幸塚町", "full": "群馬県前橋市幸塚町"}, {"postal_code": "3710813", "postal_hyphen": "371-0813", "pref": "群馬県", "city": "前橋市", "town": "後閑町", "full": "群馬県前橋市後閑町"}, {"postal_code": "3710033", "postal_hyphen": "371-0033", "pref": "群馬県", "city": "前橋市", "town": "国領町", "full": "群馬県前橋市国領町"}, {"postal_code": "3710834", "postal_hyphen": "371-0834", "pref": "群馬県", "city": "前橋市", "town": "後家町", "full": "群馬県前橋市後家町"}, {"postal_code": "3710122", "postal_hyphen": "371-0122", "pref": "群馬県", "city": "前橋市", "town": "小坂子町", "full": "群馬県前橋市小坂子町"}, {"postal_code": "3792162", "postal_hyphen": "379-2162", "pref": "群馬県", "city": "前橋市", "town": "小島田町", "full": "群馬県前橋市小島田町"}, {"postal_code": "3710134", "postal_hyphen": "371-0134", "pref": "群馬県", "city": "前橋市", "town": "小神明町", "full": "群馬県前橋市小神明町"}, {"postal_code": "3710132", "postal_hyphen": "371-0132", "pref": "群馬県", "city": "前橋市", "town": "五代町", "full": "群馬県前橋市五代町"}, {"postal_code": "3792122", "postal_hyphen": "379-2122", "pref": "群馬県", "city": "前橋市", "town": "駒形町", "full": "群馬県前橋市駒形町"}, {"postal_code": "3792121", "postal_hyphen": "379-2121", "pref": "群馬県", "city": "前橋市", "town": "小屋原町", "full": "群馬県前橋市小屋原町"}, {"postal_code": "3792123", "postal_hyphen": "379-2123", "pref": "群馬県", "city": "前橋市", "town": "山王町", "full": "群馬県前橋市山王町"}, {"postal_code": "3710036", "postal_hyphen": "371-0036", "pref": "群馬県", "city": "前橋市", "town": "敷島町", "full": "群馬県前橋市敷島町"}, {"postal_code": "3792142", "postal_hyphen": "379-2142", "pref": "群馬県", "city": "前橋市", "town": "下阿内町", "full": "群馬県前橋市下阿内町"}, {"postal_code": "3710842", "postal_hyphen": "371-0842", "pref": "群馬県", "city": "前橋市", "town": "下石倉町", "full": "群馬県前橋市下石倉町"}, {"postal_code": "3792152", "postal_hyphen": "379-2152", "pref": "群馬県", "city": "前橋市", "town": "下大島町", "full": "群馬県前橋市下大島町"}, {"postal_code": "3792102", "postal_hyphen": "379-2102", "pref": "群馬県", "city": "前橋市", "town": "下大屋町", "full": "群馬県前橋市下大屋町"}, {"postal_code": "3710011", "postal_hyphen": "371-0011", "pref": "群馬県", "city": "前橋市", "town": "下沖町", "full": "群馬県前橋市下沖町"}, {"postal_code": "3792144", "postal_hyphen": "379-2144", "pref": "群馬県", "city": "前橋市", "town": "下川町", "full": "群馬県前橋市下川町"}, {"postal_code": "3710031", "postal_hyphen": "371-0031", "pref": "群馬県", "city": "前橋市", "town": "下小出町", "full": "群馬県前橋市下小出町"}, {"postal_code": "3710815", "postal_hyphen": "371-0815", "pref": "群馬県", "city": "前橋市", "town": "下佐鳥町", "full": "群馬県前橋市下佐鳥町"}, {"postal_code": "3710822", "postal_hyphen": "371-0822", "pref": "群馬県", "city": "前橋市", "town": "下新田町", "full": "群馬県前橋市下新田町"}, {"postal_code": "3792151", "postal_hyphen": "379-2151", "pref": "群馬県", "city": "前橋市", "town": "下長磯町", "full": "群馬県前橋市下長磯町"}, {"postal_code": "3710054", "postal_hyphen": "371-0054", "pref": "群馬県", "city": "前橋市", "town": "下細井町", "full": "群馬県前橋市下細井町"}, {"postal_code": "3792113", "postal_hyphen": "379-2113", "pref": "群馬県", "city": "前橋市", "town": "下増田町", "full": "群馬県前橋市下増田町"}, {"postal_code": "3710016", "postal_hyphen": "371-0016", "pref": "群馬県", "city": "前橋市", "town": "城東町", "full": "群馬県前橋市城東町"}, {"postal_code": "3710034", "postal_hyphen": "371-0034", "pref": "群馬県", "city": "前橋市", "town": "昭和町", "full": "群馬県前橋市昭和町"}, {"postal_code": "3710843", "postal_hyphen": "371-0843", "pref": "群馬県", "city": "前橋市", "town": "新前橋町", "full": "群馬県前橋市新前橋町"}, {"postal_code": "3710021", "postal_hyphen": "371-0021", "pref": "群馬県", "city": "前橋市", "town": "住吉町", "full": "群馬県前橋市住吉町"}, {"postal_code": "3710047", "postal_hyphen": "371-0047", "pref": "群馬県", "city": "前橋市", "town": "関根町", "full": "群馬県前橋市関根町"}, {"postal_code": "3710853", "postal_hyphen": "371-0853", "pref": "群馬県", "city": "前橋市", "town": "総社町", "full": "群馬県前橋市総社町"}, {"postal_code": "3710851", "postal_hyphen": "371-0851", "pref": "群馬県", "city": "前橋市", "town": "総社町植野", "full": "群馬県前橋市総社町植野"}, {"postal_code": "3710858", "postal_hyphen": "371-0858", "pref": "群馬県", "city": "前橋市", "town": "総社町桜が丘", "full": "群馬県前橋市総社町桜が丘"}, {"postal_code": "3710852", "postal_hyphen": "371-0852", "pref": "群馬県", "city": "前橋市", "town": "総社町総社", "full": "群馬県前橋市総社町総社"}, {"postal_code": "3710856", "postal_hyphen": "371-0856", "pref": "群馬県", "city": "前橋市", "town": "総社町高井", "full": "群馬県前橋市総社町高井"}, {"postal_code": "3710857", "postal_hyphen": "371-0857", "pref": "群馬県", "city": "前橋市", "town": "高井町", "full": "群馬県前橋市高井町"}, {"postal_code": "3710123", "postal_hyphen": "371-0123", "pref": "群馬県", "city": "前橋市", "town": "高花台", "full": "群馬県前橋市高花台"}, {"postal_code": "3710235", "postal_hyphen": "371-0235", "pref": "群馬県", "city": "前橋市", "town": "滝窪町", "full": "群馬県前橋市滝窪町"}, {"postal_code": "3710048", "postal_hyphen": "371-0048", "pref": "群馬県", "city": "前橋市", "town": "田口町", "full": "群馬県前橋市田口町"}, {"postal_code": "3710022", "postal_hyphen": "371-0022", "pref": "群馬県", "city": "前橋市", "town": "千代田町", "full": "群馬県前橋市千代田町"}, {"postal_code": "3710003", "postal_hyphen": "371-0003", "pref": "群馬県", "city": "前橋市", "town": "堤町", "full": "群馬県前橋市堤町"}, {"postal_code": "3792108", "postal_hyphen": "379-2108", "pref": "群馬県", "city": "前橋市", "town": "鶴が谷町", "full": "群馬県前橋市鶴が谷町"}, {"postal_code": "3792141", "postal_hyphen": "379-2141", "pref": "群馬県", "city": "前橋市", "town": "鶴光路町", "full": "群馬県前橋市鶴光路町"}, {"postal_code": "3710824", "postal_hyphen": "371-0824", "pref": "群馬県", "city": "前橋市", "town": "稲荷新田町", "full": "群馬県前橋市稲荷新田町"}, {"postal_code": "3792135", "postal_hyphen": "379-2135", "pref": "群馬県", "city": "前橋市", "town": "徳丸町", "full": "群馬県前橋市徳丸町"}, {"postal_code": "3710131", "postal_hyphen": "371-0131", "pref": "群馬県", "city": "前橋市", "town": "鳥取町", "full": "群馬県前橋市鳥取町"}, {"postal_code": "3792161", "postal_hyphen": "379-2161", "pref": "群馬県", "city": "前橋市", "town": "富田町", "full": "群馬県前橋市富田町"}, {"postal_code": "3710845", "postal_hyphen": "371-0845", "pref": "群馬県", "city": "前橋市", "town": "鳥羽町", "full": "群馬県前橋市鳥羽町"}, {"postal_code": "3710855", "postal_hyphen": "371-0855", "pref": "群馬県", "city": "前橋市", "town": "問屋町", "full": "群馬県前橋市問屋町"}, {"postal_code": "3710241", "postal_hyphen": "371-0241", "pref": "群馬県", "city": "前橋市", "town": "苗ケ島町", "full": "群馬県前橋市苗ケ島町"}, {"postal_code": "3792133", "postal_hyphen": "379-2133", "pref": "群馬県", "city": "前橋市", "town": "中内町", "full": "群馬県前橋市中内町"}, {"postal_code": "3710043", "postal_hyphen": "371-0043", "pref": "群馬県", "city": "前橋市", "town": "南橘町", "full": "群馬県前橋市南橘町"}, {"postal_code": "3792143", "postal_hyphen": "379-2143", "pref": "群馬県", "city": "前橋市", "town": "新堀町", "full": "群馬県前橋市新堀町"}, {"postal_code": "3792104", "postal_hyphen": "379-2104", "pref": "群馬県", "city": "前橋市", "town": "西大室町", "full": "群馬県前橋市西大室町"}, {"postal_code": "3710013", "postal_hyphen": "371-0013", "pref": "群馬県", "city": "前橋市", "town": "西片貝町", "full": "群馬県前橋市西片貝町"}, {"postal_code": "3792131", "postal_hyphen": "379-2131", "pref": "群馬県", "city": "前橋市", "town": "西善町", "full": "群馬県前橋市西善町"}, {"postal_code": "3710042", "postal_hyphen": "371-0042", "pref": "群馬県", "city": "前橋市", "town": "日輪寺町", "full": "群馬県前橋市日輪寺町"}, {"postal_code": "3792117", "postal_hyphen": "379-2117", "pref": "群馬県", "city": "前橋市", "town": "二之宮町", "full": "群馬県前橋市二之宮町"}, {"postal_code": "3710817", "postal_hyphen": "371-0817", "pref": "群馬県", "city": "前橋市", "town": "ぬで島町", "full": "群馬県前橋市ぬで島町"}, {"postal_code": "3792166", "postal_hyphen": "379-2166", "pref": "群馬県", "city": "前橋市", "town": "野中町", "full": "群馬県前橋市野中町"}, {"postal_code": "3710133", "postal_hyphen": "371-0133", "pref": "群馬県", "city": "前橋市", "town": "端気町", "full": "群馬県前橋市端気町"}, {"postal_code": "3710837", "postal_hyphen": "371-0837", "pref": "群馬県", "city": "前橋市", "town": "箱田町", "full": "群馬県前橋市箱田町"}, {"postal_code": "3710244", "postal_hyphen": "371-0244", "pref": "群馬県", "city": "前橋市", "town": "鼻毛石町", "full": "群馬県前橋市鼻毛石町"}, {"postal_code": "3710242", "postal_hyphen": "371-0242", "pref": "群馬県", "city": "前橋市", "town": "馬場町", "full": "群馬県前橋市馬場町"}, {"postal_code": "3792164", "postal_hyphen": "379-2164", "pref": "群馬県", "city": "前橋市", "town": "東上野町", "full": "群馬県前橋市東上野町"}, {"postal_code": "3792105", "postal_hyphen": "379-2105", "pref": "群馬県", "city": "前橋市", "town": "東大室町", "full": "群馬県前橋市東大室町"}, {"postal_code": "3710012", "postal_hyphen": "371-0012", "pref": "群馬県", "city": "前橋市", "town": "東片貝町", "full": "群馬県前橋市東片貝町"}, {"postal_code": "3710234", "postal_hyphen": "371-0234", "pref": "群馬県", "city": "前橋市", "town": "東金丸町", "full": "群馬県前橋市東金丸町"}, {"postal_code": "3792132", "postal_hyphen": "379-2132", "pref": "群馬県", "city": "前橋市", "town": "東善町", "full": "群馬県前橋市東善町"}, {"postal_code": "3710833", "postal_hyphen": "371-0833", "pref": "群馬県", "city": "前橋市", "town": "光が丘町", "full": "群馬県前橋市光が丘町"}, {"postal_code": "3710221", "postal_hyphen": "371-0221", "pref": "群馬県", "city": "前橋市", "town": "樋越町", "full": "群馬県前橋市樋越町"}, {"postal_code": "3710017", "postal_hyphen": "371-0017", "pref": "群馬県", "city": "前橋市", "town": "日吉町", "full": "群馬県前橋市日吉町"}, {"postal_code": "3710812", "postal_hyphen": "371-0812", "pref": "群馬県", "city": "前橋市", "town": "広瀬町", "full": "群馬県前橋市広瀬町"}, {"postal_code": "3710101", "postal_hyphen": "371-0101", "pref": "群馬県", "city": "前橋市", "town": "富士見町赤城山", "full": "群馬県前橋市富士見町赤城山"}, {"postal_code": "3710105", "postal_hyphen": "371-0105", "pref": "群馬県", "city": "前橋市", "town": "富士見町石井", "full": "群馬県前橋市富士見町石井"}, {"postal_code": "3710106", "postal_hyphen": "371-0106", "pref": "群馬県", "city": "前橋市", "town": "富士見町市之木場", "full": "群馬県前橋市富士見町市之木場"}, {"postal_code": "3710113", "postal_hyphen": "371-0113", "pref": "群馬県", "city": "前橋市", "town": "富士見町漆窪", "full": "群馬県前橋市富士見町漆窪"}, {"postal_code": "3710115", "postal_hyphen": "371-0115", "pref": "群馬県", "city": "前橋市", "town": "富士見町小沢", "full": "群馬県前橋市富士見町小沢"}, {"postal_code": "3710103", "postal_hyphen": "371-0103", "pref": "群馬県", "city": "前橋市", "town": "富士見町小暮", "full": "群馬県前橋市富士見町小暮"}, {"postal_code": "3710111", "postal_hyphen": "371-0111", "pref": "群馬県", "city": "前橋市", "town": "富士見町米野", "full": "群馬県前橋市富士見町米野"}, {"postal_code": "3710114", "postal_hyphen": "371-0114", "pref": "群馬県", "city": "前橋市", "town": "富士見町田島", "full": "群馬県前橋市富士見町田島"}, {"postal_code": "3710104", "postal_hyphen": "371-0104", "pref": "群馬県", "city": "前橋市", "town": "富士見町時沢", "full": "群馬県前橋市富士見町時沢"}, {"postal_code": "3710116", "postal_hyphen": "371-0116", "pref": "群馬県", "city": "前橋市", "town": "富士見町原之郷", "full": "群馬県前橋市富士見町原之郷"}, {"postal_code": "3710112", "postal_hyphen": "371-0112", "pref": "群馬県", "city": "前橋市", "town": "富士見町引田", "full": "群馬県前橋市富士見町引田"}, {"postal_code": "3710102", "postal_hyphen": "371-0102", "pref": "群馬県", "city": "前橋市", "town": "富士見町皆沢", "full": "群馬県前橋市富士見町皆沢"}, {"postal_code": "3710107", "postal_hyphen": "371-0107", "pref": "群馬県", "city": "前橋市", "town": "富士見町山口", "full": "群馬県前橋市富士見町山口"}, {"postal_code": "3710117", "postal_hyphen": "371-0117", "pref": "群馬県", "city": "前橋市", "town": "富士見町横室", "full": "群馬県前橋市富士見町横室"}, {"postal_code": "3710844", "postal_hyphen": "371-0844", "pref": "群馬県", "city": "前橋市", "town": "古市町", "full": "群馬県前橋市古市町"}, {"postal_code": "3710801", "postal_hyphen": "371-0801", "pref": "群馬県", "city": "前橋市", "town": "文京町", "full": "群馬県前橋市文京町"}, {"postal_code": "3710027", "postal_hyphen": "371-0027", "pref": "群馬県", "city": "前橋市", "town": "平和町", "full": "群馬県前橋市平和町"}, {"postal_code": "3792136", "postal_hyphen": "379-2136", "pref": "群馬県", "city": "前橋市", "town": "房丸町", "full": "群馬県前橋市房丸町"}, {"postal_code": "3710231", "postal_hyphen": "371-0231", "pref": "群馬県", "city": "前橋市", "town": "堀越町", "full": "群馬県前橋市堀越町"}, {"postal_code": "3710005", "postal_hyphen": "371-0005", "pref": "群馬県", "city": "前橋市", "town": "堀之下町", "full": "群馬県前橋市堀之下町"}, {"postal_code": "3710023", "postal_hyphen": "371-0023", "pref": "群馬県", "city": "前橋市", "town": "本町", "full": "群馬県前橋市本町"}, {"postal_code": "3710835", "postal_hyphen": "371-0835", "pref": "群馬県", "city": "前橋市", "town": "前箱田町", "full": "群馬県前橋市前箱田町"}, {"postal_code": "3710015", "postal_hyphen": "371-0015", "pref": "群馬県", "city": "前橋市", "town": "三河町", "full": "群馬県前橋市三河町"}, {"postal_code": "3710018", "postal_hyphen": "371-0018", "pref": "群馬県", "city": "前橋市", "town": "三俣町", "full": "群馬県前橋市三俣町"}, {"postal_code": "3710045", "postal_hyphen": "371-0045", "pref": "群馬県", "city": "前橋市", "town": "緑が丘町", "full": "群馬県前橋市緑が丘町"}, {"postal_code": "3710805", "postal_hyphen": "371-0805", "pref": "群馬県", "city": "前橋市", "town": "南町", "full": "群馬県前橋市南町"}, {"postal_code": "3710125", "postal_hyphen": "371-0125", "pref": "群馬県", "city": "前橋市", "town": "嶺町", "full": "群馬県前橋市嶺町"}, {"postal_code": "3710814", "postal_hyphen": "371-0814", "pref": "群馬県", "city": "前橋市", "town": "宮地町", "full": "群馬県前橋市宮地町"}, {"postal_code": "3710247", "postal_hyphen": "371-0247", "pref": "群馬県", "city": "前橋市", "town": "三夜沢町", "full": "群馬県前橋市三夜沢町"}, {"postal_code": "3710232", "postal_hyphen": "371-0232", "pref": "群馬県", "city": "前橋市", "town": "茂木町", "full": "群馬県前橋市茂木町"}, {"postal_code": "3710846", "postal_hyphen": "371-0846", "pref": "群馬県", "city": "前橋市", "town": "元総社町", "full": "群馬県前橋市元総社町"}, {"postal_code": "3710233", "postal_hyphen": "371-0233", "pref": "群馬県", "city": "前橋市", "town": "横沢町", "full": "群馬県前橋市横沢町"}, {"postal_code": "3792145", "postal_hyphen": "379-2145", "pref": "群馬県", "city": "前橋市", "town": "横手町", "full": "群馬県前橋市横手町"}, {"postal_code": "3792134", "postal_hyphen": "379-2134", "pref": "群馬県", "city": "前橋市", "town": "力丸町", "full": "群馬県前橋市力丸町"}, {"postal_code": "3710057", "postal_hyphen": "371-0057", "pref": "群馬県", "city": "前橋市", "town": "龍蔵寺町", "full": "群馬県前橋市龍蔵寺町"}, {"postal_code": "3710804", "postal_hyphen": "371-0804", "pref": "群馬県", "city": "前橋市", "town": "六供町", "full": "群馬県前橋市六供町"}, {"postal_code": "3710032", "postal_hyphen": "371-0032", "pref": "群馬県", "city": "前橋市", "town": "若宮町", "full": "群馬県前橋市若宮町"}, {"postal_code": "3700000", "postal_hyphen": "370-0000", "pref": "群馬県", "city": "高崎市", "town": "", "full": "群馬県高崎市"}, {"postal_code": "3700811", "postal_hyphen": "370-0811", "pref": "群馬県", "city": "高崎市", "town": "相生町", "full": "群馬県高崎市相生町"}, {"postal_code": "3700818", "postal_hyphen": "370-0818", "pref": "群馬県", "city": "高崎市", "town": "赤坂町", "full": "群馬県高崎市赤坂町"}, {"postal_code": "3701211", "postal_hyphen": "370-1211", "pref": "群馬県", "city": "高崎市", "town": "阿久津町", "full": "群馬県高崎市阿久津町"}, {"postal_code": "3700052", "postal_hyphen": "370-0052", "pref": "群馬県", "city": "高崎市", "town": "旭町", "full": "群馬県高崎市旭町"}, {"postal_code": "3703531", "postal_hyphen": "370-3531", "pref": "群馬県", "city": "高崎市", "town": "足門町", "full": "群馬県高崎市足門町"}, {"postal_code": "3700045", "postal_hyphen": "370-0045", "pref": "群馬県", "city": "高崎市", "town": "東町", "full": "群馬県高崎市東町"}, {"postal_code": "3700831", "postal_hyphen": "370-0831", "pref": "群馬県", "city": "高崎市", "town": "あら町", "full": "群馬県高崎市あら町"}, {"postal_code": "3700063", "postal_hyphen": "370-0063", "pref": "群馬県", "city": "高崎市", "town": "飯玉町", "full": "群馬県高崎市飯玉町"}, {"postal_code": "3700069", "postal_hyphen": "370-0069", "pref": "群馬県", "city": "高崎市", "town": "飯塚町", "full": "群馬県高崎市飯塚町"}, {"postal_code": "3700864", "postal_hyphen": "370-0864", "pref": "群馬県", "city": "高崎市", "town": "石原町", "full": "群馬県高崎市石原町"}, {"postal_code": "3703534", "postal_hyphen": "370-3534", "pref": "群馬県", "city": "高崎市", "town": "井出町", "full": "群馬県高崎市井出町"}, {"postal_code": "3700062", "postal_hyphen": "370-0062", "pref": "群馬県", "city": "高崎市", "town": "稲荷町", "full": "群馬県高崎市稲荷町"}, {"postal_code": "3700004", "postal_hyphen": "370-0004", "pref": "群馬県", "city": "高崎市", "town": "井野町", "full": "群馬県高崎市井野町"}, {"postal_code": "3700044", "postal_hyphen": "370-0044", "pref": "群馬県", "city": "高崎市", "town": "岩押町", "full": "群馬県高崎市岩押町"}, {"postal_code": "3701208", "postal_hyphen": "370-1208", "pref": "群馬県", "city": "高崎市", "town": "岩鼻町", "full": "群馬県高崎市岩鼻町"}, {"postal_code": "3700067", "postal_hyphen": "370-0067", "pref": "群馬県", "city": "高崎市", "town": "請地町", "full": "群馬県高崎市請地町"}, {"postal_code": "3703518", "postal_hyphen": "370-3518", "pref": "群馬県", "city": "高崎市", "town": "後疋間町", "full": "群馬県高崎市後疋間町"}, {"postal_code": "3700807", "postal_hyphen": "370-0807", "pref": "群馬県", "city": "高崎市", "town": "歌川町", "full": "群馬県高崎市歌川町"}, {"postal_code": "3700046", "postal_hyphen": "370-0046", "pref": "群馬県", "city": "高崎市", "town": "江木町", "full": "群馬県高崎市江木町"}, {"postal_code": "3700012", "postal_hyphen": "370-0012", "pref": "群馬県", "city": "高崎市", "town": "大沢町", "full": "群馬県高崎市大沢町"}, {"postal_code": "3700803", "postal_hyphen": "370-0803", "pref": "群馬県", "city": "高崎市", "town": "大橋町", "full": "群馬県高崎市大橋町"}, {"postal_code": "3700072", "postal_hyphen": "370-0072", "pref": "群馬県", "city": "高崎市", "town": "大八木町", "full": "群馬県高崎市大八木町"}, {"postal_code": "3700086", "postal_hyphen": "370-0086", "pref": "群馬県", "city": "高崎市", "town": "沖町", "full": "群馬県高崎市沖町"}, {"postal_code": "3700042", "postal_hyphen": "370-0042", "pref": "群馬県", "city": "高崎市", "town": "貝沢町", "full": "群馬県高崎市貝沢町"}, {"postal_code": "3700838", "postal_hyphen": "370-0838", "pref": "群馬県", "city": "高崎市", "town": "鍛冶町", "full": "群馬県高崎市鍛冶町"}, {"postal_code": "3700862", "postal_hyphen": "370-0862", "pref": "群馬県", "city": "高崎市", "town": "片岡町", "full": "群馬県高崎市片岡町"}, {"postal_code": "3700814", "postal_hyphen": "370-0814", "pref": "群馬県", "city": "高崎市", "town": "嘉多町", "full": "群馬県高崎市嘉多町"}, {"postal_code": "3700882", "postal_hyphen": "370-0882", "pref": "群馬県", "city": "高崎市", "town": "金井淵町", "full": "群馬県高崎市金井淵町"}, {"postal_code": "3703511", "postal_hyphen": "370-3511", "pref": "群馬県", "city": "高崎市", "town": "金古町", "full": "群馬県高崎市金古町"}, {"postal_code": "3703335", "postal_hyphen": "370-3335", "pref": "群馬県", "city": "高崎市", "town": "上大島町", "full": "群馬県高崎市上大島町"}, {"postal_code": "3700031", "postal_hyphen": "370-0031", "pref": "群馬県", "city": "高崎市", "town": "上大類町", "full": "群馬県高崎市上大類町"}, {"postal_code": "3700078", "postal_hyphen": "370-0078", "pref": "群馬県", "city": "高崎市", "town": "上小鳥町", "full": "群馬県高崎市上小鳥町"}, {"postal_code": "3700077", "postal_hyphen": "370-0077", "pref": "群馬県", "city": "高崎市", "town": "上小塙町", "full": "群馬県高崎市上小塙町"}, {"postal_code": "3703345", "postal_hyphen": "370-3345", "pref": "群馬県", "city": "高崎市", "town": "上里見町", "full": "群馬県高崎市上里見町"}, {"postal_code": "3700857", "postal_hyphen": "370-0857", "pref": "群馬県", "city": "高崎市", "town": "上佐野町", "full": "群馬県高崎市上佐野町"}, {"postal_code": "3700027", "postal_hyphen": "370-0027", "pref": "群馬県", "city": "高崎市", "town": "上滝町", "full": "群馬県高崎市上滝町"}, {"postal_code": "3700871", "postal_hyphen": "370-0871", "pref": "群馬県", "city": "高崎市", "town": "上豊岡町", "full": "群馬県高崎市上豊岡町"}, {"postal_code": "3700851", "postal_hyphen": "370-0851", "pref": "群馬県", "city": "高崎市", "town": "上中居町", "full": "群馬県高崎市上中居町"}, {"postal_code": "3700801", "postal_hyphen": "370-0801", "pref": "群馬県", "city": "高崎市", "town": "上並榎町", "full": "群馬県高崎市上並榎町"}, {"postal_code": "3703346", "postal_hyphen": "370-3346", "pref": "群馬県", "city": "高崎市", "town": "上室田町", "full": "群馬県高崎市上室田町"}, {"postal_code": "3700806", "postal_hyphen": "370-0806", "pref": "群馬県", "city": "高崎市", "town": "上和田町", "full": "群馬県高崎市上和田町"}, {"postal_code": "3700084", "postal_hyphen": "370-0084", "pref": "群馬県", "city": "高崎市", "town": "菊地町", "full": "群馬県高崎市菊地町"}, {"postal_code": "3700082", "postal_hyphen": "370-0082", "pref": "群馬県", "city": "高崎市", "town": "北新波町", "full": "群馬県高崎市北新波町"}, {"postal_code": "3700872", "postal_hyphen": "370-0872", "pref": "群馬県", "city": "高崎市", "town": "北久保町", "full": "群馬県高崎市北久保町"}, {"postal_code": "3700056", "postal_hyphen": "370-0056", "pref": "群馬県", "city": "高崎市", "town": "北通町", "full": "群馬県高崎市北通町"}, {"postal_code": "3703513", "postal_hyphen": "370-3513", "pref": "群馬県", "city": "高崎市", "town": "北原町", "full": "群馬県高崎市北原町"}, {"postal_code": "3700842", "postal_hyphen": "370-0842", "pref": "群馬県", "city": "高崎市", "town": "北双葉町", "full": "群馬県高崎市北双葉町"}, {"postal_code": "3701212", "postal_hyphen": "370-1212", "pref": "群馬県", "city": "高崎市", "town": "木部町", "full": "群馬県高崎市木部町"}, {"postal_code": "3700011", "postal_hyphen": "370-0011", "pref": "群馬県", "city": "高崎市", "town": "京目町", "full": "群馬県高崎市京目町"}, {"postal_code": "3700088", "postal_hyphen": "370-0088", "pref": "群馬県", "city": "高崎市", "town": "行力町", "full": "群馬県高崎市行力町"}, {"postal_code": "3700058", "postal_hyphen": "370-0058", "pref": "群馬県", "city": "高崎市", "town": "九蔵町", "full": "群馬県高崎市九蔵町"}, {"postal_code": "3701201", "postal_hyphen": "370-1201", "pref": "群馬県", "city": "高崎市", "town": "倉賀野町", "full": "群馬県高崎市倉賀野町"}, {"postal_code": "3703404", "postal_hyphen": "370-3404", "pref": "群馬県", "city": "高崎市", "town": "倉渕町岩氷", "full": "群馬県高崎市倉渕町岩氷"}, {"postal_code": "3703405", "postal_hyphen": "370-3405", "pref": "群馬県", "city": "高崎市", "town": "倉渕町川浦", "full": "群馬県高崎市倉渕町川浦"}, {"postal_code": "3703401", "postal_hyphen": "370-3401", "pref": "群馬県", "city": "高崎市", "town": "倉渕町権田", "full": "群馬県高崎市倉渕町権田"}, {"postal_code": "3703402", "postal_hyphen": "370-3402", "pref": "群馬県", "city": "高崎市", "town": "倉渕町三ノ倉", "full": "群馬県高崎市倉渕町三ノ倉"}, {"postal_code": "3703403", "postal_hyphen": "370-3403", "pref": "群馬県", "city": "高崎市", "town": "倉渕町水沼", "full": "群馬県高崎市倉渕町水沼"}, {"postal_code": "3701205", "postal_hyphen": "370-1205", "pref": "群馬県", "city": "高崎市", "town": "栗崎町", "full": "群馬県高崎市栗崎町"}, {"postal_code": "3700883", "postal_hyphen": "370-0883", "pref": "群馬県", "city": "高崎市", "town": "剣崎町", "full": "群馬県高崎市剣崎町"}, {"postal_code": "3703336", "postal_hyphen": "370-3336", "pref": "群馬県", "city": "高崎市", "town": "神戸町", "full": "群馬県高崎市神戸町"}, {"postal_code": "3700071", "postal_hyphen": "370-0071", "pref": "群馬県", "city": "高崎市", "town": "小八木町", "full": "群馬県高崎市小八木町"}, {"postal_code": "3700841", "postal_hyphen": "370-0841", "pref": "群馬県", "city": "高崎市", "town": "栄町", "full": "群馬県高崎市栄町"}, {"postal_code": "3700856", "postal_hyphen": "370-0856", "pref": "群馬県", "city": "高崎市", "town": "佐野窪町", "full": "群馬県高崎市佐野窪町"}, {"postal_code": "3700827", "postal_hyphen": "370-0827", "pref": "群馬県", "city": "高崎市", "town": "鞘町", "full": "群馬県高崎市鞘町"}, {"postal_code": "3700845", "postal_hyphen": "370-0845", "pref": "群馬県", "city": "高崎市", "town": "新後閑町", "full": "群馬県高崎市新後閑町"}, {"postal_code": "3700035", "postal_hyphen": "370-0035", "pref": "群馬県", "city": "高崎市", "town": "柴崎町", "full": "群馬県高崎市柴崎町"}, {"postal_code": "3700064", "postal_hyphen": "370-0064", "pref": "群馬県", "city": "高崎市", "town": "芝塚町", "full": "群馬県高崎市芝塚町"}, {"postal_code": "3700015", "postal_hyphen": "370-0015", "pref": "群馬県", "city": "高崎市", "town": "島野町", "full": "群馬県高崎市島野町"}, {"postal_code": "3700886", "postal_hyphen": "370-0886", "pref": "群馬県", "city": "高崎市", "town": "下大島町", "full": "群馬県高崎市下大島町"}, {"postal_code": "3700034", "postal_hyphen": "370-0034", "pref": "群馬県", "city": "高崎市", "town": "下大類町", "full": "群馬県高崎市下大類町"}, {"postal_code": "3700074", "postal_hyphen": "370-0074", "pref": "群馬県", "city": "高崎市", "town": "下小鳥町", "full": "群馬県高崎市下小鳥町"}, {"postal_code": "3700076", "postal_hyphen": "370-0076", "pref": "群馬県", "city": "高崎市", "town": "下小塙町", "full": "群馬県高崎市下小塙町"}, {"postal_code": "3700025", "postal_hyphen": "370-0025", "pref": "群馬県", "city": "高崎市", "town": "下斉田町", "full": "群馬県高崎市下斉田町"}, {"postal_code": "3703343", "postal_hyphen": "370-3343", "pref": "群馬県", "city": "高崎市", "town": "下里見町", "full": "群馬県高崎市下里見町"}, {"postal_code": "3700855", "postal_hyphen": "370-0855", "pref": "群馬県", "city": "高崎市", "town": "下佐野町", "full": "群馬県高崎市下佐野町"}, {"postal_code": "3700026", "postal_hyphen": "370-0026", "pref": "群馬県", "city": "高崎市", "town": "下滝町", "full": "群馬県高崎市下滝町"}, {"postal_code": "3700873", "postal_hyphen": "370-0873", "pref": "群馬県", "city": "高崎市", "town": "下豊岡町", "full": "群馬県高崎市下豊岡町"}, {"postal_code": "3700853", "postal_hyphen": "370-0853", "pref": "群馬県", "city": "高崎市", "town": "下中居町", "full": "群馬県高崎市下中居町"}, {"postal_code": "3700854", "postal_hyphen": "370-0854", "pref": "群馬県", "city": "高崎市", "town": "下之城町", "full": "群馬県高崎市下之城町"}, {"postal_code": "3703342", "postal_hyphen": "370-3342", "pref": "群馬県", "city": "高崎市", "town": "下室田町", "full": "群馬県高崎市下室田町"}, {"postal_code": "3700837", "postal_hyphen": "370-0837", "pref": "群馬県", "city": "高崎市", "town": "下横町", "full": "群馬県高崎市下横町"}, {"postal_code": "3700846", "postal_hyphen": "370-0846", "pref": "群馬県", "city": "高崎市", "town": "下和田町", "full": "群馬県高崎市下和田町"}, {"postal_code": "3703331", "postal_hyphen": "370-3331", "pref": "群馬県", "city": "高崎市", "town": "十文字町", "full": "群馬県高崎市十文字町"}, {"postal_code": "3700032", "postal_hyphen": "370-0032", "pref": "群馬県", "city": "高崎市", "town": "宿大類町", "full": "群馬県高崎市宿大類町"}, {"postal_code": "3700022", "postal_hyphen": "370-0022", "pref": "群馬県", "city": "高崎市", "town": "宿横手町", "full": "群馬県高崎市宿横手町"}, {"postal_code": "3700008", "postal_hyphen": "370-0008", "pref": "群馬県", "city": "高崎市", "town": "正観寺町", "full": "群馬県高崎市正観寺町"}, {"postal_code": "3700068", "postal_hyphen": "370-0068", "pref": "群馬県", "city": "高崎市", "town": "昭和町", "full": "群馬県高崎市昭和町"}, {"postal_code": "3703332", "postal_hyphen": "370-3332", "pref": "群馬県", "city": "高崎市", "town": "白岩町", "full": "群馬県高崎市白岩町"}, {"postal_code": "3700825", "postal_hyphen": "370-0825", "pref": "群馬県", "city": "高崎市", "town": "白銀町", "full": "群馬県高崎市白銀町"}, {"postal_code": "3700866", "postal_hyphen": "370-0866", "pref": "群馬県", "city": "高崎市", "town": "城山町", "full": "群馬県高崎市城山町"}, {"postal_code": "3700821", "postal_hyphen": "370-0821", "pref": "群馬県", "city": "高崎市", "town": "新紺屋町", "full": "群馬県高崎市新紺屋町"}, {"postal_code": "3700054", "postal_hyphen": "370-0054", "pref": "群馬県", "city": "高崎市", "town": "真町", "full": "群馬県高崎市真町"}, {"postal_code": "3700833", "postal_hyphen": "370-0833", "pref": "群馬県", "city": "高崎市", "town": "新田町", "full": "群馬県高崎市新田町"}, {"postal_code": "3700003", "postal_hyphen": "370-0003", "pref": "群馬県", "city": "高崎市", "town": "新保田中町", "full": "群馬県高崎市新保田中町"}, {"postal_code": "3700018", "postal_hyphen": "370-0018", "pref": "群馬県", "city": "高崎市", "town": "新保町", "full": "群馬県高崎市新保町"}, {"postal_code": "3701301", "postal_hyphen": "370-1301", "pref": "群馬県", "city": "高崎市", "town": "新町", "full": "群馬県高崎市新町"}, {"postal_code": "3700065", "postal_hyphen": "370-0065", "pref": "群馬県", "city": "高崎市", "town": "末広町", "full": "群馬県高崎市末広町"}, {"postal_code": "3703522", "postal_hyphen": "370-3522", "pref": "群馬県", "city": "高崎市", "town": "菅谷町", "full": "群馬県高崎市菅谷町"}, {"postal_code": "3700832", "postal_hyphen": "370-0832", "pref": "群馬県", "city": "高崎市", "town": "砂賀町", "full": "群馬県高崎市砂賀町"}, {"postal_code": "3700804", "postal_hyphen": "370-0804", "pref": "群馬県", "city": "高崎市", "town": "住吉町", "full": "群馬県高崎市住吉町"}, {"postal_code": "3700817", "postal_hyphen": "370-0817", "pref": "群馬県", "city": "高崎市", "town": "堰代町", "full": "群馬県高崎市堰代町"}, {"postal_code": "3701206", "postal_hyphen": "370-1206", "pref": "群馬県", "city": "高崎市", "town": "台新田町", "full": "群馬県高崎市台新田町"}, {"postal_code": "3700805", "postal_hyphen": "370-0805", "pref": "群馬県", "city": "高崎市", "town": "台町", "full": "群馬県高崎市台町"}, {"postal_code": "3700047", "postal_hyphen": "370-0047", "pref": "群馬県", "city": "高崎市", "town": "高砂町", "full": "群馬県高崎市高砂町"}, {"postal_code": "3700043", "postal_hyphen": "370-0043", "pref": "群馬県", "city": "高崎市", "town": "高関町", "full": "群馬県高崎市高関町"}, {"postal_code": "3703333", "postal_hyphen": "370-3333", "pref": "群馬県", "city": "高崎市", "town": "高浜町", "full": "群馬県高崎市高浜町"}, {"postal_code": "3700829", "postal_hyphen": "370-0829", "pref": "群馬県", "city": "高崎市", "town": "高松町", "full": "群馬県高崎市高松町"}, {"postal_code": "3700835", "postal_hyphen": "370-0835", "pref": "群馬県", "city": "高崎市", "town": "竜見町", "full": "群馬県高崎市竜見町"}, {"postal_code": "3700824", "postal_hyphen": "370-0824", "pref": "群馬県", "city": "高崎市", "town": "田町", "full": "群馬県高崎市田町"}, {"postal_code": "3703515", "postal_hyphen": "370-3515", "pref": "群馬県", "city": "高崎市", "town": "塚田町", "full": "群馬県高崎市塚田町"}, {"postal_code": "3700075", "postal_hyphen": "370-0075", "pref": "群馬県", "city": "高崎市", "town": "筑縄町", "full": "群馬県高崎市筑縄町"}, {"postal_code": "3700059", "postal_hyphen": "370-0059", "pref": "群馬県", "city": "高崎市", "town": "椿町", "full": "群馬県高崎市椿町"}, {"postal_code": "3700848", "postal_hyphen": "370-0848", "pref": "群馬県", "city": "高崎市", "town": "鶴見町", "full": "群馬県高崎市鶴見町"}, {"postal_code": "3700865", "postal_hyphen": "370-0865", "pref": "群馬県", "city": "高崎市", "town": "寺尾町", "full": "群馬県高崎市寺尾町"}, {"postal_code": "3700061", "postal_hyphen": "370-0061", "pref": "群馬県", "city": "高崎市", "town": "天神町", "full": "群馬県高崎市天神町"}, {"postal_code": "3703516", "postal_hyphen": "370-3516", "pref": "群馬県", "city": "高崎市", "town": "稲荷台町", "full": "群馬県高崎市稲荷台町"}, {"postal_code": "3700053", "postal_hyphen": "370-0053", "pref": "群馬県", "city": "高崎市", "town": "通町", "full": "群馬県高崎市通町"}, {"postal_code": "3700816", "postal_hyphen": "370-0816", "pref": "群馬県", "city": "高崎市", "town": "常盤町", "full": "群馬県高崎市常盤町"}, {"postal_code": "3700006", "postal_hyphen": "370-0006", "pref": "群馬県", "city": "高崎市", "town": "問屋町", "full": "群馬県高崎市問屋町"}, {"postal_code": "3700007", "postal_hyphen": "370-0007", "pref": "群馬県", "city": "高崎市", "town": "問屋町西", "full": "群馬県高崎市問屋町西"}, {"postal_code": "3703524", "postal_hyphen": "370-3524", "pref": "群馬県", "city": "高崎市", "town": "中泉町", "full": "群馬県高崎市中泉町"}, {"postal_code": "3700852", "postal_hyphen": "370-0852", "pref": "群馬県", "city": "高崎市", "town": "中居町", "full": "群馬県高崎市中居町"}, {"postal_code": "3700033", "postal_hyphen": "370-0033", "pref": "群馬県", "city": "高崎市", "town": "中大類町", "full": "群馬県高崎市中大類町"}, {"postal_code": "3700001", "postal_hyphen": "370-0001", "pref": "群馬県", "city": "高崎市", "town": "中尾町", "full": "群馬県高崎市中尾町"}, {"postal_code": "3700823", "postal_hyphen": "370-0823", "pref": "群馬県", "city": "高崎市", "town": "中紺屋町", "full": "群馬県高崎市中紺屋町"}, {"postal_code": "3703532", "postal_hyphen": "370-3532", "pref": "群馬県", "city": "高崎市", "town": "中里町", "full": "群馬県高崎市中里町"}, {"postal_code": "3703344", "postal_hyphen": "370-3344", "pref": "群馬県", "city": "高崎市", "town": "中里見町", "full": "群馬県高崎市中里見町"}, {"postal_code": "3700023", "postal_hyphen": "370-0023", "pref": "群馬県", "city": "高崎市", "town": "中島町", "full": "群馬県高崎市中島町"}, {"postal_code": "3700874", "postal_hyphen": "370-0874", "pref": "群馬県", "city": "高崎市", "town": "中豊岡町", "full": "群馬県高崎市中豊岡町"}, {"postal_code": "3703347", "postal_hyphen": "370-3347", "pref": "群馬県", "city": "高崎市", "town": "中室田町", "full": "群馬県高崎市中室田町"}, {"postal_code": "3700802", "postal_hyphen": "370-0802", "pref": "群馬県", "city": "高崎市", "town": "並榎町", "full": "群馬県高崎市並榎町"}, {"postal_code": "3700812", "postal_hyphen": "370-0812", "pref": "群馬県", "city": "高崎市", "town": "成田町", "full": "群馬県高崎市成田町"}, {"postal_code": "3703512", "postal_hyphen": "370-3512", "pref": "群馬県", "city": "高崎市", "town": "西国分町", "full": "群馬県高崎市西国分町"}, {"postal_code": "3700017", "postal_hyphen": "370-0017", "pref": "群馬県", "city": "高崎市", "town": "西島町", "full": "群馬県高崎市西島町"}, {"postal_code": "3700021", "postal_hyphen": "370-0021", "pref": "群馬県", "city": "高崎市", "town": "西横手町", "full": "群馬県高崎市西横手町"}, {"postal_code": "3700048", "postal_hyphen": "370-0048", "pref": "群馬県", "city": "高崎市", "town": "日光町", "full": "群馬県高崎市日光町"}, {"postal_code": "3701214", "postal_hyphen": "370-1214", "pref": "群馬県", "city": "高崎市", "town": "根小屋町", "full": "群馬県高崎市根小屋町"}, {"postal_code": "3700867", "postal_hyphen": "370-0867", "pref": "群馬県", "city": "高崎市", "town": "乗附町", "full": "群馬県高崎市乗附町"}, {"postal_code": "3700013", "postal_hyphen": "370-0013", "pref": "群馬県", "city": "高崎市", "town": "萩原町", "full": "群馬県高崎市萩原町"}, {"postal_code": "3700868", "postal_hyphen": "370-0868", "pref": "群馬県", "city": "高崎市", "town": "鼻高町", "full": "群馬県高崎市鼻高町"}, {"postal_code": "3700081", "postal_hyphen": "370-0081", "pref": "群馬県", "city": "高崎市", "town": "浜川町", "full": "群馬県高崎市浜川町"}, {"postal_code": "3700005", "postal_hyphen": "370-0005", "pref": "群馬県", "city": "高崎市", "town": "浜尻町", "full": "群馬県高崎市浜尻町"}, {"postal_code": "3703348", "postal_hyphen": "370-3348", "pref": "群馬県", "city": "高崎市", "town": "榛名湖町", "full": "群馬県高崎市榛名湖町"}, {"postal_code": "3703341", "postal_hyphen": "370-3341", "pref": "群馬県", "city": "高崎市", "town": "榛名山町", "full": "群馬県高崎市榛名山町"}, {"postal_code": "3700041", "postal_hyphen": "370-0041", "pref": "群馬県", "city": "高崎市", "town": "東貝沢町", "full": "群馬県高崎市東貝沢町"}, {"postal_code": "3703514", "postal_hyphen": "370-3514", "pref": "群馬県", "city": "高崎市", "town": "東国分町", "full": "群馬県高崎市東国分町"}, {"postal_code": "3701204", "postal_hyphen": "370-1204", "pref": "群馬県", "city": "高崎市", "town": "東中里町", "full": "群馬県高崎市東中里町"}, {"postal_code": "3703517", "postal_hyphen": "370-3517", "pref": "群馬県", "city": "高崎市", "town": "引間町", "full": "群馬県高崎市引間町"}, {"postal_code": "3700863", "postal_hyphen": "370-0863", "pref": "群馬県", "city": "高崎市", "town": "聖石町", "full": "群馬県高崎市聖石町"}, {"postal_code": "3700002", "postal_hyphen": "370-0002", "pref": "群馬県", "city": "高崎市", "town": "日高町", "full": "群馬県高崎市日高町"}, {"postal_code": "3700839", "postal_hyphen": "370-0839", "pref": "群馬県", "city": "高崎市", "town": "檜物町", "full": "群馬県高崎市檜物町"}, {"postal_code": "3703519", "postal_hyphen": "370-3519", "pref": "群馬県", "city": "高崎市", "town": "冷水町", "full": "群馬県高崎市冷水町"}, {"postal_code": "3703523", "postal_hyphen": "370-3523", "pref": "群馬県", "city": "高崎市", "town": "福島町", "full": "群馬県高崎市福島町"}, {"postal_code": "3700875", "postal_hyphen": "370-0875", "pref": "群馬県", "city": "高崎市", "town": "藤塚町", "full": "群馬県高崎市藤塚町"}, {"postal_code": "3700843", "postal_hyphen": "370-0843", "pref": "群馬県", "city": "高崎市", "town": "双葉町", "full": "群馬県高崎市双葉町"}, {"postal_code": "3703533", "postal_hyphen": "370-3533", "pref": "群馬県", "city": "高崎市", "town": "保渡田町", "full": "群馬県高崎市保渡田町"}, {"postal_code": "3703334", "postal_hyphen": "370-3334", "pref": "群馬県", "city": "高崎市", "town": "本郷町", "full": "群馬県高崎市本郷町"}, {"postal_code": "3700881", "postal_hyphen": "370-0881", "pref": "群馬県", "city": "高崎市", "town": "町屋町", "full": "群馬県高崎市町屋町"}, {"postal_code": "3703102", "postal_hyphen": "370-3102", "pref": "群馬県", "city": "高崎市", "town": "箕郷町生原", "full": "群馬県高崎市箕郷町生原"}, {"postal_code": "3703101", "postal_hyphen": "370-3101", "pref": "群馬県", "city": "高崎市", "town": "箕郷町柏木沢", "full": "群馬県高崎市箕郷町柏木沢"}, {"postal_code": "3703114", "postal_hyphen": "370-3114", "pref": "群馬県", "city": "高崎市", "town": "箕郷町金敷平", "full": "群馬県高崎市箕郷町金敷平"}, {"postal_code": "3703104", "postal_hyphen": "370-3104", "pref": "群馬県", "city": "高崎市", "town": "箕郷町上芝", "full": "群馬県高崎市箕郷町上芝"}, {"postal_code": "3703103", "postal_hyphen": "370-3103", "pref": "群馬県", "city": "高崎市", "town": "箕郷町下芝", "full": "群馬県高崎市箕郷町下芝"}, {"postal_code": "3703117", "postal_hyphen": "370-3117", "pref": "群馬県", "city": "高崎市", "town": "箕郷町白川", "full": "群馬県高崎市箕郷町白川"}, {"postal_code": "3703112", "postal_hyphen": "370-3112", "pref": "群馬県", "city": "高崎市", "town": "箕郷町善地", "full": "群馬県高崎市箕郷町善地"}, {"postal_code": "3703115", "postal_hyphen": "370-3115", "pref": "群馬県", "city": "高崎市", "town": "箕郷町富岡", "full": "群馬県高崎市箕郷町富岡"}, {"postal_code": "3703111", "postal_hyphen": "370-3111", "pref": "群馬県", "city": "高崎市", "town": "箕郷町中野", "full": "群馬県高崎市箕郷町中野"}, {"postal_code": "3703105", "postal_hyphen": "370-3105", "pref": "群馬県", "city": "高崎市", "town": "箕郷町西明屋", "full": "群馬県高崎市箕郷町西明屋"}, {"postal_code": "3703106", "postal_hyphen": "370-3106", "pref": "群馬県", "city": "高崎市", "town": "箕郷町東明屋", "full": "群馬県高崎市箕郷町東明屋"}, {"postal_code": "3703113", "postal_hyphen": "370-3113", "pref": "群馬県", "city": "高崎市", "town": "箕郷町松之沢", "full": "群馬県高崎市箕郷町松之沢"}, {"postal_code": "3703107", "postal_hyphen": "370-3107", "pref": "群馬県", "city": "高崎市", "town": "箕郷町矢原", "full": "群馬県高崎市箕郷町矢原"}, {"postal_code": "3703116", "postal_hyphen": "370-3116", "pref": "群馬県", "city": "高崎市", "town": "箕郷町和田山", "full": "群馬県高崎市箕郷町和田山"}, {"postal_code": "3703337", "postal_hyphen": "370-3337", "pref": "群馬県", "city": "高崎市", "town": "三ツ子沢町", "full": "群馬県高崎市三ツ子沢町"}, {"postal_code": "3703525", "postal_hyphen": "370-3525", "pref": "群馬県", "city": "高崎市", "town": "三ツ寺町", "full": "群馬県高崎市三ツ寺町"}, {"postal_code": "3700073", "postal_hyphen": "370-0073", "pref": "群馬県", "city": "高崎市", "town": "緑町", "full": "群馬県高崎市緑町"}, {"postal_code": "3700083", "postal_hyphen": "370-0083", "pref": "群馬県", "city": "高崎市", "town": "南新波町", "full": "群馬県高崎市南新波町"}, {"postal_code": "3700036", "postal_hyphen": "370-0036", "pref": "群馬県", "city": "高崎市", "town": "南大類町", "full": "群馬県高崎市南大類町"}, {"postal_code": "3700834", "postal_hyphen": "370-0834", "pref": "群馬県", "city": "高崎市", "town": "南町", "full": "群馬県高崎市南町"}, {"postal_code": "3703338", "postal_hyphen": "370-3338", "pref": "群馬県", "city": "高崎市", "town": "宮沢町", "full": "群馬県高崎市宮沢町"}, {"postal_code": "3701202", "postal_hyphen": "370-1202", "pref": "群馬県", "city": "高崎市", "town": "宮原町", "full": "群馬県高崎市宮原町"}, {"postal_code": "3700828", "postal_hyphen": "370-0828", "pref": "群馬県", "city": "高崎市", "town": "宮元町", "full": "群馬県高崎市宮元町"}, {"postal_code": "3703521", "postal_hyphen": "370-3521", "pref": "群馬県", "city": "高崎市", "town": "棟高町", "full": "群馬県高崎市棟高町"}, {"postal_code": "3700057", "postal_hyphen": "370-0057", "pref": "群馬県", "city": "高崎市", "town": "元紺屋町", "full": "群馬県高崎市元紺屋町"}, {"postal_code": "3700014", "postal_hyphen": "370-0014", "pref": "群馬県", "city": "高崎市", "town": "元島名町", "full": "群馬県高崎市元島名町"}, {"postal_code": "3700813", "postal_hyphen": "370-0813", "pref": "群馬県", "city": "高崎市", "town": "本町", "full": "群馬県高崎市本町"}, {"postal_code": "3700849", "postal_hyphen": "370-0849", "pref": "群馬県", "city": "高崎市", "town": "八島町", "full": "群馬県高崎市八島町"}, {"postal_code": "3700016", "postal_hyphen": "370-0016", "pref": "群馬県", "city": "高崎市", "town": "矢島町", "full": "群馬県高崎市矢島町"}, {"postal_code": "3700861", "postal_hyphen": "370-0861", "pref": "群馬県", "city": "高崎市", "town": "八千代町", "full": "群馬県高崎市八千代町"}, {"postal_code": "3701203", "postal_hyphen": "370-1203", "pref": "群馬県", "city": "高崎市", "town": "矢中町", "full": "群馬県高崎市矢中町"}, {"postal_code": "3700815", "postal_hyphen": "370-0815", "pref": "群馬県", "city": "高崎市", "town": "柳川町", "full": "群馬県高崎市柳川町"}, {"postal_code": "3700066", "postal_hyphen": "370-0066", "pref": "群馬県", "city": "高崎市", "town": "山田町", "full": "群馬県高崎市山田町"}, {"postal_code": "3701213", "postal_hyphen": "370-1213", "pref": "群馬県", "city": "高崎市", "town": "山名町", "full": "群馬県高崎市山名町"}, {"postal_code": "3700024", "postal_hyphen": "370-0024", "pref": "群馬県", "city": "高崎市", "town": "八幡原町", "full": "群馬県高崎市八幡原町"}, {"postal_code": "3700884", "postal_hyphen": "370-0884", "pref": "群馬県", "city": "高崎市", "town": "八幡町", "full": "群馬県高崎市八幡町"}, {"postal_code": "3700051", "postal_hyphen": "370-0051", "pref": "群馬県", "city": "高崎市", "town": "弓町", "full": "群馬県高崎市弓町"}, {"postal_code": "3702107", "postal_hyphen": "370-2107", "pref": "群馬県", "city": "高崎市", "town": "吉井町池", "full": "群馬県高崎市吉井町池"}, {"postal_code": "3702114", "postal_hyphen": "370-2114", "pref": "群馬県", "city": "高崎市", "town": "吉井町石神", "full": "群馬県高崎市吉井町石神"}, {"postal_code": "3702103", "postal_hyphen": "370-2103", "pref": "群馬県", "city": "高崎市", "town": "吉井町岩井", "full": "群馬県高崎市吉井町岩井"}, {"postal_code": "3702131", "postal_hyphen": "370-2131", "pref": "群馬県", "city": "高崎市", "town": "吉井町岩崎", "full": "群馬県高崎市吉井町岩崎"}, {"postal_code": "3702125", "postal_hyphen": "370-2125", "pref": "群馬県", "city": "高崎市", "town": "吉井町大沢", "full": "群馬県高崎市吉井町大沢"}, {"postal_code": "3702111", "postal_hyphen": "370-2111", "pref": "群馬県", "city": "高崎市", "town": "吉井町小串", "full": "群馬県高崎市吉井町小串"}, {"postal_code": "3702135", "postal_hyphen": "370-2135", "pref": "群馬県", "city": "高崎市", "town": "吉井町片山", "full": "群馬県高崎市吉井町片山"}, {"postal_code": "3702139", "postal_hyphen": "370-2139", "pref": "群馬県", "city": "高崎市", "town": "吉井町上奥平", "full": "群馬県高崎市吉井町上奥平"}, {"postal_code": "3702112", "postal_hyphen": "370-2112", "pref": "群馬県", "city": "高崎市", "town": "吉井町黒熊", "full": "群馬県高崎市吉井町黒熊"}, {"postal_code": "3702102", "postal_hyphen": "370-2102", "pref": "群馬県", "city": "高崎市", "town": "吉井町小暮", "full": "群馬県高崎市吉井町小暮"}, {"postal_code": "3702136", "postal_hyphen": "370-2136", "pref": "群馬県", "city": "高崎市", "town": "吉井町小棚", "full": "群馬県高崎市吉井町小棚"}, {"postal_code": "3702137", "postal_hyphen": "370-2137", "pref": "群馬県", "city": "高崎市", "town": "吉井町坂口", "full": "群馬県高崎市吉井町坂口"}, {"postal_code": "3702124", "postal_hyphen": "370-2124", "pref": "群馬県", "city": "高崎市", "town": "吉井町塩", "full": "群馬県高崎市吉井町塩"}, {"postal_code": "3702134", "postal_hyphen": "370-2134", "pref": "群馬県", "city": "高崎市", "town": "吉井町塩川", "full": "群馬県高崎市吉井町塩川"}, {"postal_code": "3702138", "postal_hyphen": "370-2138", "pref": "群馬県", "city": "高崎市", "town": "吉井町下奥平", "full": "群馬県高崎市吉井町下奥平"}, {"postal_code": "3702121", "postal_hyphen": "370-2121", "pref": "群馬県", "city": "高崎市", "town": "吉井町下長根", "full": "群馬県高崎市吉井町下長根"}, {"postal_code": "3702123", "postal_hyphen": "370-2123", "pref": "群馬県", "city": "高崎市", "town": "吉井町神保", "full": "群馬県高崎市吉井町神保"}, {"postal_code": "3702115", "postal_hyphen": "370-2115", "pref": "群馬県", "city": "高崎市", "town": "吉井町多比良", "full": "群馬県高崎市吉井町多比良"}, {"postal_code": "3702122", "postal_hyphen": "370-2122", "pref": "群馬県", "city": "高崎市", "town": "吉井町高", "full": "群馬県高崎市吉井町高"}, {"postal_code": "3702116", "postal_hyphen": "370-2116", "pref": "群馬県", "city": "高崎市", "town": "吉井町多胡", "full": "群馬県高崎市吉井町多胡"}, {"postal_code": "3702105", "postal_hyphen": "370-2105", "pref": "群馬県", "city": "高崎市", "town": "吉井町中島", "full": "群馬県高崎市吉井町中島"}, {"postal_code": "3702127", "postal_hyphen": "370-2127", "pref": "群馬県", "city": "高崎市", "town": "吉井町長根", "full": "群馬県高崎市吉井町長根"}, {"postal_code": "3702101", "postal_hyphen": "370-2101", "pref": "群馬県", "city": "高崎市", "town": "吉井町南陽台", "full": "群馬県高崎市吉井町南陽台"}, {"postal_code": "3702126", "postal_hyphen": "370-2126", "pref": "群馬県", "city": "高崎市", "town": "吉井町東谷", "full": "群馬県高崎市吉井町東谷"}, {"postal_code": "3702113", "postal_hyphen": "370-2113", "pref": "群馬県", "city": "高崎市", "town": "吉井町深沢", "full": "群馬県高崎市吉井町深沢"}, {"postal_code": "3702128", "postal_hyphen": "370-2128", "pref": "群馬県", "city": "高崎市", "town": "吉井町本郷", "full": "群馬県高崎市吉井町本郷"}, {"postal_code": "3702104", "postal_hyphen": "370-2104", "pref": "群馬県", "city": "高崎市", "town": "吉井町馬庭", "full": "群馬県高崎市吉井町馬庭"}, {"postal_code": "3702106", "postal_hyphen": "370-2106", "pref": "群馬県", "city": "高崎市", "town": "吉井町矢田", "full": "群馬県高崎市吉井町矢田"}, {"postal_code": "3702132", "postal_hyphen": "370-2132", "pref": "群馬県", "city": "高崎市", "town": "吉井町吉井", "full": "群馬県高崎市吉井町吉井"}, {"postal_code": "3702133", "postal_hyphen": "370-2133", "pref": "群馬県", "city": "高崎市", "town": "吉井町吉井川", "full": "群馬県高崎市吉井町吉井川"}, {"postal_code": "3700819", "postal_hyphen": "370-0819", "pref": "群馬県", "city": "高崎市", "town": "四ツ屋町", "full": "群馬県高崎市四ツ屋町"}, {"postal_code": "3700822", "postal_hyphen": "370-0822", "pref": "群馬県", "city": "高崎市", "town": "寄合町", "full": "群馬県高崎市寄合町"}, {"postal_code": "3700055", "postal_hyphen": "370-0055", "pref": "群馬県", "city": "高崎市", "town": "羅漢町", "full": "群馬県高崎市羅漢町"}, {"postal_code": "3700087", "postal_hyphen": "370-0087", "pref": "群馬県", "city": "高崎市", "town": "楽間町", "full": "群馬県高崎市楽間町"}, {"postal_code": "3700826", "postal_hyphen": "370-0826", "pref": "群馬県", "city": "高崎市", "town": "連雀町", "full": "群馬県高崎市連雀町"}, {"postal_code": "3700885", "postal_hyphen": "370-0885", "pref": "群馬県", "city": "高崎市", "town": "若田町", "full": "群馬県高崎市若田町"}, {"postal_code": "3700836", "postal_hyphen": "370-0836", "pref": "群馬県", "city": "高崎市", "town": "若松町", "full": "群馬県高崎市若松町"}, {"postal_code": "3700085", "postal_hyphen": "370-0085", "pref": "群馬県", "city": "高崎市", "town": "我峰町", "full": "群馬県高崎市我峰町"}, {"postal_code": "3700844", "postal_hyphen": "370-0844", "pref": "群馬県", "city": "高崎市", "town": "和田多中町", "full": "群馬県高崎市和田多中町"}, {"postal_code": "3701207", "postal_hyphen": "370-1207", "pref": "群馬県", "city": "高崎市", "town": "綿貫町", "full": "群馬県高崎市綿貫町"}, {"postal_code": "3700847", "postal_hyphen": "370-0847", "pref": "群馬県", "city": "高崎市", "town": "和田町", "full": "群馬県高崎市和田町"}, {"postal_code": "3760000", "postal_hyphen": "376-0000", "pref": "群馬県", "city": "桐生市", "town": "", "full": "群馬県桐生市"}, {"postal_code": "3760011", "postal_hyphen": "376-0011", "pref": "群馬県", "city": "桐生市", "town": "相生町", "full": "群馬県桐生市相生町"}, {"postal_code": "3760037", "postal_hyphen": "376-0037", "pref": "群馬県", "city": "桐生市", "town": "旭町", "full": "群馬県桐生市旭町"}, {"postal_code": "3760032", "postal_hyphen": "376-0032", "pref": "群馬県", "city": "桐生市", "town": "東町", "full": "群馬県桐生市東町"}, {"postal_code": "3760033", "postal_hyphen": "376-0033", "pref": "群馬県", "city": "桐生市", "town": "泉町", "full": "群馬県桐生市泉町"}, {"postal_code": "3760022", "postal_hyphen": "376-0022", "pref": "群馬県", "city": "桐生市", "town": "稲荷町", "full": "群馬県桐生市稲荷町"}, {"postal_code": "3760601", "postal_hyphen": "376-0601", "pref": "群馬県", "city": "桐生市", "town": "梅田町", "full": "群馬県桐生市梅田町"}, {"postal_code": "3760044", "postal_hyphen": "376-0044", "pref": "群馬県", "city": "桐生市", "town": "永楽町", "full": "群馬県桐生市永楽町"}, {"postal_code": "3760024", "postal_hyphen": "376-0024", "pref": "群馬県", "city": "桐生市", "town": "織姫町", "full": "群馬県桐生市織姫町"}, {"postal_code": "3760041", "postal_hyphen": "376-0041", "pref": "群馬県", "city": "桐生市", "town": "川内町", "full": "群馬県桐生市川内町"}, {"postal_code": "3760036", "postal_hyphen": "376-0036", "pref": "群馬県", "city": "桐生市", "town": "川岸町", "full": "群馬県桐生市川岸町"}, {"postal_code": "3760026", "postal_hyphen": "376-0026", "pref": "群馬県", "city": "桐生市", "town": "清瀬町", "full": "群馬県桐生市清瀬町"}, {"postal_code": "3760145", "postal_hyphen": "376-0145", "pref": "群馬県", "city": "桐生市", "town": "黒保根町上田沢", "full": "群馬県桐生市黒保根町上田沢"}, {"postal_code": "3760144", "postal_hyphen": "376-0144", "pref": "群馬県", "city": "桐生市", "town": "黒保根町下田沢", "full": "群馬県桐生市黒保根町下田沢"}, {"postal_code": "3760143", "postal_hyphen": "376-0143", "pref": "群馬県", "city": "桐生市", "town": "黒保根町宿廻", "full": "群馬県桐生市黒保根町宿廻"}, {"postal_code": "3760141", "postal_hyphen": "376-0141", "pref": "群馬県", "city": "桐生市", "town": "黒保根町水沼", "full": "群馬県桐生市黒保根町水沼"}, {"postal_code": "3760142", "postal_hyphen": "376-0142", "pref": "群馬県", "city": "桐生市", "town": "黒保根町八木原", "full": "群馬県桐生市黒保根町八木原"}, {"postal_code": "3760004", "postal_hyphen": "376-0004", "pref": "群馬県", "city": "桐生市", "town": "小梅町", "full": "群馬県桐生市小梅町"}, {"postal_code": "3760043", "postal_hyphen": "376-0043", "pref": "群馬県", "city": "桐生市", "town": "小曾根町", "full": "群馬県桐生市小曾根町"}, {"postal_code": "3760003", "postal_hyphen": "376-0003", "pref": "群馬県", "city": "桐生市", "town": "琴平町", "full": "群馬県桐生市琴平町"}, {"postal_code": "3760002", "postal_hyphen": "376-0002", "pref": "群馬県", "city": "桐生市", "town": "境野町", "full": "群馬県桐生市境野町"}, {"postal_code": "3760012", "postal_hyphen": "376-0012", "pref": "群馬県", "city": "桐生市", "town": "桜木町", "full": "群馬県桐生市桜木町"}, {"postal_code": "3760006", "postal_hyphen": "376-0006", "pref": "群馬県", "city": "桐生市", "town": "新宿", "full": "群馬県桐生市新宿"}, {"postal_code": "3760045", "postal_hyphen": "376-0045", "pref": "群馬県", "city": "桐生市", "town": "末広町", "full": "群馬県桐生市末広町"}, {"postal_code": "3760038", "postal_hyphen": "376-0038", "pref": "群馬県", "city": "桐生市", "town": "高砂町", "full": "群馬県桐生市高砂町"}, {"postal_code": "3760042", "postal_hyphen": "376-0042", "pref": "群馬県", "city": "桐生市", "town": "堤町", "full": "群馬県桐生市堤町"}, {"postal_code": "3760052", "postal_hyphen": "376-0052", "pref": "群馬県", "city": "桐生市", "town": "天神町", "full": "群馬県桐生市天神町"}, {"postal_code": "3760021", "postal_hyphen": "376-0021", "pref": "群馬県", "city": "桐生市", "town": "巴町", "full": "群馬県桐生市巴町"}, {"postal_code": "3760035", "postal_hyphen": "376-0035", "pref": "群馬県", "city": "桐生市", "town": "仲町", "full": "群馬県桐生市仲町"}, {"postal_code": "3760137", "postal_hyphen": "376-0137", "pref": "群馬県", "city": "桐生市", "town": "新里町赤城山", "full": "群馬県桐生市新里町赤城山"}, {"postal_code": "3760136", "postal_hyphen": "376-0136", "pref": "群馬県", "city": "桐生市", "town": "新里町板橋", "full": "群馬県桐生市新里町板橋"}, {"postal_code": "3760133", "postal_hyphen": "376-0133", "pref": "群馬県", "city": "桐生市", "town": "新里町大久保", "full": "群馬県桐生市新里町大久保"}, {"postal_code": "3760131", "postal_hyphen": "376-0131", "pref": "群馬県", "city": "桐生市", "town": "新里町奥沢", "full": "群馬県桐生市新里町奥沢"}, {"postal_code": "3760124", "postal_hyphen": "376-0124", "pref": "群馬県", "city": "桐生市", "town": "新里町小林", "full": "群馬県桐生市新里町小林"}, {"postal_code": "3760134", "postal_hyphen": "376-0134", "pref": "群馬県", "city": "桐生市", "town": "新里町関", "full": "群馬県桐生市新里町関"}, {"postal_code": "3760135", "postal_hyphen": "376-0135", "pref": "群馬県", "city": "桐生市", "town": "新里町高泉", "full": "群馬県桐生市新里町高泉"}, {"postal_code": "3760123", "postal_hyphen": "376-0123", "pref": "群馬県", "city": "桐生市", "town": "新里町武井", "full": "群馬県桐生市新里町武井"}, {"postal_code": "3760132", "postal_hyphen": "376-0132", "pref": "群馬県", "city": "桐生市", "town": "新里町鶴ケ谷", "full": "群馬県桐生市新里町鶴ケ谷"}, {"postal_code": "3760121", "postal_hyphen": "376-0121", "pref": "群馬県", "city": "桐生市", "town": "新里町新川", "full": "群馬県桐生市新里町新川"}, {"postal_code": "3760122", "postal_hyphen": "376-0122", "pref": "群馬県", "city": "桐生市", "town": "新里町野", "full": "群馬県桐生市新里町野"}, {"postal_code": "3760125", "postal_hyphen": "376-0125", "pref": "群馬県", "city": "桐生市", "town": "新里町山上", "full": "群馬県桐生市新里町山上"}, {"postal_code": "3760023", "postal_hyphen": "376-0023", "pref": "群馬県", "city": "桐生市", "town": "錦町", "full": "群馬県桐生市錦町"}, {"postal_code": "3760054", "postal_hyphen": "376-0054", "pref": "群馬県", "city": "桐生市", "town": "西久方町", "full": "群馬県桐生市西久方町"}, {"postal_code": "3760007", "postal_hyphen": "376-0007", "pref": "群馬県", "city": "桐生市", "town": "浜松町", "full": "群馬県桐生市浜松町"}, {"postal_code": "3760034", "postal_hyphen": "376-0034", "pref": "群馬県", "city": "桐生市", "town": "東", "full": "群馬県桐生市東"}, {"postal_code": "3760053", "postal_hyphen": "376-0053", "pref": "群馬県", "city": "桐生市", "town": "東久方町", "full": "群馬県桐生市東久方町"}, {"postal_code": "3760001", "postal_hyphen": "376-0001", "pref": "群馬県", "city": "桐生市", "town": "菱町", "full": "群馬県桐生市菱町"}, {"postal_code": "3760051", "postal_hyphen": "376-0051", "pref": "群馬県", "city": "桐生市", "town": "平井町", "full": "群馬県桐生市平井町"}, {"postal_code": "3760013", "postal_hyphen": "376-0013", "pref": "群馬県", "city": "桐生市", "town": "広沢町", "full": "群馬県桐生市広沢町"}, {"postal_code": "3760014", "postal_hyphen": "376-0014", "pref": "群馬県", "city": "桐生市", "town": "広沢町間ノ島", "full": "群馬県桐生市広沢町間ノ島"}, {"postal_code": "3760031", "postal_hyphen": "376-0031", "pref": "群馬県", "city": "桐生市", "town": "本町", "full": "群馬県桐生市本町"}, {"postal_code": "3760025", "postal_hyphen": "376-0025", "pref": "群馬県", "city": "桐生市", "town": "美原町", "full": "群馬県桐生市美原町"}, {"postal_code": "3760046", "postal_hyphen": "376-0046", "pref": "群馬県", "city": "桐生市", "town": "宮前町", "full": "群馬県桐生市宮前町"}, {"postal_code": "3760056", "postal_hyphen": "376-0056", "pref": "群馬県", "city": "桐生市", "town": "宮本町", "full": "群馬県桐生市宮本町"}, {"postal_code": "3760005", "postal_hyphen": "376-0005", "pref": "群馬県", "city": "桐生市", "town": "三吉町", "full": "群馬県桐生市三吉町"}, {"postal_code": "3760027", "postal_hyphen": "376-0027", "pref": "群馬県", "city": "桐生市", "town": "元宿町", "full": "群馬県桐生市元宿町"}, {"postal_code": "3760055", "postal_hyphen": "376-0055", "pref": "群馬県", "city": "桐生市", "town": "横山町", "full": "群馬県桐生市横山町"}, {"postal_code": "3720000", "postal_hyphen": "372-0000", "pref": "群馬県", "city": "伊勢崎市", "town": "", "full": "群馬県伊勢崎市"}, {"postal_code": "3792201", "postal_hyphen": "379-2201", "pref": "群馬県", "city": "伊勢崎市", "town": "間野谷町", "full": "群馬県伊勢崎市間野谷町"}, {"postal_code": "3792215", "postal_hyphen": "379-2215", "pref": "群馬県", "city": "伊勢崎市", "town": "赤堀今井町", "full": "群馬県伊勢崎市赤堀今井町"}, {"postal_code": "3792202", "postal_hyphen": "379-2202", "pref": "群馬県", "city": "伊勢崎市", "town": "赤堀鹿島町", "full": "群馬県伊勢崎市赤堀鹿島町"}, {"postal_code": "3792231", "postal_hyphen": "379-2231", "pref": "群馬県", "city": "伊勢崎市", "town": "東町", "full": "群馬県伊勢崎市東町"}, {"postal_code": "3720821", "postal_hyphen": "372-0821", "pref": "群馬県", "city": "伊勢崎市", "town": "阿弥大寺町", "full": "群馬県伊勢崎市阿弥大寺町"}, {"postal_code": "3720007", "postal_hyphen": "372-0007", "pref": "群馬県", "city": "伊勢崎市", "town": "安堀町", "full": "群馬県伊勢崎市安堀町"}, {"postal_code": "3720854", "postal_hyphen": "372-0854", "pref": "群馬県", "city": "伊勢崎市", "town": "飯島町", "full": "群馬県伊勢崎市飯島町"}, {"postal_code": "3792217", "postal_hyphen": "379-2217", "pref": "群馬県", "city": "伊勢崎市", "town": "磯町", "full": "群馬県伊勢崎市磯町"}, {"postal_code": "3792211", "postal_hyphen": "379-2211", "pref": "群馬県", "city": "伊勢崎市", "town": "市場町", "full": "群馬県伊勢崎市市場町"}, {"postal_code": "3720804", "postal_hyphen": "372-0804", "pref": "群馬県", "city": "伊勢崎市", "town": "稲荷町", "full": "群馬県伊勢崎市稲荷町"}, {"postal_code": "3720005", "postal_hyphen": "372-0005", "pref": "群馬県", "city": "伊勢崎市", "town": "乾町", "full": "群馬県伊勢崎市乾町"}, {"postal_code": "3720031", "postal_hyphen": "372-0031", "pref": "群馬県", "city": "伊勢崎市", "town": "今泉町", "full": "群馬県伊勢崎市今泉町"}, {"postal_code": "3720823", "postal_hyphen": "372-0823", "pref": "群馬県", "city": "伊勢崎市", "town": "今井町", "full": "群馬県伊勢崎市今井町"}, {"postal_code": "3720006", "postal_hyphen": "372-0006", "pref": "群馬県", "city": "伊勢崎市", "town": "太田町", "full": "群馬県伊勢崎市太田町"}, {"postal_code": "3720048", "postal_hyphen": "372-0048", "pref": "群馬県", "city": "伊勢崎市", "town": "大手町", "full": "群馬県伊勢崎市大手町"}, {"postal_code": "3720015", "postal_hyphen": "372-0015", "pref": "群馬県", "city": "伊勢崎市", "town": "鹿島町", "full": "群馬県伊勢崎市鹿島町"}, {"postal_code": "3720023", "postal_hyphen": "372-0023", "pref": "群馬県", "city": "伊勢崎市", "town": "粕川町", "full": "群馬県伊勢崎市粕川町"}, {"postal_code": "3720045", "postal_hyphen": "372-0045", "pref": "群馬県", "city": "伊勢崎市", "town": "上泉町", "full": "群馬県伊勢崎市上泉町"}, {"postal_code": "3720013", "postal_hyphen": "372-0013", "pref": "群馬県", "city": "伊勢崎市", "town": "上植木本町", "full": "群馬県伊勢崎市上植木本町"}, {"postal_code": "3720021", "postal_hyphen": "372-0021", "pref": "群馬県", "city": "伊勢崎市", "town": "上諏訪町", "full": "群馬県伊勢崎市上諏訪町"}, {"postal_code": "3792225", "postal_hyphen": "379-2225", "pref": "群馬県", "city": "伊勢崎市", "town": "上田町", "full": "群馬県伊勢崎市上田町"}, {"postal_code": "3720851", "postal_hyphen": "372-0851", "pref": "群馬県", "city": "伊勢崎市", "town": "上蓮町", "full": "群馬県伊勢崎市上蓮町"}, {"postal_code": "3720032", "postal_hyphen": "372-0032", "pref": "群馬県", "city": "伊勢崎市", "town": "北千木町", "full": "群馬県伊勢崎市北千木町"}, {"postal_code": "3720056", "postal_hyphen": "372-0056", "pref": "群馬県", "city": "伊勢崎市", "town": "喜多町", "full": "群馬県伊勢崎市喜多町"}, {"postal_code": "3792221", "postal_hyphen": "379-2221", "pref": "群馬県", "city": "伊勢崎市", "town": "国定町", "full": "群馬県伊勢崎市国定町"}, {"postal_code": "3720055", "postal_hyphen": "372-0055", "pref": "群馬県", "city": "伊勢崎市", "town": "曲輪町", "full": "群馬県伊勢崎市曲輪町"}, {"postal_code": "3720003", "postal_hyphen": "372-0003", "pref": "群馬県", "city": "伊勢崎市", "town": "華蔵寺町", "full": "群馬県伊勢崎市華蔵寺町"}, {"postal_code": "3720843", "postal_hyphen": "372-0843", "pref": "群馬県", "city": "伊勢崎市", "town": "下道寺町", "full": "群馬県伊勢崎市下道寺町"}, {"postal_code": "3792232", "postal_hyphen": "379-2232", "pref": "群馬県", "city": "伊勢崎市", "town": "小泉町", "full": "群馬県伊勢崎市小泉町"}, {"postal_code": "3792206", "postal_hyphen": "379-2206", "pref": "群馬県", "city": "伊勢崎市", "town": "香林町", "full": "群馬県伊勢崎市香林町"}, {"postal_code": "3720853", "postal_hyphen": "372-0853", "pref": "群馬県", "city": "伊勢崎市", "town": "国領町", "full": "群馬県伊勢崎市国領町"}, {"postal_code": "3720052", "postal_hyphen": "372-0052", "pref": "群馬県", "city": "伊勢崎市", "town": "寿町", "full": "群馬県伊勢崎市寿町"}, {"postal_code": "3792213", "postal_hyphen": "379-2213", "pref": "群馬県", "city": "伊勢崎市", "town": "五目牛町", "full": "群馬県伊勢崎市五目牛町"}, {"postal_code": "3700124", "postal_hyphen": "370-0124", "pref": "群馬県", "city": "伊勢崎市", "town": "境", "full": "群馬県伊勢崎市境"}, {"postal_code": "3700123", "postal_hyphen": "370-0123", "pref": "群馬県", "city": "伊勢崎市", "town": "境東", "full": "群馬県伊勢崎市境東"}, {"postal_code": "3700105", "postal_hyphen": "370-0105", "pref": "群馬県", "city": "伊勢崎市", "town": "境伊与久", "full": "群馬県伊勢崎市境伊与久"}, {"postal_code": "3700135", "postal_hyphen": "370-0135", "pref": "群馬県", "city": "伊勢崎市", "town": "境小此木", "full": "群馬県伊勢崎市境小此木"}, {"postal_code": "3700121", "postal_hyphen": "370-0121", "pref": "群馬県", "city": "伊勢崎市", "town": "境女塚", "full": "群馬県伊勢崎市境女塚"}, {"postal_code": "3700127", "postal_hyphen": "370-0127", "pref": "群馬県", "city": "伊勢崎市", "town": "境上武士", "full": "群馬県伊勢崎市境上武士"}, {"postal_code": "3700102", "postal_hyphen": "370-0102", "pref": "群馬県", "city": "伊勢崎市", "town": "境上渕名", "full": "群馬県伊勢崎市境上渕名"}, {"postal_code": "3700111", "postal_hyphen": "370-0111", "pref": "群馬県", "city": "伊勢崎市", "town": "境上矢島", "full": "群馬県伊勢崎市境上矢島"}, {"postal_code": "3700104", "postal_hyphen": "370-0104", "pref": "群馬県", "city": "伊勢崎市", "town": "境木島", "full": "群馬県伊勢崎市境木島"}, {"postal_code": "3700122", "postal_hyphen": "370-0122", "pref": "群馬県", "city": "伊勢崎市", "town": "境栄", "full": "群馬県伊勢崎市境栄"}, {"postal_code": "3700134", "postal_hyphen": "370-0134", "pref": "群馬県", "city": "伊勢崎市", "town": "境島村", "full": "群馬県伊勢崎市境島村"}, {"postal_code": "3700126", "postal_hyphen": "370-0126", "pref": "群馬県", "city": "伊勢崎市", "town": "境下武士", "full": "群馬県伊勢崎市境下武士"}, {"postal_code": "3700103", "postal_hyphen": "370-0103", "pref": "群馬県", "city": "伊勢崎市", "town": "境下渕名", "full": "群馬県伊勢崎市境下渕名"}, {"postal_code": "3700114", "postal_hyphen": "370-0114", "pref": "群馬県", "city": "伊勢崎市", "town": "境新栄", "full": "群馬県伊勢崎市境新栄"}, {"postal_code": "3700117", "postal_hyphen": "370-0117", "pref": "群馬県", "city": "伊勢崎市", "town": "境百々", "full": "群馬県伊勢崎市境百々"}, {"postal_code": "3700116", "postal_hyphen": "370-0116", "pref": "群馬県", "city": "伊勢崎市", "town": "境百々東", "full": "群馬県伊勢崎市境百々東"}, {"postal_code": "3700133", "postal_hyphen": "370-0133", "pref": "群馬県", "city": "伊勢崎市", "town": "境中島", "full": "群馬県伊勢崎市境中島"}, {"postal_code": "3700112", "postal_hyphen": "370-0112", "pref": "群馬県", "city": "伊勢崎市", "town": "境西今井", "full": "群馬県伊勢崎市境西今井"}, {"postal_code": "3700125", "postal_hyphen": "370-0125", "pref": "群馬県", "city": "伊勢崎市", "town": "境萩原", "full": "群馬県伊勢崎市境萩原"}, {"postal_code": "3700101", "postal_hyphen": "370-0101", "pref": "群馬県", "city": "伊勢崎市", "town": "境東新井", "full": "群馬県伊勢崎市境東新井"}, {"postal_code": "3700132", "postal_hyphen": "370-0132", "pref": "群馬県", "city": "伊勢崎市", "town": "境平塚", "full": "群馬県伊勢崎市境平塚"}, {"postal_code": "3700128", "postal_hyphen": "370-0128", "pref": "群馬県", "city": "伊勢崎市", "town": "境保泉", "full": "群馬県伊勢崎市境保泉"}, {"postal_code": "3700113", "postal_hyphen": "370-0113", "pref": "群馬県", "city": "伊勢崎市", "town": "境三ツ木", "full": "群馬県伊勢崎市境三ツ木"}, {"postal_code": "3700115", "postal_hyphen": "370-0115", "pref": "群馬県", "city": "伊勢崎市", "town": "境美原", "full": "群馬県伊勢崎市境美原"}, {"postal_code": "3700131", "postal_hyphen": "370-0131", "pref": "群馬県", "city": "伊勢崎市", "town": "境米岡", "full": "群馬県伊勢崎市境米岡"}, {"postal_code": "3720831", "postal_hyphen": "372-0831", "pref": "群馬県", "city": "伊勢崎市", "town": "山王町", "full": "群馬県伊勢崎市山王町"}, {"postal_code": "3720046", "postal_hyphen": "372-0046", "pref": "群馬県", "city": "伊勢崎市", "town": "三光町", "full": "群馬県伊勢崎市三光町"}, {"postal_code": "3720011", "postal_hyphen": "372-0011", "pref": "群馬県", "city": "伊勢崎市", "town": "三和町", "full": "群馬県伊勢崎市三和町"}, {"postal_code": "3720824", "postal_hyphen": "372-0824", "pref": "群馬県", "city": "伊勢崎市", "town": "柴町", "full": "群馬県伊勢崎市柴町"}, {"postal_code": "3720024", "postal_hyphen": "372-0024", "pref": "群馬県", "city": "伊勢崎市", "town": "下植木町", "full": "群馬県伊勢崎市下植木町"}, {"postal_code": "3720852", "postal_hyphen": "372-0852", "pref": "群馬県", "city": "伊勢崎市", "town": "下蓮町", "full": "群馬県伊勢崎市下蓮町"}, {"postal_code": "3792214", "postal_hyphen": "379-2214", "pref": "群馬県", "city": "伊勢崎市", "town": "下触町", "full": "群馬県伊勢崎市下触町"}, {"postal_code": "3720014", "postal_hyphen": "372-0014", "pref": "群馬県", "city": "伊勢崎市", "town": "昭和町", "full": "群馬県伊勢崎市昭和町"}, {"postal_code": "3720038", "postal_hyphen": "372-0038", "pref": "群馬県", "city": "伊勢崎市", "town": "新栄町", "full": "群馬県伊勢崎市新栄町"}, {"postal_code": "3720057", "postal_hyphen": "372-0057", "pref": "群馬県", "city": "伊勢崎市", "town": "末広町", "full": "群馬県伊勢崎市末広町"}, {"postal_code": "3720841", "postal_hyphen": "372-0841", "pref": "群馬県", "city": "伊勢崎市", "town": "大正寺町", "full": "群馬県伊勢崎市大正寺町"}, {"postal_code": "3720802", "postal_hyphen": "372-0802", "pref": "群馬県", "city": "伊勢崎市", "town": "田中島町", "full": "群馬県伊勢崎市田中島町"}, {"postal_code": "3720814", "postal_hyphen": "372-0814", "pref": "群馬県", "city": "伊勢崎市", "town": "田中町", "full": "群馬県伊勢崎市田中町"}, {"postal_code": "3792222", "postal_hyphen": "379-2222", "pref": "群馬県", "city": "伊勢崎市", "town": "田部井町", "full": "群馬県伊勢崎市田部井町"}, {"postal_code": "3720042", "postal_hyphen": "372-0042", "pref": "群馬県", "city": "伊勢崎市", "town": "中央町", "full": "群馬県伊勢崎市中央町"}, {"postal_code": "3720004", "postal_hyphen": "372-0004", "pref": "群馬県", "city": "伊勢崎市", "town": "堤下町", "full": "群馬県伊勢崎市堤下町"}, {"postal_code": "3720002", "postal_hyphen": "372-0002", "pref": "群馬県", "city": "伊勢崎市", "town": "堤西町", "full": "群馬県伊勢崎市堤西町"}, {"postal_code": "3720817", "postal_hyphen": "372-0817", "pref": "群馬県", "city": "伊勢崎市", "town": "連取本町", "full": "群馬県伊勢崎市連取本町"}, {"postal_code": "3720818", "postal_hyphen": "372-0818", "pref": "群馬県", "city": "伊勢崎市", "town": "連取元町", "full": "群馬県伊勢崎市連取元町"}, {"postal_code": "3720812", "postal_hyphen": "372-0812", "pref": "群馬県", "city": "伊勢崎市", "town": "連取町", "full": "群馬県伊勢崎市連取町"}, {"postal_code": "3720833", "postal_hyphen": "372-0833", "pref": "群馬県", "city": "伊勢崎市", "town": "富塚町", "full": "群馬県伊勢崎市富塚町"}, {"postal_code": "3720825", "postal_hyphen": "372-0825", "pref": "群馬県", "city": "伊勢崎市", "town": "戸谷塚町", "full": "群馬県伊勢崎市戸谷塚町"}, {"postal_code": "3720012", "postal_hyphen": "372-0012", "pref": "群馬県", "city": "伊勢崎市", "town": "豊城町", "full": "群馬県伊勢崎市豊城町"}, {"postal_code": "3720822", "postal_hyphen": "372-0822", "pref": "群馬県", "city": "伊勢崎市", "town": "中町", "full": "群馬県伊勢崎市中町"}, {"postal_code": "3720855", "postal_hyphen": "372-0855", "pref": "群馬県", "city": "伊勢崎市", "town": "長沼町", "full": "群馬県伊勢崎市長沼町"}, {"postal_code": "3792224", "postal_hyphen": "379-2224", "pref": "群馬県", "city": "伊勢崎市", "town": "西小保方町", "full": "群馬県伊勢崎市西小保方町"}, {"postal_code": "3720816", "postal_hyphen": "372-0816", "pref": "群馬県", "city": "伊勢崎市", "town": "西上之宮町", "full": "群馬県伊勢崎市西上之宮町"}, {"postal_code": "3792204", "postal_hyphen": "379-2204", "pref": "群馬県", "city": "伊勢崎市", "town": "西久保町", "full": "群馬県伊勢崎市西久保町"}, {"postal_code": "3720058", "postal_hyphen": "372-0058", "pref": "群馬県", "city": "伊勢崎市", "town": "西田町", "full": "群馬県伊勢崎市西田町"}, {"postal_code": "3792216", "postal_hyphen": "379-2216", "pref": "群馬県", "city": "伊勢崎市", "town": "西野町", "full": "群馬県伊勢崎市西野町"}, {"postal_code": "3720813", "postal_hyphen": "372-0813", "pref": "群馬県", "city": "伊勢崎市", "town": "韮塚町", "full": "群馬県伊勢崎市韮塚町"}, {"postal_code": "3792205", "postal_hyphen": "379-2205", "pref": "群馬県", "city": "伊勢崎市", "town": "野町", "full": "群馬県伊勢崎市野町"}, {"postal_code": "3720844", "postal_hyphen": "372-0844", "pref": "群馬県", "city": "伊勢崎市", "town": "羽黒町", "full": "群馬県伊勢崎市羽黒町"}, {"postal_code": "3720001", "postal_hyphen": "372-0001", "pref": "群馬県", "city": "伊勢崎市", "town": "波志江町", "full": "群馬県伊勢崎市波志江町"}, {"postal_code": "3792236", "postal_hyphen": "379-2236", "pref": "群馬県", "city": "伊勢崎市", "town": "八寸町", "full": "群馬県伊勢崎市八寸町"}, {"postal_code": "3792234", "postal_hyphen": "379-2234", "pref": "群馬県", "city": "伊勢崎市", "town": "東小保方町", "full": "群馬県伊勢崎市東小保方町"}, {"postal_code": "3720815", "postal_hyphen": "372-0815", "pref": "群馬県", "city": "伊勢崎市", "town": "東上之宮町", "full": "群馬県伊勢崎市東上之宮町"}, {"postal_code": "3720025", "postal_hyphen": "372-0025", "pref": "群馬県", "city": "伊勢崎市", "town": "東本町", "full": "群馬県伊勢崎市東本町"}, {"postal_code": "3720022", "postal_hyphen": "372-0022", "pref": "群馬県", "city": "伊勢崎市", "town": "日乃出町", "full": "群馬県伊勢崎市日乃出町"}, {"postal_code": "3792233", "postal_hyphen": "379-2233", "pref": "群馬県", "city": "伊勢崎市", "town": "平井町", "full": "群馬県伊勢崎市平井町"}, {"postal_code": "3720039", "postal_hyphen": "372-0039", "pref": "群馬県", "city": "伊勢崎市", "town": "ひろせ町", "full": "群馬県伊勢崎市ひろせ町"}, {"postal_code": "3720826", "postal_hyphen": "372-0826", "pref": "群馬県", "city": "伊勢崎市", "town": "福島町", "full": "群馬県伊勢崎市福島町"}, {"postal_code": "3720041", "postal_hyphen": "372-0041", "pref": "群馬県", "city": "伊勢崎市", "town": "平和町", "full": "群馬県伊勢崎市平和町"}, {"postal_code": "3720834", "postal_hyphen": "372-0834", "pref": "群馬県", "city": "伊勢崎市", "town": "堀口町", "full": "群馬県伊勢崎市堀口町"}, {"postal_code": "3792212", "postal_hyphen": "379-2212", "pref": "群馬県", "city": "伊勢崎市", "town": "堀下町", "full": "群馬県伊勢崎市堀下町"}, {"postal_code": "3720016", "postal_hyphen": "372-0016", "pref": "群馬県", "city": "伊勢崎市", "town": "本関町", "full": "群馬県伊勢崎市本関町"}, {"postal_code": "3720047", "postal_hyphen": "372-0047", "pref": "群馬県", "city": "伊勢崎市", "town": "本町", "full": "群馬県伊勢崎市本町"}, {"postal_code": "3792203", "postal_hyphen": "379-2203", "pref": "群馬県", "city": "伊勢崎市", "town": "曲沢町", "full": "群馬県伊勢崎市曲沢町"}, {"postal_code": "3720842", "postal_hyphen": "372-0842", "pref": "群馬県", "city": "伊勢崎市", "town": "馬見塚町", "full": "群馬県伊勢崎市馬見塚町"}, {"postal_code": "3720043", "postal_hyphen": "372-0043", "pref": "群馬県", "city": "伊勢崎市", "town": "緑町", "full": "群馬県伊勢崎市緑町"}, {"postal_code": "3720033", "postal_hyphen": "372-0033", "pref": "群馬県", "city": "伊勢崎市", "town": "南千木町", "full": "群馬県伊勢崎市南千木町"}, {"postal_code": "3792235", "postal_hyphen": "379-2235", "pref": "群馬県", "city": "伊勢崎市", "town": "三室町", "full": "群馬県伊勢崎市三室町"}, {"postal_code": "3720037", "postal_hyphen": "372-0037", "pref": "群馬県", "city": "伊勢崎市", "town": "美茂呂町", "full": "群馬県伊勢崎市美茂呂町"}, {"postal_code": "3720801", "postal_hyphen": "372-0801", "pref": "群馬県", "city": "伊勢崎市", "town": "宮子町", "full": "群馬県伊勢崎市宮子町"}, {"postal_code": "3720803", "postal_hyphen": "372-0803", "pref": "群馬県", "city": "伊勢崎市", "town": "宮古町", "full": "群馬県伊勢崎市宮古町"}, {"postal_code": "3720026", "postal_hyphen": "372-0026", "pref": "群馬県", "city": "伊勢崎市", "town": "宮前町", "full": "群馬県伊勢崎市宮前町"}, {"postal_code": "3720053", "postal_hyphen": "372-0053", "pref": "群馬県", "city": "伊勢崎市", "town": "宗高町", "full": "群馬県伊勢崎市宗高町"}, {"postal_code": "3720034", "postal_hyphen": "372-0034", "pref": "群馬県", "city": "伊勢崎市", "town": "茂呂町", "full": "群馬県伊勢崎市茂呂町"}, {"postal_code": "3720036", "postal_hyphen": "372-0036", "pref": "群馬県", "city": "伊勢崎市", "town": "茂呂南町", "full": "群馬県伊勢崎市茂呂南町"}, {"postal_code": "3720044", "postal_hyphen": "372-0044", "pref": "群馬県", "city": "伊勢崎市", "town": "八坂町", "full": "群馬県伊勢崎市八坂町"}, {"postal_code": "3720827", "postal_hyphen": "372-0827", "pref": "群馬県", "city": "伊勢崎市", "town": "八斗島町", "full": "群馬県伊勢崎市八斗島町"}, {"postal_code": "3720054", "postal_hyphen": "372-0054", "pref": "群馬県", "city": "伊勢崎市", "town": "柳原町", "full": "群馬県伊勢崎市柳原町"}, {"postal_code": "3720051", "postal_hyphen": "372-0051", "pref": "群馬県", "city": "伊勢崎市", "town": "八幡町", "full": "群馬県伊勢崎市八幡町"}, {"postal_code": "3720832", "postal_hyphen": "372-0832", "pref": "群馬県", "city": "伊勢崎市", "town": "除ケ町", "full": "群馬県伊勢崎市除ケ町"}, {"postal_code": "3720811", "postal_hyphen": "372-0811", "pref": "群馬県", "city": "伊勢崎市", "town": "若葉町", "full": "群馬県伊勢崎市若葉町"}, {"postal_code": "3730000", "postal_hyphen": "373-0000", "pref": "群馬県", "city": "太田市", "town": "", "full": "群馬県太田市"}, {"postal_code": "3700402", "postal_hyphen": "370-0402", "pref": "群馬県", "city": "太田市", "town": "阿久津町", "full": "群馬県太田市阿久津町"}, {"postal_code": "3730814", "postal_hyphen": "373-0814", "pref": "群馬県", "city": "太田市", "town": "朝日町", "full": "群馬県太田市朝日町"}, {"postal_code": "3730852", "postal_hyphen": "373-0852", "pref": "群馬県", "city": "太田市", "town": "新井町", "full": "群馬県太田市新井町"}, {"postal_code": "3700422", "postal_hyphen": "370-0422", "pref": "群馬県", "city": "太田市", "town": "安養寺町", "full": "群馬県太田市安養寺町"}, {"postal_code": "3730851", "postal_hyphen": "373-0851", "pref": "群馬県", "city": "太田市", "town": "飯田町", "full": "群馬県太田市飯田町"}, {"postal_code": "3730817", "postal_hyphen": "373-0817", "pref": "群馬県", "city": "太田市", "town": "飯塚町", "full": "群馬県太田市飯塚町"}, {"postal_code": "3730007", "postal_hyphen": "373-0007", "pref": "群馬県", "city": "太田市", "town": "石橋町", "full": "群馬県太田市石橋町"}, {"postal_code": "3730808", "postal_hyphen": "373-0808", "pref": "群馬県", "city": "太田市", "town": "石原町", "full": "群馬県太田市石原町"}, {"postal_code": "3730845", "postal_hyphen": "373-0845", "pref": "群馬県", "city": "太田市", "town": "泉町", "full": "群馬県太田市泉町"}, {"postal_code": "3730013", "postal_hyphen": "373-0013", "pref": "群馬県", "city": "太田市", "town": "市場町", "full": "群馬県太田市市場町"}, {"postal_code": "3700424", "postal_hyphen": "370-0424", "pref": "群馬県", "city": "太田市", "town": "出塚町", "full": "群馬県太田市出塚町"}, {"postal_code": "3730841", "postal_hyphen": "373-0841", "pref": "群馬県", "city": "太田市", "town": "岩瀬川町", "full": "群馬県太田市岩瀬川町"}, {"postal_code": "3700403", "postal_hyphen": "370-0403", "pref": "群馬県", "city": "太田市", "town": "岩松町", "full": "群馬県太田市岩松町"}, {"postal_code": "3730014", "postal_hyphen": "373-0014", "pref": "群馬県", "city": "太田市", "town": "植木野町", "full": "群馬県太田市植木野町"}, {"postal_code": "3730833", "postal_hyphen": "373-0833", "pref": "群馬県", "city": "太田市", "town": "牛沢町", "full": "群馬県太田市牛沢町"}, {"postal_code": "3730813", "postal_hyphen": "373-0813", "pref": "群馬県", "city": "太田市", "town": "内ケ島町", "full": "群馬県太田市内ケ島町"}, {"postal_code": "3792306", "postal_hyphen": "379-2306", "pref": "群馬県", "city": "太田市", "town": "大久保町", "full": "群馬県太田市大久保町"}, {"postal_code": "3730055", "postal_hyphen": "373-0055", "pref": "群馬県", "city": "太田市", "town": "大島町", "full": "群馬県太田市大島町"}, {"postal_code": "3700423", "postal_hyphen": "370-0423", "pref": "群馬県", "city": "太田市", "town": "大舘町", "full": "群馬県太田市大舘町"}, {"postal_code": "3792304", "postal_hyphen": "379-2304", "pref": "群馬県", "city": "太田市", "town": "大原町", "full": "群馬県太田市大原町"}, {"postal_code": "3730075", "postal_hyphen": "373-0075", "pref": "群馬県", "city": "太田市", "town": "大鷲町", "full": "群馬県太田市大鷲町"}, {"postal_code": "3730045", "postal_hyphen": "373-0045", "pref": "群馬県", "city": "太田市", "town": "沖野町", "full": "群馬県太田市沖野町"}, {"postal_code": "3730804", "postal_hyphen": "373-0804", "pref": "群馬県", "city": "太田市", "town": "沖之郷町", "full": "群馬県太田市沖之郷町"}, {"postal_code": "3700405", "postal_hyphen": "370-0405", "pref": "群馬県", "city": "太田市", "town": "押切町", "full": "群馬県太田市押切町"}, {"postal_code": "3700401", "postal_hyphen": "370-0401", "pref": "群馬県", "city": "太田市", "town": "尾島町", "full": "群馬県太田市尾島町"}, {"postal_code": "3700421", "postal_hyphen": "370-0421", "pref": "群馬県", "city": "太田市", "town": "粕川町", "full": "群馬県太田市粕川町"}, {"postal_code": "3730027", "postal_hyphen": "373-0027", "pref": "群馬県", "city": "太田市", "town": "金山町", "full": "群馬県太田市金山町"}, {"postal_code": "3730074", "postal_hyphen": "373-0074", "pref": "群馬県", "city": "太田市", "town": "上強戸町", "full": "群馬県太田市上強戸町"}, {"postal_code": "3730024", "postal_hyphen": "373-0024", "pref": "群馬県", "city": "太田市", "town": "上小林町", "full": "群馬県太田市上小林町"}, {"postal_code": "3730044", "postal_hyphen": "373-0044", "pref": "群馬県", "city": "太田市", "town": "上田島町", "full": "群馬県太田市上田島町"}, {"postal_code": "3700411", "postal_hyphen": "370-0411", "pref": "群馬県", "city": "太田市", "town": "亀岡町", "full": "群馬県太田市亀岡町"}, {"postal_code": "3730003", "postal_hyphen": "373-0003", "pref": "群馬県", "city": "太田市", "town": "北金井町", "full": "群馬県太田市北金井町"}, {"postal_code": "3730012", "postal_hyphen": "373-0012", "pref": "群馬県", "city": "太田市", "town": "清原町", "full": "群馬県太田市清原町"}, {"postal_code": "3730025", "postal_hyphen": "373-0025", "pref": "群馬県", "city": "太田市", "town": "熊野町", "full": "群馬県太田市熊野町"}, {"postal_code": "3730004", "postal_hyphen": "373-0004", "pref": "群馬県", "city": "太田市", "town": "強戸町", "full": "群馬県太田市強戸町"}, {"postal_code": "3700427", "postal_hyphen": "370-0427", "pref": "群馬県", "city": "太田市", "town": "小角田町", "full": "群馬県太田市小角田町"}, {"postal_code": "3730818", "postal_hyphen": "373-0818", "pref": "群馬県", "city": "太田市", "town": "小舞木町", "full": "群馬県太田市小舞木町"}, {"postal_code": "3730807", "postal_hyphen": "373-0807", "pref": "群馬県", "city": "太田市", "town": "下小林町", "full": "群馬県太田市下小林町"}, {"postal_code": "3730844", "postal_hyphen": "373-0844", "pref": "群馬県", "city": "太田市", "town": "下田島町", "full": "群馬県太田市下田島町"}, {"postal_code": "3730821", "postal_hyphen": "373-0821", "pref": "群馬県", "city": "太田市", "town": "下浜田町", "full": "群馬県太田市下浜田町"}, {"postal_code": "3730038", "postal_hyphen": "373-0038", "pref": "群馬県", "city": "太田市", "town": "城西町", "full": "群馬県太田市城西町"}, {"postal_code": "3730822", "postal_hyphen": "373-0822", "pref": "群馬県", "city": "太田市", "town": "庄屋町", "full": "群馬県太田市庄屋町"}, {"postal_code": "3730037", "postal_hyphen": "373-0037", "pref": "群馬県", "city": "太田市", "town": "新道町", "full": "群馬県太田市新道町"}, {"postal_code": "3730862", "postal_hyphen": "373-0862", "pref": "群馬県", "city": "太田市", "town": "末広町", "full": "群馬県太田市末広町"}, {"postal_code": "3730002", "postal_hyphen": "373-0002", "pref": "群馬県", "city": "太田市", "town": "菅塩町", "full": "群馬県太田市菅塩町"}, {"postal_code": "3700413", "postal_hyphen": "370-0413", "pref": "群馬県", "city": "太田市", "town": "すずかけ町", "full": "群馬県太田市すずかけ町"}, {"postal_code": "3730028", "postal_hyphen": "373-0028", "pref": "群馬県", "city": "太田市", "town": "スバル町", "full": "群馬県太田市スバル町"}, {"postal_code": "3700426", "postal_hyphen": "370-0426", "pref": "群馬県", "city": "太田市", "town": "世良田町", "full": "群馬県太田市世良田町"}, {"postal_code": "3700412", "postal_hyphen": "370-0412", "pref": "群馬県", "city": "太田市", "town": "太子町", "full": "群馬県太田市太子町"}, {"postal_code": "3730801", "postal_hyphen": "373-0801", "pref": "群馬県", "city": "太田市", "town": "台之郷町", "full": "群馬県太田市台之郷町"}, {"postal_code": "3730072", "postal_hyphen": "373-0072", "pref": "群馬県", "city": "太田市", "town": "高瀬町", "full": "群馬県太田市高瀬町"}, {"postal_code": "3730825", "postal_hyphen": "373-0825", "pref": "群馬県", "city": "太田市", "town": "高林東町", "full": "群馬県太田市高林東町"}, {"postal_code": "3730828", "postal_hyphen": "373-0828", "pref": "群馬県", "city": "太田市", "town": "高林西町", "full": "群馬県太田市高林西町"}, {"postal_code": "3730827", "postal_hyphen": "373-0827", "pref": "群馬県", "city": "太田市", "town": "高林南町", "full": "群馬県太田市高林南町"}, {"postal_code": "3730829", "postal_hyphen": "373-0829", "pref": "群馬県", "city": "太田市", "town": "高林北町", "full": "群馬県太田市高林北町"}, {"postal_code": "3730824", "postal_hyphen": "373-0824", "pref": "群馬県", "city": "太田市", "town": "高林寿町", "full": "群馬県太田市高林寿町"}, {"postal_code": "3730042", "postal_hyphen": "373-0042", "pref": "群馬県", "city": "太田市", "town": "宝町", "full": "群馬県太田市宝町"}, {"postal_code": "3730011", "postal_hyphen": "373-0011", "pref": "群馬県", "city": "太田市", "town": "只上町", "full": "群馬県太田市只上町"}, {"postal_code": "3730008", "postal_hyphen": "373-0008", "pref": "群馬県", "city": "太田市", "town": "鶴生田町", "full": "群馬県太田市鶴生田町"}, {"postal_code": "3730052", "postal_hyphen": "373-0052", "pref": "群馬県", "city": "太田市", "town": "寺井町", "full": "群馬県太田市寺井町"}, {"postal_code": "3730051", "postal_hyphen": "373-0051", "pref": "群馬県", "city": "太田市", "town": "天良町", "full": "群馬県太田市天良町"}, {"postal_code": "3700425", "postal_hyphen": "370-0425", "pref": "群馬県", "city": "太田市", "town": "徳川町", "full": "群馬県太田市徳川町"}, {"postal_code": "3730832", "postal_hyphen": "373-0832", "pref": "群馬県", "city": "太田市", "town": "富沢町", "full": "群馬県太田市富沢町"}, {"postal_code": "3730023", "postal_hyphen": "373-0023", "pref": "群馬県", "city": "太田市", "town": "富若町", "full": "群馬県太田市富若町"}, {"postal_code": "3730053", "postal_hyphen": "373-0053", "pref": "群馬県", "city": "太田市", "town": "鳥山町", "full": "群馬県太田市鳥山町"}, {"postal_code": "3730061", "postal_hyphen": "373-0061", "pref": "群馬県", "city": "太田市", "town": "鳥山上町", "full": "群馬県太田市鳥山上町"}, {"postal_code": "3730062", "postal_hyphen": "373-0062", "pref": "群馬県", "city": "太田市", "town": "鳥山中町", "full": "群馬県太田市鳥山中町"}, {"postal_code": "3730063", "postal_hyphen": "373-0063", "pref": "群馬県", "city": "太田市", "town": "鳥山下町", "full": "群馬県太田市鳥山下町"}, {"postal_code": "3730846", "postal_hyphen": "373-0846", "pref": "群馬県", "city": "太田市", "town": "中根町", "full": "群馬県太田市中根町"}, {"postal_code": "3730054", "postal_hyphen": "373-0054", "pref": "群馬県", "city": "太田市", "town": "長手町", "full": "群馬県太田市長手町"}, {"postal_code": "3730006", "postal_hyphen": "373-0006", "pref": "群馬県", "city": "太田市", "town": "成塚町", "full": "群馬県太田市成塚町"}, {"postal_code": "3730819", "postal_hyphen": "373-0819", "pref": "群馬県", "city": "太田市", "town": "新島町", "full": "群馬県太田市新島町"}, {"postal_code": "3730032", "postal_hyphen": "373-0032", "pref": "群馬県", "city": "太田市", "town": "新野町", "full": "群馬県太田市新野町"}, {"postal_code": "3730847", "postal_hyphen": "373-0847", "pref": "群馬県", "city": "太田市", "town": "西新町", "full": "群馬県太田市西新町"}, {"postal_code": "3730001", "postal_hyphen": "373-0001", "pref": "群馬県", "city": "太田市", "town": "西長岡町", "full": "群馬県太田市西長岡町"}, {"postal_code": "3730043", "postal_hyphen": "373-0043", "pref": "群馬県", "city": "太田市", "town": "西野谷町", "full": "群馬県太田市西野谷町"}, {"postal_code": "3730033", "postal_hyphen": "373-0033", "pref": "群馬県", "city": "太田市", "town": "西本町", "full": "群馬県太田市西本町"}, {"postal_code": "3730823", "postal_hyphen": "373-0823", "pref": "群馬県", "city": "太田市", "town": "西矢島町", "full": "群馬県太田市西矢島町"}, {"postal_code": "3700331", "postal_hyphen": "370-0331", "pref": "群馬県", "city": "太田市", "town": "新田赤堀町", "full": "群馬県太田市新田赤堀町"}, {"postal_code": "3700304", "postal_hyphen": "370-0304", "pref": "群馬県", "city": "太田市", "town": "新田市町", "full": "群馬県太田市新田市町"}, {"postal_code": "3700314", "postal_hyphen": "370-0314", "pref": "群馬県", "city": "太田市", "town": "新田市野井町", "full": "群馬県太田市新田市野井町"}, {"postal_code": "3700306", "postal_hyphen": "370-0306", "pref": "群馬県", "city": "太田市", "town": "新田市野倉町", "full": "群馬県太田市新田市野倉町"}, {"postal_code": "3700351", "postal_hyphen": "370-0351", "pref": "群馬県", "city": "太田市", "town": "新田大町", "full": "群馬県太田市新田大町"}, {"postal_code": "3700347", "postal_hyphen": "370-0347", "pref": "群馬県", "city": "太田市", "town": "新田大根町", "full": "群馬県太田市新田大根町"}, {"postal_code": "3700341", "postal_hyphen": "370-0341", "pref": "群馬県", "city": "太田市", "town": "新田金井町", "full": "群馬県太田市新田金井町"}, {"postal_code": "3700352", "postal_hyphen": "370-0352", "pref": "群馬県", "city": "太田市", "town": "新田嘉祢町", "full": "群馬県太田市新田嘉祢町"}, {"postal_code": "3700342", "postal_hyphen": "370-0342", "pref": "群馬県", "city": "太田市", "town": "新田上江田町", "full": "群馬県太田市新田上江田町"}, {"postal_code": "3700346", "postal_hyphen": "370-0346", "pref": "群馬県", "city": "太田市", "town": "新田上田中町", "full": "群馬県太田市新田上田中町"}, {"postal_code": "3700353", "postal_hyphen": "370-0353", "pref": "群馬県", "city": "太田市", "town": "新田上中町", "full": "群馬県太田市新田上中町"}, {"postal_code": "3700321", "postal_hyphen": "370-0321", "pref": "群馬県", "city": "太田市", "town": "新田木崎町", "full": "群馬県太田市新田木崎町"}, {"postal_code": "3700303", "postal_hyphen": "370-0303", "pref": "群馬県", "city": "太田市", "town": "新田小金井町", "full": "群馬県太田市新田小金井町"}, {"postal_code": "3700302", "postal_hyphen": "370-0302", "pref": "群馬県", "city": "太田市", "town": "新田小金町", "full": "群馬県太田市新田小金町"}, {"postal_code": "3700355", "postal_hyphen": "370-0355", "pref": "群馬県", "city": "太田市", "town": "新田権右衛門町", "full": "群馬県太田市新田権右衛門町"}, {"postal_code": "3700333", "postal_hyphen": "370-0333", "pref": "群馬県", "city": "太田市", "town": "新田下江田町", "full": "群馬県太田市新田下江田町"}, {"postal_code": "3700343", "postal_hyphen": "370-0343", "pref": "群馬県", "city": "太田市", "town": "新田下田中町", "full": "群馬県太田市新田下田中町"}, {"postal_code": "3700313", "postal_hyphen": "370-0313", "pref": "群馬県", "city": "太田市", "town": "新田反町町", "full": "群馬県太田市新田反町町"}, {"postal_code": "3700334", "postal_hyphen": "370-0334", "pref": "群馬県", "city": "太田市", "town": "新田高尾町", "full": "群馬県太田市新田高尾町"}, {"postal_code": "3700305", "postal_hyphen": "370-0305", "pref": "群馬県", "city": "太田市", "town": "新田多村新田町", "full": "群馬県太田市新田多村新田町"}, {"postal_code": "3700354", "postal_hyphen": "370-0354", "pref": "群馬県", "city": "太田市", "town": "新田溜池町", "full": "群馬県太田市新田溜池町"}, {"postal_code": "3700301", "postal_hyphen": "370-0301", "pref": "群馬県", "city": "太田市", "town": "新田天良町", "full": "群馬県太田市新田天良町"}, {"postal_code": "3700332", "postal_hyphen": "370-0332", "pref": "群馬県", "city": "太田市", "town": "新田中江田町", "full": "群馬県太田市新田中江田町"}, {"postal_code": "3700356", "postal_hyphen": "370-0356", "pref": "群馬県", "city": "太田市", "town": "新田萩町", "full": "群馬県太田市新田萩町"}, {"postal_code": "3700345", "postal_hyphen": "370-0345", "pref": "群馬県", "city": "太田市", "town": "新田花香塚町", "full": "群馬県太田市新田花香塚町"}, {"postal_code": "3700344", "postal_hyphen": "370-0344", "pref": "群馬県", "city": "太田市", "town": "新田早川町", "full": "群馬県太田市新田早川町"}, {"postal_code": "3700311", "postal_hyphen": "370-0311", "pref": "群馬県", "city": "太田市", "town": "新田瑞木町", "full": "群馬県太田市新田瑞木町"}, {"postal_code": "3700312", "postal_hyphen": "370-0312", "pref": "群馬県", "city": "太田市", "town": "新田村田町", "full": "群馬県太田市新田村田町"}, {"postal_code": "3730029", "postal_hyphen": "373-0029", "pref": "群馬県", "city": "太田市", "town": "韮川町", "full": "群馬県太田市韮川町"}, {"postal_code": "3730056", "postal_hyphen": "373-0056", "pref": "群馬県", "city": "太田市", "town": "八幡町", "full": "群馬県太田市八幡町"}, {"postal_code": "3730853", "postal_hyphen": "373-0853", "pref": "群馬県", "city": "太田市", "town": "浜町", "full": "群馬県太田市浜町"}, {"postal_code": "3730071", "postal_hyphen": "373-0071", "pref": "群馬県", "city": "太田市", "town": "原宿町", "full": "群馬県太田市原宿町"}, {"postal_code": "3730021", "postal_hyphen": "373-0021", "pref": "群馬県", "city": "太田市", "town": "東今泉町", "full": "群馬県太田市東今泉町"}, {"postal_code": "3730022", "postal_hyphen": "373-0022", "pref": "群馬県", "city": "太田市", "town": "東金井町", "full": "群馬県太田市東金井町"}, {"postal_code": "3730015", "postal_hyphen": "373-0015", "pref": "群馬県", "city": "太田市", "town": "東新町", "full": "群馬県太田市東新町"}, {"postal_code": "3730812", "postal_hyphen": "373-0812", "pref": "群馬県", "city": "太田市", "town": "東長岡町", "full": "群馬県太田市東長岡町"}, {"postal_code": "3730815", "postal_hyphen": "373-0815", "pref": "群馬県", "city": "太田市", "town": "東別所町", "full": "群馬県太田市東別所町"}, {"postal_code": "3730026", "postal_hyphen": "373-0026", "pref": "群馬県", "city": "太田市", "town": "東本町", "full": "群馬県太田市東本町"}, {"postal_code": "3730816", "postal_hyphen": "373-0816", "pref": "群馬県", "city": "太田市", "town": "東矢島町", "full": "群馬県太田市東矢島町"}, {"postal_code": "3700404", "postal_hyphen": "370-0404", "pref": "群馬県", "city": "太田市", "town": "備前島町", "full": "群馬県太田市備前島町"}, {"postal_code": "3730831", "postal_hyphen": "373-0831", "pref": "群馬県", "city": "太田市", "town": "福沢町", "full": "群馬県太田市福沢町"}, {"postal_code": "3730034", "postal_hyphen": "373-0034", "pref": "群馬県", "city": "太田市", "town": "藤阿久町", "full": "群馬県太田市藤阿久町"}, {"postal_code": "3730035", "postal_hyphen": "373-0035", "pref": "群馬県", "city": "太田市", "town": "藤久良町", "full": "群馬県太田市藤久良町"}, {"postal_code": "3700417", "postal_hyphen": "370-0417", "pref": "群馬県", "city": "太田市", "town": "二ツ小屋町", "full": "群馬県太田市二ツ小屋町"}, {"postal_code": "3730826", "postal_hyphen": "373-0826", "pref": "群馬県", "city": "太田市", "town": "古戸町", "full": "群馬県太田市古戸町"}, {"postal_code": "3730041", "postal_hyphen": "373-0041", "pref": "群馬県", "city": "太田市", "town": "別所町", "full": "群馬県太田市別所町"}, {"postal_code": "3730842", "postal_hyphen": "373-0842", "pref": "群馬県", "city": "太田市", "town": "細谷町", "full": "群馬県太田市細谷町"}, {"postal_code": "3700414", "postal_hyphen": "370-0414", "pref": "群馬県", "city": "太田市", "town": "堀口町", "full": "群馬県太田市堀口町"}, {"postal_code": "3730057", "postal_hyphen": "373-0057", "pref": "群馬県", "city": "太田市", "town": "本町", "full": "群馬県太田市本町"}, {"postal_code": "3700406", "postal_hyphen": "370-0406", "pref": "群馬県", "city": "太田市", "town": "前小屋町", "full": "群馬県太田市前小屋町"}, {"postal_code": "3700416", "postal_hyphen": "370-0416", "pref": "群馬県", "city": "太田市", "town": "前島町", "full": "群馬県太田市前島町"}, {"postal_code": "3730018", "postal_hyphen": "373-0018", "pref": "群馬県", "city": "太田市", "town": "丸山町", "full": "群馬県太田市丸山町"}, {"postal_code": "3730073", "postal_hyphen": "373-0073", "pref": "群馬県", "city": "太田市", "town": "緑町", "full": "群馬県太田市緑町"}, {"postal_code": "3700415", "postal_hyphen": "370-0415", "pref": "群馬県", "city": "太田市", "town": "南ケ丘町", "full": "群馬県太田市南ケ丘町"}, {"postal_code": "3730861", "postal_hyphen": "373-0861", "pref": "群馬県", "city": "太田市", "town": "南矢島町", "full": "群馬県太田市南矢島町"}, {"postal_code": "3700418", "postal_hyphen": "370-0418", "pref": "群馬県", "city": "太田市", "town": "武蔵島町", "full": "群馬県太田市武蔵島町"}, {"postal_code": "3730809", "postal_hyphen": "373-0809", "pref": "群馬県", "city": "太田市", "town": "茂木町", "full": "群馬県太田市茂木町"}, {"postal_code": "3730805", "postal_hyphen": "373-0805", "pref": "群馬県", "city": "太田市", "town": "八重笠町", "full": "群馬県太田市八重笠町"}, {"postal_code": "3730811", "postal_hyphen": "373-0811", "pref": "群馬県", "city": "太田市", "town": "安良岡町", "full": "群馬県太田市安良岡町"}, {"postal_code": "3730016", "postal_hyphen": "373-0016", "pref": "群馬県", "city": "太田市", "town": "矢田堀町", "full": "群馬県太田市矢田堀町"}, {"postal_code": "3730803", "postal_hyphen": "373-0803", "pref": "群馬県", "city": "太田市", "town": "矢場町", "full": "群馬県太田市矢場町"}, {"postal_code": "3730802", "postal_hyphen": "373-0802", "pref": "群馬県", "city": "太田市", "town": "矢場新町", "full": "群馬県太田市矢場新町"}, {"postal_code": "3792301", "postal_hyphen": "379-2301", "pref": "群馬県", "city": "太田市", "town": "藪塚町", "full": "群馬県太田市藪塚町"}, {"postal_code": "3792302", "postal_hyphen": "379-2302", "pref": "群馬県", "city": "太田市", "town": "山之神町", "full": "群馬県太田市山之神町"}, {"postal_code": "3730036", "postal_hyphen": "373-0036", "pref": "群馬県", "city": "太田市", "town": "由良町", "full": "群馬県太田市由良町"}, {"postal_code": "3730019", "postal_hyphen": "373-0019", "pref": "群馬県", "city": "太田市", "town": "吉沢町", "full": "群馬県太田市吉沢町"}, {"postal_code": "3730843", "postal_hyphen": "373-0843", "pref": "群馬県", "city": "太田市", "town": "米沢町", "full": "群馬県太田市米沢町"}, {"postal_code": "3792303", "postal_hyphen": "379-2303", "pref": "群馬県", "city": "太田市", "town": "寄合町", "full": "群馬県太田市寄合町"}, {"postal_code": "3730806", "postal_hyphen": "373-0806", "pref": "群馬県", "city": "太田市", "town": "龍舞町", "full": "群馬県太田市龍舞町"}, {"postal_code": "3792305", "postal_hyphen": "379-2305", "pref": "群馬県", "city": "太田市", "town": "六千石町", "full": "群馬県太田市六千石町"}, {"postal_code": "3730031", "postal_hyphen": "373-0031", "pref": "群馬県", "city": "太田市", "town": "脇屋町", "full": "群馬県太田市脇屋町"}, {"postal_code": "3780000", "postal_hyphen": "378-0000", "pref": "群馬県", "city": "沼田市", "town": "", "full": "群馬県沼田市"}, {"postal_code": "3780076", "postal_hyphen": "378-0076", "pref": "群馬県", "city": "沼田市", "town": "秋塚町", "full": "群馬県沼田市秋塚町"}, {"postal_code": "3780077", "postal_hyphen": "378-0077", "pref": "群馬県", "city": "沼田市", "town": "石墨町", "full": "群馬県沼田市石墨町"}, {"postal_code": "3780035", "postal_hyphen": "378-0035", "pref": "群馬県", "city": "沼田市", "town": "井土上町", "full": "群馬県沼田市井土上町"}, {"postal_code": "3780025", "postal_hyphen": "378-0025", "pref": "群馬県", "city": "沼田市", "town": "今井町", "full": "群馬県沼田市今井町"}, {"postal_code": "3780021", "postal_hyphen": "378-0021", "pref": "群馬県", "city": "沼田市", "town": "岩本町", "full": "群馬県沼田市岩本町"}, {"postal_code": "3780031", "postal_hyphen": "378-0031", "pref": "群馬県", "city": "沼田市", "town": "薄根町", "full": "群馬県沼田市薄根町"}, {"postal_code": "3780068", "postal_hyphen": "378-0068", "pref": "群馬県", "city": "沼田市", "town": "宇楚井町", "full": "群馬県沼田市宇楚井町"}, {"postal_code": "3780067", "postal_hyphen": "378-0067", "pref": "群馬県", "city": "沼田市", "town": "大釜町", "full": "群馬県沼田市大釜町"}, {"postal_code": "3780061", "postal_hyphen": "378-0061", "pref": "群馬県", "city": "沼田市", "town": "岡谷町", "full": "群馬県沼田市岡谷町"}, {"postal_code": "3780034", "postal_hyphen": "378-0034", "pref": "群馬県", "city": "沼田市", "town": "恩田町", "full": "群馬県沼田市恩田町"}, {"postal_code": "3780018", "postal_hyphen": "378-0018", "pref": "群馬県", "city": "沼田市", "town": "鍛冶町", "full": "群馬県沼田市鍛冶町"}, {"postal_code": "3780026", "postal_hyphen": "378-0026", "pref": "群馬県", "city": "沼田市", "town": "上川田町", "full": "群馬県沼田市上川田町"}, {"postal_code": "3780003", "postal_hyphen": "378-0003", "pref": "群馬県", "city": "沼田市", "town": "上久屋町", "full": "群馬県沼田市上久屋町"}, {"postal_code": "3780011", "postal_hyphen": "378-0011", "pref": "群馬県", "city": "沼田市", "town": "上沼須町", "full": "群馬県沼田市上沼須町"}, {"postal_code": "3780047", "postal_hyphen": "378-0047", "pref": "群馬県", "city": "沼田市", "town": "上之町", "full": "群馬県沼田市上之町"}, {"postal_code": "3780051", "postal_hyphen": "378-0051", "pref": "群馬県", "city": "沼田市", "town": "上原町", "full": "群馬県沼田市上原町"}, {"postal_code": "3780071", "postal_hyphen": "378-0071", "pref": "群馬県", "city": "沼田市", "town": "上発知町", "full": "群馬県沼田市上発知町"}, {"postal_code": "3780005", "postal_hyphen": "378-0005", "pref": "群馬県", "city": "沼田市", "town": "久屋原町", "full": "群馬県沼田市久屋原町"}, {"postal_code": "3780045", "postal_hyphen": "378-0045", "pref": "群馬県", "city": "沼田市", "town": "材木町", "full": "群馬県沼田市材木町"}, {"postal_code": "3780014", "postal_hyphen": "378-0014", "pref": "群馬県", "city": "沼田市", "town": "栄町", "full": "群馬県沼田市栄町"}, {"postal_code": "3780052", "postal_hyphen": "378-0052", "pref": "群馬県", "city": "沼田市", "town": "桜町", "full": "群馬県沼田市桜町"}, {"postal_code": "3780023", "postal_hyphen": "378-0023", "pref": "群馬県", "city": "沼田市", "town": "篠尾町", "full": "群馬県沼田市篠尾町"}, {"postal_code": "3780078", "postal_hyphen": "378-0078", "pref": "群馬県", "city": "沼田市", "town": "佐山町", "full": "群馬県沼田市佐山町"}, {"postal_code": "3780016", "postal_hyphen": "378-0016", "pref": "群馬県", "city": "沼田市", "town": "清水町", "full": "群馬県沼田市清水町"}, {"postal_code": "3780024", "postal_hyphen": "378-0024", "pref": "群馬県", "city": "沼田市", "town": "下川田町", "full": "群馬県沼田市下川田町"}, {"postal_code": "3780004", "postal_hyphen": "378-0004", "pref": "群馬県", "city": "沼田市", "town": "下久屋町", "full": "群馬県沼田市下久屋町"}, {"postal_code": "3780063", "postal_hyphen": "378-0063", "pref": "群馬県", "city": "沼田市", "town": "下沼田町", "full": "群馬県沼田市下沼田町"}, {"postal_code": "3780044", "postal_hyphen": "378-0044", "pref": "群馬県", "city": "沼田市", "town": "下之町", "full": "群馬県沼田市下之町"}, {"postal_code": "3780074", "postal_hyphen": "378-0074", "pref": "群馬県", "city": "沼田市", "town": "下発知町", "full": "群馬県沼田市下発知町"}, {"postal_code": "3780033", "postal_hyphen": "378-0033", "pref": "群馬県", "city": "沼田市", "town": "白岩町", "full": "群馬県沼田市白岩町"}, {"postal_code": "3780123", "postal_hyphen": "378-0123", "pref": "群馬県", "city": "沼田市", "town": "白沢町岩室", "full": "群馬県沼田市白沢町岩室"}, {"postal_code": "3780124", "postal_hyphen": "378-0124", "pref": "群馬県", "city": "沼田市", "town": "白沢町尾合", "full": "群馬県沼田市白沢町尾合"}, {"postal_code": "3780126", "postal_hyphen": "378-0126", "pref": "群馬県", "city": "沼田市", "town": "白沢町上古語父", "full": "群馬県沼田市白沢町上古語父"}, {"postal_code": "3780127", "postal_hyphen": "378-0127", "pref": "群馬県", "city": "沼田市", "town": "白沢町下古語父", "full": "群馬県沼田市白沢町下古語父"}, {"postal_code": "3780121", "postal_hyphen": "378-0121", "pref": "群馬県", "city": "沼田市", "town": "白沢町高平", "full": "群馬県沼田市白沢町高平"}, {"postal_code": "3780122", "postal_hyphen": "378-0122", "pref": "群馬県", "city": "沼田市", "town": "白沢町生枝", "full": "群馬県沼田市白沢町生枝"}, {"postal_code": "3780125", "postal_hyphen": "378-0125", "pref": "群馬県", "city": "沼田市", "town": "白沢町平出", "full": "群馬県沼田市白沢町平出"}, {"postal_code": "3780013", "postal_hyphen": "378-0013", "pref": "群馬県", "city": "沼田市", "town": "新町", "full": "群馬県沼田市新町"}, {"postal_code": "3780032", "postal_hyphen": "378-0032", "pref": "群馬県", "city": "沼田市", "town": "硯田町", "full": "群馬県沼田市硯田町"}, {"postal_code": "3780064", "postal_hyphen": "378-0064", "pref": "群馬県", "city": "沼田市", "town": "善桂寺町", "full": "群馬県沼田市善桂寺町"}, {"postal_code": "3780056", "postal_hyphen": "378-0056", "pref": "群馬県", "city": "沼田市", "town": "高橋場町", "full": "群馬県沼田市高橋場町"}, {"postal_code": "3780015", "postal_hyphen": "378-0015", "pref": "群馬県", "city": "沼田市", "town": "戸鹿野町", "full": "群馬県沼田市戸鹿野町"}, {"postal_code": "3780001", "postal_hyphen": "378-0001", "pref": "群馬県", "city": "沼田市", "town": "戸神町", "full": "群馬県沼田市戸神町"}, {"postal_code": "3780314", "postal_hyphen": "378-0314", "pref": "群馬県", "city": "沼田市", "town": "利根町青木", "full": "群馬県沼田市利根町青木"}, {"postal_code": "3780305", "postal_hyphen": "378-0305", "pref": "群馬県", "city": "沼田市", "town": "利根町穴原", "full": "群馬県沼田市利根町穴原"}, {"postal_code": "3780326", "postal_hyphen": "378-0326", "pref": "群馬県", "city": "沼田市", "town": "利根町石戸新田", "full": "群馬県沼田市利根町石戸新田"}, {"postal_code": "3780322", "postal_hyphen": "378-0322", "pref": "群馬県", "city": "沼田市", "town": "利根町老神", "full": "群馬県沼田市利根町老神"}, {"postal_code": "3780323", "postal_hyphen": "378-0323", "pref": "群馬県", "city": "沼田市", "town": "利根町大原", "full": "群馬県沼田市利根町大原"}, {"postal_code": "3780304", "postal_hyphen": "378-0304", "pref": "群馬県", "city": "沼田市", "town": "利根町大楊", "full": "群馬県沼田市利根町大楊"}, {"postal_code": "3780303", "postal_hyphen": "378-0303", "pref": "群馬県", "city": "沼田市", "town": "利根町追貝", "full": "群馬県沼田市利根町追貝"}, {"postal_code": "3780307", "postal_hyphen": "378-0307", "pref": "群馬県", "city": "沼田市", "town": "利根町柿平", "full": "群馬県沼田市利根町柿平"}, {"postal_code": "3780311", "postal_hyphen": "378-0311", "pref": "群馬県", "city": "沼田市", "town": "利根町小松", "full": "群馬県沼田市利根町小松"}, {"postal_code": "3780315", "postal_hyphen": "378-0315", "pref": "群馬県", "city": "沼田市", "town": "利根町砂川", "full": "群馬県沼田市利根町砂川"}, {"postal_code": "3780324", "postal_hyphen": "378-0324", "pref": "群馬県", "city": "沼田市", "town": "利根町園原", "full": "群馬県沼田市利根町園原"}, {"postal_code": "3780321", "postal_hyphen": "378-0321", "pref": "群馬県", "city": "沼田市", "town": "利根町高戸谷", "full": "群馬県沼田市利根町高戸谷"}, {"postal_code": "3780317", "postal_hyphen": "378-0317", "pref": "群馬県", "city": "沼田市", "town": "利根町多那", "full": "群馬県沼田市利根町多那"}, {"postal_code": "3780302", "postal_hyphen": "378-0302", "pref": "群馬県", "city": "沼田市", "town": "利根町千鳥", "full": "群馬県沼田市利根町千鳥"}, {"postal_code": "3780316", "postal_hyphen": "378-0316", "pref": "群馬県", "city": "沼田市", "town": "利根町二本松", "full": "群馬県沼田市利根町二本松"}, {"postal_code": "3780312", "postal_hyphen": "378-0312", "pref": "群馬県", "city": "沼田市", "town": "利根町根利", "full": "群馬県沼田市利根町根利"}, {"postal_code": "3780313", "postal_hyphen": "378-0313", "pref": "群馬県", "city": "沼田市", "town": "利根町日影南郷", "full": "群馬県沼田市利根町日影南郷"}, {"postal_code": "3780306", "postal_hyphen": "378-0306", "pref": "群馬県", "city": "沼田市", "town": "利根町日向南郷", "full": "群馬県沼田市利根町日向南郷"}, {"postal_code": "3780301", "postal_hyphen": "378-0301", "pref": "群馬県", "city": "沼田市", "town": "利根町平川", "full": "群馬県沼田市利根町平川"}, {"postal_code": "3780325", "postal_hyphen": "378-0325", "pref": "群馬県", "city": "沼田市", "town": "利根町輪組", "full": "群馬県沼田市利根町輪組"}, {"postal_code": "3780072", "postal_hyphen": "378-0072", "pref": "群馬県", "city": "沼田市", "town": "中発知町", "full": "群馬県沼田市中発知町"}, {"postal_code": "3780048", "postal_hyphen": "378-0048", "pref": "群馬県", "city": "沼田市", "town": "中町", "full": "群馬県沼田市中町"}, {"postal_code": "3780075", "postal_hyphen": "378-0075", "pref": "群馬県", "city": "沼田市", "town": "奈良町", "full": "群馬県沼田市奈良町"}, {"postal_code": "3780042", "postal_hyphen": "378-0042", "pref": "群馬県", "city": "沼田市", "town": "西倉内町", "full": "群馬県沼田市西倉内町"}, {"postal_code": "3780054", "postal_hyphen": "378-0054", "pref": "群馬県", "city": "沼田市", "town": "西原新町", "full": "群馬県沼田市西原新町"}, {"postal_code": "3780012", "postal_hyphen": "378-0012", "pref": "群馬県", "city": "沼田市", "town": "沼須町", "full": "群馬県沼田市沼須町"}, {"postal_code": "3780046", "postal_hyphen": "378-0046", "pref": "群馬県", "city": "沼田市", "town": "馬喰町", "full": "群馬県沼田市馬喰町"}, {"postal_code": "3780066", "postal_hyphen": "378-0066", "pref": "群馬県", "city": "沼田市", "town": "原町", "full": "群馬県沼田市原町"}, {"postal_code": "3780041", "postal_hyphen": "378-0041", "pref": "群馬県", "city": "沼田市", "town": "榛名町", "full": "群馬県沼田市榛名町"}, {"postal_code": "3780043", "postal_hyphen": "378-0043", "pref": "群馬県", "city": "沼田市", "town": "東倉内町", "full": "群馬県沼田市東倉内町"}, {"postal_code": "3780053", "postal_hyphen": "378-0053", "pref": "群馬県", "city": "沼田市", "town": "東原新町", "full": "群馬県沼田市東原新町"}, {"postal_code": "3780017", "postal_hyphen": "378-0017", "pref": "群馬県", "city": "沼田市", "town": "坊新田町", "full": "群馬県沼田市坊新田町"}, {"postal_code": "3780073", "postal_hyphen": "378-0073", "pref": "群馬県", "city": "沼田市", "town": "発知新田町", "full": "群馬県沼田市発知新田町"}, {"postal_code": "3780065", "postal_hyphen": "378-0065", "pref": "群馬県", "city": "沼田市", "town": "堀廻町", "full": "群馬県沼田市堀廻町"}, {"postal_code": "3780062", "postal_hyphen": "378-0062", "pref": "群馬県", "city": "沼田市", "town": "町田町", "full": "群馬県沼田市町田町"}, {"postal_code": "3780022", "postal_hyphen": "378-0022", "pref": "群馬県", "city": "沼田市", "town": "屋形原町", "full": "群馬県沼田市屋形原町"}, {"postal_code": "3780055", "postal_hyphen": "378-0055", "pref": "群馬県", "city": "沼田市", "town": "柳町", "full": "群馬県沼田市柳町"}, {"postal_code": "3780002", "postal_hyphen": "378-0002", "pref": "群馬県", "city": "沼田市", "town": "横塚町", "full": "群馬県沼田市横塚町"}, {"postal_code": "3740000", "postal_hyphen": "374-0000", "pref": "群馬県", "city": "館林市", "town": "", "full": "群馬県館林市"}, {"postal_code": "3740035", "postal_hyphen": "374-0035", "pref": "群馬県", "city": "館林市", "town": "青柳町", "full": "群馬県館林市青柳町"}, {"postal_code": "3740053", "postal_hyphen": "374-0053", "pref": "群馬県", "city": "館林市", "town": "赤土町", "full": "群馬県館林市赤土町"}, {"postal_code": "3740013", "postal_hyphen": "374-0013", "pref": "群馬県", "city": "館林市", "town": "赤生田町", "full": "群馬県館林市赤生田町"}, {"postal_code": "3740014", "postal_hyphen": "374-0014", "pref": "群馬県", "city": "館林市", "town": "赤生田本町", "full": "群馬県館林市赤生田本町"}, {"postal_code": "3740063", "postal_hyphen": "374-0063", "pref": "群馬県", "city": "館林市", "town": "朝日町", "full": "群馬県館林市朝日町"}, {"postal_code": "3740073", "postal_hyphen": "374-0073", "pref": "群馬県", "city": "館林市", "town": "足次町", "full": "群馬県館林市足次町"}, {"postal_code": "3740045", "postal_hyphen": "374-0045", "pref": "群馬県", "city": "館林市", "town": "入ケ谷町", "full": "群馬県館林市入ケ谷町"}, {"postal_code": "3740066", "postal_hyphen": "374-0066", "pref": "群馬県", "city": "館林市", "town": "大街道", "full": "群馬県館林市大街道"}, {"postal_code": "3740001", "postal_hyphen": "374-0001", "pref": "群馬県", "city": "館林市", "town": "大島町", "full": "群馬県館林市大島町"}, {"postal_code": "3740072", "postal_hyphen": "374-0072", "pref": "群馬県", "city": "館林市", "town": "大新田町", "full": "群馬県館林市大新田町"}, {"postal_code": "3740023", "postal_hyphen": "374-0023", "pref": "群馬県", "city": "館林市", "town": "大手町", "full": "群馬県館林市大手町"}, {"postal_code": "3740054", "postal_hyphen": "374-0054", "pref": "群馬県", "city": "館林市", "town": "大谷町", "full": "群馬県館林市大谷町"}, {"postal_code": "3740067", "postal_hyphen": "374-0067", "pref": "群馬県", "city": "館林市", "town": "岡野町", "full": "群馬県館林市岡野町"}, {"postal_code": "3740019", "postal_hyphen": "374-0019", "pref": "群馬県", "city": "館林市", "town": "尾曳町", "full": "群馬県館林市尾曳町"}, {"postal_code": "3740022", "postal_hyphen": "374-0022", "pref": "群馬県", "city": "館林市", "town": "加法師町", "full": "群馬県館林市加法師町"}, {"postal_code": "3740015", "postal_hyphen": "374-0015", "pref": "群馬県", "city": "館林市", "town": "上赤生田町", "full": "群馬県館林市上赤生田町"}, {"postal_code": "3740079", "postal_hyphen": "374-0079", "pref": "群馬県", "city": "館林市", "town": "上早川田町", "full": "群馬県館林市上早川田町"}, {"postal_code": "3740046", "postal_hyphen": "374-0046", "pref": "群馬県", "city": "館林市", "town": "上三林町", "full": "群馬県館林市上三林町"}, {"postal_code": "3740057", "postal_hyphen": "374-0057", "pref": "群馬県", "city": "館林市", "town": "北成島町", "full": "群馬県館林市北成島町"}, {"postal_code": "3740077", "postal_hyphen": "374-0077", "pref": "群馬県", "city": "館林市", "town": "木戸町", "full": "群馬県館林市木戸町"}, {"postal_code": "3740004", "postal_hyphen": "374-0004", "pref": "群馬県", "city": "館林市", "town": "楠町", "full": "群馬県館林市楠町"}, {"postal_code": "3740037", "postal_hyphen": "374-0037", "pref": "群馬県", "city": "館林市", "town": "小桑原町", "full": "群馬県館林市小桑原町"}, {"postal_code": "3740042", "postal_hyphen": "374-0042", "pref": "群馬県", "city": "館林市", "town": "近藤町", "full": "群馬県館林市近藤町"}, {"postal_code": "3740052", "postal_hyphen": "374-0052", "pref": "群馬県", "city": "館林市", "town": "栄町", "full": "群馬県館林市栄町"}, {"postal_code": "3740069", "postal_hyphen": "374-0069", "pref": "群馬県", "city": "館林市", "town": "坂下町", "full": "群馬県館林市坂下町"}, {"postal_code": "3740071", "postal_hyphen": "374-0071", "pref": "群馬県", "city": "館林市", "town": "下早川田町", "full": "群馬県館林市下早川田町"}, {"postal_code": "3740044", "postal_hyphen": "374-0044", "pref": "群馬県", "city": "館林市", "town": "下三林町", "full": "群馬県館林市下三林町"}, {"postal_code": "3740018", "postal_hyphen": "374-0018", "pref": "群馬県", "city": "館林市", "town": "城町", "full": "群馬県館林市城町"}, {"postal_code": "3740051", "postal_hyphen": "374-0051", "pref": "群馬県", "city": "館林市", "town": "新栄町", "full": "群馬県館林市新栄町"}, {"postal_code": "3740026", "postal_hyphen": "374-0026", "pref": "群馬県", "city": "館林市", "town": "新宿", "full": "群馬県館林市新宿"}, {"postal_code": "3740036", "postal_hyphen": "374-0036", "pref": "群馬県", "city": "館林市", "town": "諏訪町", "full": "群馬県館林市諏訪町"}, {"postal_code": "3740021", "postal_hyphen": "374-0021", "pref": "群馬県", "city": "館林市", "town": "瀬戸谷町", "full": "群馬県館林市瀬戸谷町"}, {"postal_code": "3740064", "postal_hyphen": "374-0064", "pref": "群馬県", "city": "館林市", "town": "代官町", "full": "群馬県館林市代官町"}, {"postal_code": "3740068", "postal_hyphen": "374-0068", "pref": "群馬県", "city": "館林市", "town": "台宿町", "full": "群馬県館林市台宿町"}, {"postal_code": "3740074", "postal_hyphen": "374-0074", "pref": "群馬県", "city": "館林市", "town": "高根町", "full": "群馬県館林市高根町"}, {"postal_code": "3740002", "postal_hyphen": "374-0002", "pref": "群馬県", "city": "館林市", "town": "田谷町", "full": "群馬県館林市田谷町"}, {"postal_code": "3740009", "postal_hyphen": "374-0009", "pref": "群馬県", "city": "館林市", "town": "千塚町", "full": "群馬県館林市千塚町"}, {"postal_code": "3740028", "postal_hyphen": "374-0028", "pref": "群馬県", "city": "館林市", "town": "千代田町", "full": "群馬県館林市千代田町"}, {"postal_code": "3740017", "postal_hyphen": "374-0017", "pref": "群馬県", "city": "館林市", "town": "つつじ町", "full": "群馬県館林市つつじ町"}, {"postal_code": "3740006", "postal_hyphen": "374-0006", "pref": "群馬県", "city": "館林市", "town": "当郷町", "full": "群馬県館林市当郷町"}, {"postal_code": "3740043", "postal_hyphen": "374-0043", "pref": "群馬県", "city": "館林市", "town": "苗木町", "full": "群馬県館林市苗木町"}, {"postal_code": "3740029", "postal_hyphen": "374-0029", "pref": "群馬県", "city": "館林市", "town": "仲町", "full": "群馬県館林市仲町"}, {"postal_code": "3740055", "postal_hyphen": "374-0055", "pref": "群馬県", "city": "館林市", "town": "成島町", "full": "群馬県館林市成島町"}, {"postal_code": "3740075", "postal_hyphen": "374-0075", "pref": "群馬県", "city": "館林市", "town": "西高根町", "full": "群馬県館林市西高根町"}, {"postal_code": "3740065", "postal_hyphen": "374-0065", "pref": "群馬県", "city": "館林市", "town": "西本町", "full": "群馬県館林市西本町"}, {"postal_code": "3740038", "postal_hyphen": "374-0038", "pref": "群馬県", "city": "館林市", "town": "西美園町", "full": "群馬県館林市西美園町"}, {"postal_code": "3740047", "postal_hyphen": "374-0047", "pref": "群馬県", "city": "館林市", "town": "野辺町", "full": "群馬県館林市野辺町"}, {"postal_code": "3740005", "postal_hyphen": "374-0005", "pref": "群馬県", "city": "館林市", "town": "花山町", "full": "群馬県館林市花山町"}, {"postal_code": "3740012", "postal_hyphen": "374-0012", "pref": "群馬県", "city": "館林市", "town": "羽附旭町", "full": "群馬県館林市羽附旭町"}, {"postal_code": "3740011", "postal_hyphen": "374-0011", "pref": "群馬県", "city": "館林市", "town": "羽附町", "full": "群馬県館林市羽附町"}, {"postal_code": "3740061", "postal_hyphen": "374-0061", "pref": "群馬県", "city": "館林市", "town": "東広内町", "full": "群馬県館林市東広内町"}, {"postal_code": "3740031", "postal_hyphen": "374-0031", "pref": "群馬県", "city": "館林市", "town": "東美園町", "full": "群馬県館林市東美園町"}, {"postal_code": "3740076", "postal_hyphen": "374-0076", "pref": "群馬県", "city": "館林市", "town": "日向町", "full": "群馬県館林市日向町"}, {"postal_code": "3740062", "postal_hyphen": "374-0062", "pref": "群馬県", "city": "館林市", "town": "広内町", "full": "群馬県館林市広内町"}, {"postal_code": "3740041", "postal_hyphen": "374-0041", "pref": "群馬県", "city": "館林市", "town": "富士原町", "full": "群馬県館林市富士原町"}, {"postal_code": "3740027", "postal_hyphen": "374-0027", "pref": "群馬県", "city": "館林市", "town": "富士見町", "full": "群馬県館林市富士見町"}, {"postal_code": "3740034", "postal_hyphen": "374-0034", "pref": "群馬県", "city": "館林市", "town": "分福町", "full": "群馬県館林市分福町"}, {"postal_code": "3740078", "postal_hyphen": "374-0078", "pref": "群馬県", "city": "館林市", "town": "傍示塚町", "full": "群馬県館林市傍示塚町"}, {"postal_code": "3740008", "postal_hyphen": "374-0008", "pref": "群馬県", "city": "館林市", "town": "細内町", "full": "群馬県館林市細内町"}, {"postal_code": "3740033", "postal_hyphen": "374-0033", "pref": "群馬県", "city": "館林市", "town": "堀工町", "full": "群馬県館林市堀工町"}, {"postal_code": "3740024", "postal_hyphen": "374-0024", "pref": "群馬県", "city": "館林市", "town": "本町", "full": "群馬県館林市本町"}, {"postal_code": "3740056", "postal_hyphen": "374-0056", "pref": "群馬県", "city": "館林市", "town": "松沼町", "full": "群馬県館林市松沼町"}, {"postal_code": "3740016", "postal_hyphen": "374-0016", "pref": "群馬県", "city": "館林市", "town": "松原", "full": "群馬県館林市松原"}, {"postal_code": "3740039", "postal_hyphen": "374-0039", "pref": "群馬県", "city": "館林市", "town": "美園町", "full": "群馬県館林市美園町"}, {"postal_code": "3740025", "postal_hyphen": "374-0025", "pref": "群馬県", "city": "館林市", "town": "緑町", "full": "群馬県館林市緑町"}, {"postal_code": "3740032", "postal_hyphen": "374-0032", "pref": "群馬県", "city": "館林市", "town": "南美園町", "full": "群馬県館林市南美園町"}, {"postal_code": "3740003", "postal_hyphen": "374-0003", "pref": "群馬県", "city": "館林市", "town": "四ツ谷町", "full": "群馬県館林市四ツ谷町"}, {"postal_code": "3740007", "postal_hyphen": "374-0007", "pref": "群馬県", "city": "館林市", "town": "若宮町", "full": "群馬県館林市若宮町"}, {"postal_code": "3770000", "postal_hyphen": "377-0000", "pref": "群馬県", "city": "渋川市", "town": "", "full": "群馬県渋川市"}, {"postal_code": "3791122", "postal_hyphen": "379-1122", "pref": "群馬県", "city": "渋川市", "town": "赤城町勝保沢", "full": "群馬県渋川市赤城町勝保沢"}, {"postal_code": "3791125", "postal_hyphen": "379-1125", "pref": "群馬県", "city": "渋川市", "town": "赤城町上三原田", "full": "群馬県渋川市赤城町上三原田"}, {"postal_code": "3791111", "postal_hyphen": "379-1111", "pref": "群馬県", "city": "渋川市", "town": "赤城町北赤城山", "full": "群馬県渋川市赤城町北赤城山"}, {"postal_code": "3791105", "postal_hyphen": "379-1105", "pref": "群馬県", "city": "渋川市", "town": "赤城町北上野", "full": "群馬県渋川市赤城町北上野"}, {"postal_code": "3791114", "postal_hyphen": "379-1114", "pref": "群馬県", "city": "渋川市", "town": "赤城町栄", "full": "群馬県渋川市赤城町栄"}, {"postal_code": "3791104", "postal_hyphen": "379-1104", "pref": "群馬県", "city": "渋川市", "town": "赤城町敷島", "full": "群馬県渋川市赤城町敷島"}, {"postal_code": "3791124", "postal_hyphen": "379-1124", "pref": "群馬県", "city": "渋川市", "town": "赤城町滝沢", "full": "群馬県渋川市赤城町滝沢"}, {"postal_code": "3791101", "postal_hyphen": "379-1101", "pref": "群馬県", "city": "渋川市", "town": "赤城町棚下", "full": "群馬県渋川市赤城町棚下"}, {"postal_code": "3791127", "postal_hyphen": "379-1127", "pref": "群馬県", "city": "渋川市", "town": "赤城町樽", "full": "群馬県渋川市赤城町樽"}, {"postal_code": "3791103", "postal_hyphen": "379-1103", "pref": "群馬県", "city": "渋川市", "town": "赤城町津久田", "full": "群馬県渋川市赤城町津久田"}, {"postal_code": "3791102", "postal_hyphen": "379-1102", "pref": "群馬県", "city": "渋川市", "town": "赤城町長井小川田", "full": "群馬県渋川市赤城町長井小川田"}, {"postal_code": "3791115", "postal_hyphen": "379-1115", "pref": "群馬県", "city": "渋川市", "town": "赤城町溝呂木", "full": "群馬県渋川市赤城町溝呂木"}, {"postal_code": "3791123", "postal_hyphen": "379-1123", "pref": "群馬県", "city": "渋川市", "town": "赤城町見立", "full": "群馬県渋川市赤城町見立"}, {"postal_code": "3791113", "postal_hyphen": "379-1113", "pref": "群馬県", "city": "渋川市", "town": "赤城町南赤城山", "full": "群馬県渋川市赤城町南赤城山"}, {"postal_code": "3791126", "postal_hyphen": "379-1126", "pref": "群馬県", "city": "渋川市", "town": "赤城町三原田", "full": "群馬県渋川市赤城町三原田"}, {"postal_code": "3791121", "postal_hyphen": "379-1121", "pref": "群馬県", "city": "渋川市", "town": "赤城町宮田", "full": "群馬県渋川市赤城町宮田"}, {"postal_code": "3791112", "postal_hyphen": "379-1112", "pref": "群馬県", "city": "渋川市", "town": "赤城町深山", "full": "群馬県渋川市赤城町深山"}, {"postal_code": "3791116", "postal_hyphen": "379-1116", "pref": "群馬県", "city": "渋川市", "town": "赤城町持柏木", "full": "群馬県渋川市赤城町持柏木"}, {"postal_code": "3770031", "postal_hyphen": "377-0031", "pref": "群馬県", "city": "渋川市", "town": "阿久津", "full": "群馬県渋川市阿久津"}, {"postal_code": "3770005", "postal_hyphen": "377-0005", "pref": "群馬県", "city": "渋川市", "town": "有馬", "full": "群馬県渋川市有馬"}, {"postal_code": "3770102", "postal_hyphen": "377-0102", "pref": "群馬県", "city": "渋川市", "town": "伊香保町伊香保", "full": "群馬県渋川市伊香保町伊香保"}, {"postal_code": "3770103", "postal_hyphen": "377-0103", "pref": "群馬県", "city": "渋川市", "town": "伊香保町水沢", "full": "群馬県渋川市伊香保町水沢"}, {"postal_code": "3770101", "postal_hyphen": "377-0101", "pref": "群馬県", "city": "渋川市", "town": "伊香保町湯中子", "full": "群馬県渋川市伊香保町湯中子"}, {"postal_code": "3770007", "postal_hyphen": "377-0007", "pref": "群馬県", "city": "渋川市", "town": "石原", "full": "群馬県渋川市石原"}, {"postal_code": "3770024", "postal_hyphen": "377-0024", "pref": "群馬県", "city": "渋川市", "town": "祖母島", "full": "群馬県渋川市祖母島"}, {"postal_code": "3770312", "postal_hyphen": "377-0312", "pref": "群馬県", "city": "渋川市", "town": "小野子", "full": "群馬県渋川市小野子"}, {"postal_code": "3770027", "postal_hyphen": "377-0027", "pref": "群馬県", "city": "渋川市", "town": "金井", "full": "群馬県渋川市金井"}, {"postal_code": "3770201", "postal_hyphen": "377-0201", "pref": "群馬県", "city": "渋川市", "town": "上白井", "full": "群馬県渋川市上白井"}, {"postal_code": "3770025", "postal_hyphen": "377-0025", "pref": "群馬県", "city": "渋川市", "town": "川島", "full": "群馬県渋川市川島"}, {"postal_code": "3770205", "postal_hyphen": "377-0205", "pref": "群馬県", "city": "渋川市", "town": "北牧", "full": "群馬県渋川市北牧"}, {"postal_code": "3770008", "postal_hyphen": "377-0008", "pref": "群馬県", "city": "渋川市", "town": "渋川", "full": "群馬県渋川市渋川"}, {"postal_code": "3770204", "postal_hyphen": "377-0204", "pref": "群馬県", "city": "渋川市", "town": "白井", "full": "群馬県渋川市白井"}, {"postal_code": "3770202", "postal_hyphen": "377-0202", "pref": "群馬県", "city": "渋川市", "town": "中郷", "full": "群馬県渋川市中郷"}, {"postal_code": "3770002", "postal_hyphen": "377-0002", "pref": "群馬県", "city": "渋川市", "town": "中村", "full": "群馬県渋川市中村"}, {"postal_code": "3770026", "postal_hyphen": "377-0026", "pref": "群馬県", "city": "渋川市", "town": "南牧", "full": "群馬県渋川市南牧"}, {"postal_code": "3770004", "postal_hyphen": "377-0004", "pref": "群馬県", "city": "渋川市", "town": "半田", "full": "群馬県渋川市半田"}, {"postal_code": "3770203", "postal_hyphen": "377-0203", "pref": "群馬県", "city": "渋川市", "town": "吹屋", "full": "群馬県渋川市吹屋"}, {"postal_code": "3770051", "postal_hyphen": "377-0051", "pref": "群馬県", "city": "渋川市", "town": "北橘町赤城山", "full": "群馬県渋川市北橘町赤城山"}, {"postal_code": "3770055", "postal_hyphen": "377-0055", "pref": "群馬県", "city": "渋川市", "town": "北橘町上南室", "full": "群馬県渋川市北橘町上南室"}, {"postal_code": "3770052", "postal_hyphen": "377-0052", "pref": "群馬県", "city": "渋川市", "town": "北橘町上箱田", "full": "群馬県渋川市北橘町上箱田"}, {"postal_code": "3770065", "postal_hyphen": "377-0065", "pref": "群馬県", "city": "渋川市", "town": "北橘町小室", "full": "群馬県渋川市北橘町小室"}, {"postal_code": "3770054", "postal_hyphen": "377-0054", "pref": "群馬県", "city": "渋川市", "town": "北橘町下南室", "full": "群馬県渋川市北橘町下南室"}, {"postal_code": "3770061", "postal_hyphen": "377-0061", "pref": "群馬県", "city": "渋川市", "town": "北橘町下箱田", "full": "群馬県渋川市北橘町下箱田"}, {"postal_code": "3770053", "postal_hyphen": "377-0053", "pref": "群馬県", "city": "渋川市", "town": "北橘町箱田", "full": "群馬県渋川市北橘町箱田"}, {"postal_code": "3770064", "postal_hyphen": "377-0064", "pref": "群馬県", "city": "渋川市", "town": "北橘町八崎", "full": "群馬県渋川市北橘町八崎"}, {"postal_code": "3770063", "postal_hyphen": "377-0063", "pref": "群馬県", "city": "渋川市", "town": "北橘町分郷八崎", "full": "群馬県渋川市北橘町分郷八崎"}, {"postal_code": "3770062", "postal_hyphen": "377-0062", "pref": "群馬県", "city": "渋川市", "town": "北橘町真壁", "full": "群馬県渋川市北橘町真壁"}, {"postal_code": "3770006", "postal_hyphen": "377-0006", "pref": "群馬県", "city": "渋川市", "town": "行幸田", "full": "群馬県渋川市行幸田"}, {"postal_code": "3770311", "postal_hyphen": "377-0311", "pref": "群馬県", "city": "渋川市", "town": "村上", "full": "群馬県渋川市村上"}, {"postal_code": "3770003", "postal_hyphen": "377-0003", "pref": "群馬県", "city": "渋川市", "town": "八木原", "full": "群馬県渋川市八木原"}, {"postal_code": "3770206", "postal_hyphen": "377-0206", "pref": "群馬県", "city": "渋川市", "town": "横堀", "full": "群馬県渋川市横堀"}, {"postal_code": "3750000", "postal_hyphen": "375-0000", "pref": "群馬県", "city": "藤岡市", "town": "", "full": "群馬県藤岡市"}, {"postal_code": "3750042", "postal_hyphen": "375-0042", "pref": "群馬県", "city": "藤岡市", "town": "鮎川", "full": "群馬県藤岡市鮎川"}, {"postal_code": "3750034", "postal_hyphen": "375-0034", "pref": "群馬県", "city": "藤岡市", "town": "牛田", "full": "群馬県藤岡市牛田"}, {"postal_code": "3750011", "postal_hyphen": "375-0011", "pref": "群馬県", "city": "藤岡市", "town": "岡之郷", "full": "群馬県藤岡市岡之郷"}, {"postal_code": "3701401", "postal_hyphen": "370-1401", "pref": "群馬県", "city": "藤岡市", "town": "鬼石", "full": "群馬県藤岡市鬼石"}, {"postal_code": "3750045", "postal_hyphen": "375-0045", "pref": "群馬県", "city": "藤岡市", "town": "金井", "full": "群馬県藤岡市金井"}, {"postal_code": "3750054", "postal_hyphen": "375-0054", "pref": "群馬県", "city": "藤岡市", "town": "上大塚", "full": "群馬県藤岡市上大塚"}, {"postal_code": "3750057", "postal_hyphen": "375-0057", "pref": "群馬県", "city": "藤岡市", "town": "上落合", "full": "群馬県藤岡市上落合"}, {"postal_code": "3750016", "postal_hyphen": "375-0016", "pref": "群馬県", "city": "藤岡市", "town": "上栗須", "full": "群馬県藤岡市上栗須"}, {"postal_code": "3750013", "postal_hyphen": "375-0013", "pref": "群馬県", "city": "藤岡市", "town": "上戸塚", "full": "群馬県藤岡市上戸塚"}, {"postal_code": "3750047", "postal_hyphen": "375-0047", "pref": "群馬県", "city": "藤岡市", "town": "上日野", "full": "群馬県藤岡市上日野"}, {"postal_code": "3750033", "postal_hyphen": "375-0033", "pref": "群馬県", "city": "藤岡市", "town": "川除", "full": "群馬県藤岡市川除"}, {"postal_code": "3750021", "postal_hyphen": "375-0021", "pref": "群馬県", "city": "藤岡市", "town": "小林", "full": "群馬県藤岡市小林"}, {"postal_code": "3701404", "postal_hyphen": "370-1404", "pref": "群馬県", "city": "藤岡市", "town": "坂原", "full": "群馬県藤岡市坂原"}, {"postal_code": "3701405", "postal_hyphen": "370-1405", "pref": "群馬県", "city": "藤岡市", "town": "三波川", "full": "群馬県藤岡市三波川"}, {"postal_code": "3750037", "postal_hyphen": "375-0037", "pref": "群馬県", "city": "藤岡市", "town": "三本木", "full": "群馬県藤岡市三本木"}, {"postal_code": "3750017", "postal_hyphen": "375-0017", "pref": "群馬県", "city": "藤岡市", "town": "篠塚", "full": "群馬県藤岡市篠塚"}, {"postal_code": "3750052", "postal_hyphen": "375-0052", "pref": "群馬県", "city": "藤岡市", "town": "下大塚", "full": "群馬県藤岡市下大塚"}, {"postal_code": "3750014", "postal_hyphen": "375-0014", "pref": "群馬県", "city": "藤岡市", "town": "下栗須", "full": "群馬県藤岡市下栗須"}, {"postal_code": "3750012", "postal_hyphen": "375-0012", "pref": "群馬県", "city": "藤岡市", "town": "下戸塚", "full": "群馬県藤岡市下戸塚"}, {"postal_code": "3750046", "postal_hyphen": "375-0046", "pref": "群馬県", "city": "藤岡市", "town": "下日野", "full": "群馬県藤岡市下日野"}, {"postal_code": "3701406", "postal_hyphen": "370-1406", "pref": "群馬県", "city": "藤岡市", "town": "浄法寺", "full": "群馬県藤岡市浄法寺"}, {"postal_code": "3750055", "postal_hyphen": "375-0055", "pref": "群馬県", "city": "藤岡市", "town": "白石", "full": "群馬県藤岡市白石"}, {"postal_code": "3750032", "postal_hyphen": "375-0032", "pref": "群馬県", "city": "藤岡市", "town": "神田", "full": "群馬県藤岡市神田"}, {"postal_code": "3750036", "postal_hyphen": "375-0036", "pref": "群馬県", "city": "藤岡市", "town": "高山", "full": "群馬県藤岡市高山"}, {"postal_code": "3750002", "postal_hyphen": "375-0002", "pref": "群馬県", "city": "藤岡市", "town": "立石", "full": "群馬県藤岡市立石"}, {"postal_code": "3750003", "postal_hyphen": "375-0003", "pref": "群馬県", "city": "藤岡市", "town": "立石新田", "full": "群馬県藤岡市立石新田"}, {"postal_code": "3750005", "postal_hyphen": "375-0005", "pref": "群馬県", "city": "藤岡市", "town": "中", "full": "群馬県藤岡市中"}, {"postal_code": "3750053", "postal_hyphen": "375-0053", "pref": "群馬県", "city": "藤岡市", "town": "中大塚", "full": "群馬県藤岡市中大塚"}, {"postal_code": "3750015", "postal_hyphen": "375-0015", "pref": "群馬県", "city": "藤岡市", "town": "中栗須", "full": "群馬県藤岡市中栗須"}, {"postal_code": "3750001", "postal_hyphen": "375-0001", "pref": "群馬県", "city": "藤岡市", "town": "中島", "full": "群馬県藤岡市中島"}, {"postal_code": "3750044", "postal_hyphen": "375-0044", "pref": "群馬県", "city": "藤岡市", "town": "西平井", "full": "群馬県藤岡市西平井"}, {"postal_code": "3750022", "postal_hyphen": "375-0022", "pref": "群馬県", "city": "藤岡市", "town": "根岸", "full": "群馬県藤岡市根岸"}, {"postal_code": "3750043", "postal_hyphen": "375-0043", "pref": "群馬県", "city": "藤岡市", "town": "東平井", "full": "群馬県藤岡市東平井"}, {"postal_code": "3750024", "postal_hyphen": "375-0024", "pref": "群馬県", "city": "藤岡市", "town": "藤岡", "full": "群馬県藤岡市藤岡"}, {"postal_code": "3750035", "postal_hyphen": "375-0035", "pref": "群馬県", "city": "藤岡市", "town": "保美", "full": "群馬県藤岡市保美"}, {"postal_code": "3701403", "postal_hyphen": "370-1403", "pref": "群馬県", "city": "藤岡市", "town": "保美濃山", "full": "群馬県藤岡市保美濃山"}, {"postal_code": "3750023", "postal_hyphen": "375-0023", "pref": "群馬県", "city": "藤岡市", "town": "本郷", "full": "群馬県藤岡市本郷"}, {"postal_code": "3750056", "postal_hyphen": "375-0056", "pref": "群馬県", "city": "藤岡市", "town": "三ツ木", "full": "群馬県藤岡市三ツ木"}, {"postal_code": "3750041", "postal_hyphen": "375-0041", "pref": "群馬県", "city": "藤岡市", "town": "緑埜", "full": "群馬県藤岡市緑埜"}, {"postal_code": "3750051", "postal_hyphen": "375-0051", "pref": "群馬県", "city": "藤岡市", "town": "本動堂", "full": "群馬県藤岡市本動堂"}, {"postal_code": "3750004", "postal_hyphen": "375-0004", "pref": "群馬県", "city": "藤岡市", "town": "森", "full": "群馬県藤岡市森"}, {"postal_code": "3750006", "postal_hyphen": "375-0006", "pref": "群馬県", "city": "藤岡市", "town": "森新田", "full": "群馬県藤岡市森新田"}, {"postal_code": "3750031", "postal_hyphen": "375-0031", "pref": "群馬県", "city": "藤岡市", "town": "矢場", "full": "群馬県藤岡市矢場"}, {"postal_code": "3701402", "postal_hyphen": "370-1402", "pref": "群馬県", "city": "藤岡市", "town": "譲原", "full": "群馬県藤岡市譲原"}, {"postal_code": "3702300", "postal_hyphen": "370-2300", "pref": "群馬県", "city": "富岡市", "town": "", "full": "群馬県富岡市"}, {"postal_code": "3702306", "postal_hyphen": "370-2306", "pref": "群馬県", "city": "富岡市", "town": "相野田", "full": "群馬県富岡市相野田"}, {"postal_code": "3702452", "postal_hyphen": "370-2452", "pref": "群馬県", "city": "富岡市", "town": "一ノ宮", "full": "群馬県富岡市一ノ宮"}, {"postal_code": "3702322", "postal_hyphen": "370-2322", "pref": "群馬県", "city": "富岡市", "town": "岩染", "full": "群馬県富岡市岩染"}, {"postal_code": "3702451", "postal_hyphen": "370-2451", "pref": "群馬県", "city": "富岡市", "town": "宇田", "full": "群馬県富岡市宇田"}, {"postal_code": "3702335", "postal_hyphen": "370-2335", "pref": "群馬県", "city": "富岡市", "town": "大島", "full": "群馬県富岡市大島"}, {"postal_code": "3702321", "postal_hyphen": "370-2321", "pref": "群馬県", "city": "富岡市", "town": "岡本", "full": "群馬県富岡市岡本"}, {"postal_code": "3702466", "postal_hyphen": "370-2466", "pref": "群馬県", "city": "富岡市", "town": "蚊沼", "full": "群馬県富岡市蚊沼"}, {"postal_code": "3702455", "postal_hyphen": "370-2455", "pref": "群馬県", "city": "富岡市", "town": "神農原", "full": "群馬県富岡市神農原"}, {"postal_code": "3702345", "postal_hyphen": "370-2345", "pref": "群馬県", "city": "富岡市", "town": "上黒岩", "full": "群馬県富岡市上黒岩"}, {"postal_code": "3702456", "postal_hyphen": "370-2456", "pref": "群馬県", "city": "富岡市", "town": "上小林", "full": "群馬県富岡市上小林"}, {"postal_code": "3702317", "postal_hyphen": "370-2317", "pref": "群馬県", "city": "富岡市", "town": "上高尾", "full": "群馬県富岡市上高尾"}, {"postal_code": "3702334", "postal_hyphen": "370-2334", "pref": "群馬県", "city": "富岡市", "town": "上高瀬", "full": "群馬県富岡市上高瀬"}, {"postal_code": "3702461", "postal_hyphen": "370-2461", "pref": "群馬県", "city": "富岡市", "town": "上丹生", "full": "群馬県富岡市上丹生"}, {"postal_code": "3702463", "postal_hyphen": "370-2463", "pref": "群馬県", "city": "富岡市", "town": "神成", "full": "群馬県富岡市神成"}, {"postal_code": "3702313", "postal_hyphen": "370-2313", "pref": "群馬県", "city": "富岡市", "town": "君川", "full": "群馬県富岡市君川"}, {"postal_code": "3702344", "postal_hyphen": "370-2344", "pref": "群馬県", "city": "富岡市", "town": "黒川", "full": "群馬県富岡市黒川"}, {"postal_code": "3702301", "postal_hyphen": "370-2301", "pref": "群馬県", "city": "富岡市", "town": "桑原", "full": "群馬県富岡市桑原"}, {"postal_code": "3702304", "postal_hyphen": "370-2304", "pref": "群馬県", "city": "富岡市", "town": "後賀", "full": "群馬県富岡市後賀"}, {"postal_code": "3702302", "postal_hyphen": "370-2302", "pref": "群馬県", "city": "富岡市", "town": "小桑原", "full": "群馬県富岡市小桑原"}, {"postal_code": "3702341", "postal_hyphen": "370-2341", "pref": "群馬県", "city": "富岡市", "town": "下黒岩", "full": "群馬県富岡市下黒岩"}, {"postal_code": "3702311", "postal_hyphen": "370-2311", "pref": "群馬県", "city": "富岡市", "town": "下高尾", "full": "群馬県富岡市下高尾"}, {"postal_code": "3702332", "postal_hyphen": "370-2332", "pref": "群馬県", "city": "富岡市", "town": "下高瀬", "full": "群馬県富岡市下高瀬"}, {"postal_code": "3702462", "postal_hyphen": "370-2462", "pref": "群馬県", "city": "富岡市", "town": "下丹生", "full": "群馬県富岡市下丹生"}, {"postal_code": "3702305", "postal_hyphen": "370-2305", "pref": "群馬県", "city": "富岡市", "town": "白岩", "full": "群馬県富岡市白岩"}, {"postal_code": "3702315", "postal_hyphen": "370-2315", "pref": "群馬県", "city": "富岡市", "town": "曽木", "full": "群馬県富岡市曽木"}, {"postal_code": "3702331", "postal_hyphen": "370-2331", "pref": "群馬県", "city": "富岡市", "town": "内匠", "full": "群馬県富岡市内匠"}, {"postal_code": "3702314", "postal_hyphen": "370-2314", "pref": "群馬県", "city": "富岡市", "town": "田篠", "full": "群馬県富岡市田篠"}, {"postal_code": "3702454", "postal_hyphen": "370-2454", "pref": "群馬県", "city": "富岡市", "town": "田島", "full": "群馬県富岡市田島"}, {"postal_code": "3702316", "postal_hyphen": "370-2316", "pref": "群馬県", "city": "富岡市", "town": "富岡", "full": "群馬県富岡市富岡"}, {"postal_code": "3702465", "postal_hyphen": "370-2465", "pref": "群馬県", "city": "富岡市", "town": "中沢", "full": "群馬県富岡市中沢"}, {"postal_code": "3702333", "postal_hyphen": "370-2333", "pref": "群馬県", "city": "富岡市", "town": "中高瀬", "full": "群馬県富岡市中高瀬"}, {"postal_code": "3702343", "postal_hyphen": "370-2343", "pref": "群馬県", "city": "富岡市", "town": "七日市", "full": "群馬県富岡市七日市"}, {"postal_code": "3702464", "postal_hyphen": "370-2464", "pref": "群馬県", "city": "富岡市", "town": "南蛇井", "full": "群馬県富岡市南蛇井"}, {"postal_code": "3702323", "postal_hyphen": "370-2323", "pref": "群馬県", "city": "富岡市", "town": "野上", "full": "群馬県富岡市野上"}, {"postal_code": "3702467", "postal_hyphen": "370-2467", "pref": "群馬県", "city": "富岡市", "town": "原", "full": "群馬県富岡市原"}, {"postal_code": "3702307", "postal_hyphen": "370-2307", "pref": "群馬県", "city": "富岡市", "town": "藤木", "full": "群馬県富岡市藤木"}, {"postal_code": "3702342", "postal_hyphen": "370-2342", "pref": "群馬県", "city": "富岡市", "town": "別保", "full": "群馬県富岡市別保"}, {"postal_code": "3702312", "postal_hyphen": "370-2312", "pref": "群馬県", "city": "富岡市", "town": "星田", "full": "群馬県富岡市星田"}, {"postal_code": "3702324", "postal_hyphen": "370-2324", "pref": "群馬県", "city": "富岡市", "town": "南後箇", "full": "群馬県富岡市南後箇"}, {"postal_code": "3702453", "postal_hyphen": "370-2453", "pref": "群馬県", "city": "富岡市", "town": "宮崎", "full": "群馬県富岡市宮崎"}, {"postal_code": "3790202", "postal_hyphen": "379-0202", "pref": "群馬県", "city": "富岡市", "town": "妙義町大牛", "full": "群馬県富岡市妙義町大牛"}, {"postal_code": "3702411", "postal_hyphen": "370-2411", "pref": "群馬県", "city": "富岡市", "town": "妙義町上高田", "full": "群馬県富岡市妙義町上高田"}, {"postal_code": "3790205", "postal_hyphen": "379-0205", "pref": "群馬県", "city": "富岡市", "town": "妙義町北山", "full": "群馬県富岡市妙義町北山"}, {"postal_code": "3702412", "postal_hyphen": "370-2412", "pref": "群馬県", "city": "富岡市", "town": "妙義町下高田", "full": "群馬県富岡市妙義町下高田"}, {"postal_code": "3790208", "postal_hyphen": "379-0208", "pref": "群馬県", "city": "富岡市", "town": "妙義町菅原", "full": "群馬県富岡市妙義町菅原"}, {"postal_code": "3790203", "postal_hyphen": "379-0203", "pref": "群馬県", "city": "富岡市", "town": "妙義町岳", "full": "群馬県富岡市妙義町岳"}, {"postal_code": "3790206", "postal_hyphen": "379-0206", "pref": "群馬県", "city": "富岡市", "town": "妙義町中里", "full": "群馬県富岡市妙義町中里"}, {"postal_code": "3790204", "postal_hyphen": "379-0204", "pref": "群馬県", "city": "富岡市", "town": "妙義町行沢", "full": "群馬県富岡市妙義町行沢"}, {"postal_code": "3790207", "postal_hyphen": "379-0207", "pref": "群馬県", "city": "富岡市", "town": "妙義町古立", "full": "群馬県富岡市妙義町古立"}, {"postal_code": "3790201", "postal_hyphen": "379-0201", "pref": "群馬県", "city": "富岡市", "town": "妙義町妙義", "full": "群馬県富岡市妙義町妙義"}, {"postal_code": "3790209", "postal_hyphen": "379-0209", "pref": "群馬県", "city": "富岡市", "town": "妙義町諸戸", "full": "群馬県富岡市妙義町諸戸"}, {"postal_code": "3702413", "postal_hyphen": "370-2413", "pref": "群馬県", "city": "富岡市", "town": "妙義町八木連", "full": "群馬県富岡市妙義町八木連"}, {"postal_code": "3702303", "postal_hyphen": "370-2303", "pref": "群馬県", "city": "富岡市", "town": "蕨", "full": "群馬県富岡市蕨"}, {"postal_code": "3790100", "postal_hyphen": "379-0100", "pref": "群馬県", "city": "安中市", "town": "", "full": "群馬県安中市"}, {"postal_code": "3790109", "postal_hyphen": "379-0109", "pref": "群馬県", "city": "安中市", "town": "秋間みのりが丘", "full": "群馬県安中市秋間みのりが丘"}, {"postal_code": "3790116", "postal_hyphen": "379-0116", "pref": "群馬県", "city": "安中市", "town": "安中", "full": "群馬県安中市安中"}, {"postal_code": "3790127", "postal_hyphen": "379-0127", "pref": "群馬県", "city": "安中市", "town": "磯部", "full": "群馬県安中市磯部"}, {"postal_code": "3790111", "postal_hyphen": "379-0111", "pref": "群馬県", "city": "安中市", "town": "板鼻", "full": "群馬県安中市板鼻"}, {"postal_code": "3790112", "postal_hyphen": "379-0112", "pref": "群馬県", "city": "安中市", "town": "岩井", "full": "群馬県安中市岩井"}, {"postal_code": "3790121", "postal_hyphen": "379-0121", "pref": "群馬県", "city": "安中市", "town": "大竹", "full": "群馬県安中市大竹"}, {"postal_code": "3790113", "postal_hyphen": "379-0113", "pref": "群馬県", "city": "安中市", "town": "大谷", "full": "群馬県安中市大谷"}, {"postal_code": "3790105", "postal_hyphen": "379-0105", "pref": "群馬県", "city": "安中市", "town": "小俣", "full": "群馬県安中市小俣"}, {"postal_code": "3790108", "postal_hyphen": "379-0108", "pref": "群馬県", "city": "安中市", "town": "上後閑", "full": "群馬県安中市上後閑"}, {"postal_code": "3790123", "postal_hyphen": "379-0123", "pref": "群馬県", "city": "安中市", "town": "上間仁田", "full": "群馬県安中市上間仁田"}, {"postal_code": "3790135", "postal_hyphen": "379-0135", "pref": "群馬県", "city": "安中市", "town": "郷原", "full": "群馬県安中市郷原"}, {"postal_code": "3790132", "postal_hyphen": "379-0132", "pref": "群馬県", "city": "安中市", "town": "高別当", "full": "群馬県安中市高別当"}, {"postal_code": "3790124", "postal_hyphen": "379-0124", "pref": "群馬県", "city": "安中市", "town": "鷺宮", "full": "群馬県安中市鷺宮"}, {"postal_code": "3790104", "postal_hyphen": "379-0104", "pref": "群馬県", "city": "安中市", "town": "下秋間", "full": "群馬県安中市下秋間"}, {"postal_code": "3790129", "postal_hyphen": "379-0129", "pref": "群馬県", "city": "安中市", "town": "下磯部", "full": "群馬県安中市下磯部"}, {"postal_code": "3790106", "postal_hyphen": "379-0106", "pref": "群馬県", "city": "安中市", "town": "下後閑", "full": "群馬県安中市下後閑"}, {"postal_code": "3790122", "postal_hyphen": "379-0122", "pref": "群馬県", "city": "安中市", "town": "下間仁田", "full": "群馬県安中市下間仁田"}, {"postal_code": "3790103", "postal_hyphen": "379-0103", "pref": "群馬県", "city": "安中市", "town": "中秋間", "full": "群馬県安中市中秋間"}, {"postal_code": "3790107", "postal_hyphen": "379-0107", "pref": "群馬県", "city": "安中市", "town": "中後閑", "full": "群馬県安中市中後閑"}, {"postal_code": "3790115", "postal_hyphen": "379-0115", "pref": "群馬県", "city": "安中市", "town": "中宿", "full": "群馬県安中市中宿"}, {"postal_code": "3790125", "postal_hyphen": "379-0125", "pref": "群馬県", "city": "安中市", "town": "中野谷", "full": "群馬県安中市中野谷"}, {"postal_code": "3790101", "postal_hyphen": "379-0101", "pref": "群馬県", "city": "安中市", "town": "西上秋間", "full": "群馬県安中市西上秋間"}, {"postal_code": "3790126", "postal_hyphen": "379-0126", "pref": "群馬県", "city": "安中市", "town": "西上磯部", "full": "群馬県安中市西上磯部"}, {"postal_code": "3790114", "postal_hyphen": "379-0114", "pref": "群馬県", "city": "安中市", "town": "野殿", "full": "群馬県安中市野殿"}, {"postal_code": "3790133", "postal_hyphen": "379-0133", "pref": "群馬県", "city": "安中市", "town": "原市", "full": "群馬県安中市原市"}, {"postal_code": "3790102", "postal_hyphen": "379-0102", "pref": "群馬県", "city": "安中市", "town": "東上秋間", "full": "群馬県安中市東上秋間"}, {"postal_code": "3790128", "postal_hyphen": "379-0128", "pref": "群馬県", "city": "安中市", "town": "東上磯部", "full": "群馬県安中市東上磯部"}, {"postal_code": "3790131", "postal_hyphen": "379-0131", "pref": "群馬県", "city": "安中市", "town": "古屋", "full": "群馬県安中市古屋"}, {"postal_code": "3790216", "postal_hyphen": "379-0216", "pref": "群馬県", "city": "安中市", "town": "松井田町新井", "full": "群馬県安中市松井田町新井"}, {"postal_code": "3790305", "postal_hyphen": "379-0305", "pref": "群馬県", "city": "安中市", "town": "松井田町入山", "full": "群馬県安中市松井田町入山"}, {"postal_code": "3790226", "postal_hyphen": "379-0226", "pref": "群馬県", "city": "安中市", "town": "松井田町行田", "full": "群馬県安中市松井田町行田"}, {"postal_code": "3790213", "postal_hyphen": "379-0213", "pref": "群馬県", "city": "安中市", "town": "松井田町小日向", "full": "群馬県安中市松井田町小日向"}, {"postal_code": "3790211", "postal_hyphen": "379-0211", "pref": "群馬県", "city": "安中市", "town": "松井田町上増田", "full": "群馬県安中市松井田町上増田"}, {"postal_code": "3790304", "postal_hyphen": "379-0304", "pref": "群馬県", "city": "安中市", "town": "松井田町北野牧", "full": "群馬県安中市松井田町北野牧"}, {"postal_code": "3790214", "postal_hyphen": "379-0214", "pref": "群馬県", "city": "安中市", "town": "松井田町国衙", "full": "群馬県安中市松井田町国衙"}, {"postal_code": "3790302", "postal_hyphen": "379-0302", "pref": "群馬県", "city": "安中市", "town": "松井田町五料", "full": "群馬県安中市松井田町五料"}, {"postal_code": "3790307", "postal_hyphen": "379-0307", "pref": "群馬県", "city": "安中市", "town": "松井田町坂本", "full": "群馬県安中市松井田町坂本"}, {"postal_code": "3790212", "postal_hyphen": "379-0212", "pref": "群馬県", "city": "安中市", "town": "松井田町下増田", "full": "群馬県安中市松井田町下増田"}, {"postal_code": "3790215", "postal_hyphen": "379-0215", "pref": "群馬県", "city": "安中市", "town": "松井田町高梨子", "full": "群馬県安中市松井田町高梨子"}, {"postal_code": "3890121", "postal_hyphen": "389-0121", "pref": "群馬県", "city": "安中市", "town": "松井田町峠", "full": "群馬県安中市松井田町峠"}, {"postal_code": "3790221", "postal_hyphen": "379-0221", "pref": "群馬県", "city": "安中市", "town": "松井田町新堀", "full": "群馬県安中市松井田町新堀"}, {"postal_code": "3790223", "postal_hyphen": "379-0223", "pref": "群馬県", "city": "安中市", "town": "松井田町二軒在家", "full": "群馬県安中市松井田町二軒在家"}, {"postal_code": "3790303", "postal_hyphen": "379-0303", "pref": "群馬県", "city": "安中市", "town": "松井田町西野牧", "full": "群馬県安中市松井田町西野牧"}, {"postal_code": "3790306", "postal_hyphen": "379-0306", "pref": "群馬県", "city": "安中市", "town": "松井田町原", "full": "群馬県安中市松井田町原"}, {"postal_code": "3790217", "postal_hyphen": "379-0217", "pref": "群馬県", "city": "安中市", "town": "松井田町土塩", "full": "群馬県安中市松井田町土塩"}, {"postal_code": "3790224", "postal_hyphen": "379-0224", "pref": "群馬県", "city": "安中市", "town": "松井田町人見", "full": "群馬県安中市松井田町人見"}, {"postal_code": "3790222", "postal_hyphen": "379-0222", "pref": "群馬県", "city": "安中市", "town": "松井田町松井田", "full": "群馬県安中市松井田町松井田"}, {"postal_code": "3790225", "postal_hyphen": "379-0225", "pref": "群馬県", "city": "安中市", "town": "松井田町八城", "full": "群馬県安中市松井田町八城"}, {"postal_code": "3790301", "postal_hyphen": "379-0301", "pref": "群馬県", "city": "安中市", "town": "松井田町横川", "full": "群馬県安中市松井田町横川"}, {"postal_code": "3790136", "postal_hyphen": "379-0136", "pref": "群馬県", "city": "安中市", "town": "嶺", "full": "群馬県安中市嶺"}, {"postal_code": "3790134", "postal_hyphen": "379-0134", "pref": "群馬県", "city": "安中市", "town": "簗瀬", "full": "群馬県安中市簗瀬"}, {"postal_code": "3760100", "postal_hyphen": "376-0100", "pref": "群馬県", "city": "みどり市", "town": "", "full": "群馬県みどり市"}, {"postal_code": "3760306", "postal_hyphen": "376-0306", "pref": "群馬県", "city": "みどり市", "town": "東町荻原", "full": "群馬県みどり市東町荻原"}, {"postal_code": "3760302", "postal_hyphen": "376-0302", "pref": "群馬県", "city": "みどり市", "town": "東町草木", "full": "群馬県みどり市東町草木"}, {"postal_code": "3760304", "postal_hyphen": "376-0304", "pref": "群馬県", "city": "みどり市", "town": "東町神戸", "full": "群馬県みどり市東町神戸"}, {"postal_code": "3760308", "postal_hyphen": "376-0308", "pref": "群馬県", "city": "みどり市", "town": "東町小中", "full": "群馬県みどり市東町小中"}, {"postal_code": "3760303", "postal_hyphen": "376-0303", "pref": "群馬県", "city": "みどり市", "town": "東町座間", "full": "群馬県みどり市東町座間"}, {"postal_code": "3760305", "postal_hyphen": "376-0305", "pref": "群馬県", "city": "みどり市", "town": "東町小夜戸", "full": "群馬県みどり市東町小夜戸"}, {"postal_code": "3760301", "postal_hyphen": "376-0301", "pref": "群馬県", "city": "みどり市", "town": "東町沢入", "full": "群馬県みどり市東町沢入"}, {"postal_code": "3760307", "postal_hyphen": "376-0307", "pref": "群馬県", "city": "みどり市", "town": "東町花輪", "full": "群馬県みどり市東町花輪"}, {"postal_code": "3760114", "postal_hyphen": "376-0114", "pref": "群馬県", "city": "みどり市", "town": "大間々町浅原", "full": "群馬県みどり市大間々町浅原"}, {"postal_code": "3760101", "postal_hyphen": "376-0101", "pref": "群馬県", "city": "みどり市", "town": "大間々町大間々", "full": "群馬県みどり市大間々町大間々"}, {"postal_code": "3760111", "postal_hyphen": "376-0111", "pref": "群馬県", "city": "みどり市", "town": "大間々町小平", "full": "群馬県みどり市大間々町小平"}, {"postal_code": "3760104", "postal_hyphen": "376-0104", "pref": "群馬県", "city": "みどり市", "town": "大間々町上神梅", "full": "群馬県みどり市大間々町上神梅"}, {"postal_code": "3760102", "postal_hyphen": "376-0102", "pref": "群馬県", "city": "みどり市", "town": "大間々町桐原", "full": "群馬県みどり市大間々町桐原"}, {"postal_code": "3760116", "postal_hyphen": "376-0116", "pref": "群馬県", "city": "みどり市", "town": "大間々町塩沢", "full": "群馬県みどり市大間々町塩沢"}, {"postal_code": "3760115", "postal_hyphen": "376-0115", "pref": "群馬県", "city": "みどり市", "town": "大間々町塩原", "full": "群馬県みどり市大間々町塩原"}, {"postal_code": "3760103", "postal_hyphen": "376-0103", "pref": "群馬県", "city": "みどり市", "town": "大間々町下神梅", "full": "群馬県みどり市大間々町下神梅"}, {"postal_code": "3760113", "postal_hyphen": "376-0113", "pref": "群馬県", "city": "みどり市", "town": "大間々町高津戸", "full": "群馬県みどり市大間々町高津戸"}, {"postal_code": "3760112", "postal_hyphen": "376-0112", "pref": "群馬県", "city": "みどり市", "town": "大間々町長尾根", "full": "群馬県みどり市大間々町長尾根"}, {"postal_code": "3792311", "postal_hyphen": "379-2311", "pref": "群馬県", "city": "みどり市", "town": "笠懸町阿左美", "full": "群馬県みどり市笠懸町阿左美"}, {"postal_code": "3792312", "postal_hyphen": "379-2312", "pref": "群馬県", "city": "みどり市", "town": "笠懸町久宮", "full": "群馬県みどり市笠懸町久宮"}, {"postal_code": "3792314", "postal_hyphen": "379-2314", "pref": "群馬県", "city": "みどり市", "town": "笠懸町西鹿田", "full": "群馬県みどり市笠懸町西鹿田"}, {"postal_code": "3792313", "postal_hyphen": "379-2313", "pref": "群馬県", "city": "みどり市", "town": "笠懸町鹿", "full": "群馬県みどり市笠懸町鹿"}, {"postal_code": "3703500", "postal_hyphen": "370-3500", "pref": "群馬県", "city": "北群馬郡榛東村", "town": "", "full": "群馬県北群馬郡榛東村"}, {"postal_code": "3703503", "postal_hyphen": "370-3503", "pref": "群馬県", "city": "北群馬郡榛東村", "town": "新井", "full": "群馬県北群馬郡榛東村新井"}, {"postal_code": "3703505", "postal_hyphen": "370-3505", "pref": "群馬県", "city": "北群馬郡榛東村", "town": "上野原", "full": "群馬県北群馬郡榛東村上野原"}, {"postal_code": "3703501", "postal_hyphen": "370-3501", "pref": "群馬県", "city": "北群馬郡榛東村", "town": "長岡", "full": "群馬県北群馬郡榛東村長岡"}, {"postal_code": "3703504", "postal_hyphen": "370-3504", "pref": "群馬県", "city": "北群馬郡榛東村", "town": "広馬場", "full": "群馬県北群馬郡榛東村広馬場"}, {"postal_code": "3703502", "postal_hyphen": "370-3502", "pref": "群馬県", "city": "北群馬郡榛東村", "town": "山子田", "full": "群馬県北群馬郡榛東村山子田"}, {"postal_code": "3703600", "postal_hyphen": "370-3600", "pref": "群馬県", "city": "北群馬郡吉岡町", "town": "", "full": "群馬県北群馬郡吉岡町"}, {"postal_code": "3703601", "postal_hyphen": "370-3601", "pref": "群馬県", "city": "北群馬郡吉岡町", "town": "漆原", "full": "群馬県北群馬郡吉岡町漆原"}, {"postal_code": "3703602", "postal_hyphen": "370-3602", "pref": "群馬県", "city": "北群馬郡吉岡町", "town": "大久保", "full": "群馬県北群馬郡吉岡町大久保"}, {"postal_code": "3703607", "postal_hyphen": "370-3607", "pref": "群馬県", "city": "北群馬郡吉岡町", "town": "小倉", "full": "群馬県北群馬郡吉岡町小倉"}, {"postal_code": "3703606", "postal_hyphen": "370-3606", "pref": "群馬県", "city": "北群馬郡吉岡町", "town": "上野田", "full": "群馬県北群馬郡吉岡町上野田"}, {"postal_code": "3703605", "postal_hyphen": "370-3605", "pref": "群馬県", "city": "北群馬郡吉岡町", "town": "北下", "full": "群馬県北群馬郡吉岡町北下"}, {"postal_code": "3703608", "postal_hyphen": "370-3608", "pref": "群馬県", "city": "北群馬郡吉岡町", "town": "下野田", "full": "群馬県北群馬郡吉岡町下野田"}, {"postal_code": "3703603", "postal_hyphen": "370-3603", "pref": "群馬県", "city": "北群馬郡吉岡町", "town": "陣場", "full": "群馬県北群馬郡吉岡町陣場"}, {"postal_code": "3703604", "postal_hyphen": "370-3604", "pref": "群馬県", "city": "北群馬郡吉岡町", "town": "南下", "full": "群馬県北群馬郡吉岡町南下"}, {"postal_code": "3701600", "postal_hyphen": "370-1600", "pref": "群馬県", "city": "多野郡上野村", "town": "", "full": "群馬県多野郡上野村"}, {"postal_code": "3701616", "postal_hyphen": "370-1616", "pref": "群馬県", "city": "多野郡上野村", "town": "乙父", "full": "群馬県多野郡上野村乙父"}, {"postal_code": "3701615", "postal_hyphen": "370-1615", "pref": "群馬県", "city": "多野郡上野村", "town": "乙母", "full": "群馬県多野郡上野村乙母"}, {"postal_code": "3701613", "postal_hyphen": "370-1613", "pref": "群馬県", "city": "多野郡上野村", "town": "勝山", "full": "群馬県多野郡上野村勝山"}, {"postal_code": "3701614", "postal_hyphen": "370-1614", "pref": "群馬県", "city": "多野郡上野村", "town": "川和", "full": "群馬県多野郡上野村川和"}, {"postal_code": "3701617", "postal_hyphen": "370-1617", "pref": "群馬県", "city": "多野郡上野村", "town": "楢原", "full": "群馬県多野郡上野村楢原"}, {"postal_code": "3701611", "postal_hyphen": "370-1611", "pref": "群馬県", "city": "多野郡上野村", "town": "新羽", "full": "群馬県多野郡上野村新羽"}, {"postal_code": "3701612", "postal_hyphen": "370-1612", "pref": "群馬県", "city": "多野郡上野村", "town": "野栗沢", "full": "群馬県多野郡上野村野栗沢"}, {"postal_code": "3701600", "postal_hyphen": "370-1600", "pref": "群馬県", "city": "多野郡神流町", "town": "", "full": "群馬県多野郡神流町"}, {"postal_code": "3701511", "postal_hyphen": "370-1511", "pref": "群馬県", "city": "多野郡神流町", "town": "相原", "full": "群馬県多野郡神流町相原"}, {"postal_code": "3701512", "postal_hyphen": "370-1512", "pref": "群馬県", "city": "多野郡神流町", "town": "青梨", "full": "群馬県多野郡神流町青梨"}, {"postal_code": "3701502", "postal_hyphen": "370-1502", "pref": "群馬県", "city": "多野郡神流町", "town": "麻生", "full": "群馬県多野郡神流町麻生"}, {"postal_code": "3701604", "postal_hyphen": "370-1604", "pref": "群馬県", "city": "多野郡神流町", "town": "尾附", "full": "群馬県多野郡神流町尾附"}, {"postal_code": "3701602", "postal_hyphen": "370-1602", "pref": "群馬県", "city": "多野郡神流町", "town": "神ケ原", "full": "群馬県多野郡神流町神ケ原"}, {"postal_code": "3701501", "postal_hyphen": "370-1501", "pref": "群馬県", "city": "多野郡神流町", "town": "柏木", "full": "群馬県多野郡神流町柏木"}, {"postal_code": "3701506", "postal_hyphen": "370-1506", "pref": "群馬県", "city": "多野郡神流町", "town": "黒田", "full": "群馬県多野郡神流町黒田"}, {"postal_code": "3701513", "postal_hyphen": "370-1513", "pref": "群馬県", "city": "多野郡神流町", "town": "小平", "full": "群馬県多野郡神流町小平"}, {"postal_code": "3701514", "postal_hyphen": "370-1514", "pref": "群馬県", "city": "多野郡神流町", "town": "塩沢", "full": "群馬県多野郡神流町塩沢"}, {"postal_code": "3701503", "postal_hyphen": "370-1503", "pref": "群馬県", "city": "多野郡神流町", "town": "生利", "full": "群馬県多野郡神流町生利"}, {"postal_code": "3701515", "postal_hyphen": "370-1515", "pref": "群馬県", "city": "多野郡神流町", "town": "船子", "full": "群馬県多野郡神流町船子"}, {"postal_code": "3701603", "postal_hyphen": "370-1603", "pref": "群馬県", "city": "多野郡神流町", "town": "平原", "full": "群馬県多野郡神流町平原"}, {"postal_code": "3701504", "postal_hyphen": "370-1504", "pref": "群馬県", "city": "多野郡神流町", "town": "万場", "full": "群馬県多野郡神流町万場"}, {"postal_code": "3701505", "postal_hyphen": "370-1505", "pref": "群馬県", "city": "多野郡神流町", "town": "森戸", "full": "群馬県多野郡神流町森戸"}, {"postal_code": "3701601", "postal_hyphen": "370-1601", "pref": "群馬県", "city": "多野郡神流町", "town": "魚尾", "full": "群馬県多野郡神流町魚尾"}, {"postal_code": "3702600", "postal_hyphen": "370-2600", "pref": "群馬県", "city": "甘楽郡下仁田町", "town": "", "full": "群馬県甘楽郡下仁田町"}, {"postal_code": "3702611", "postal_hyphen": "370-2611", "pref": "群馬県", "city": "甘楽郡下仁田町", "town": "青倉", "full": "群馬県甘楽郡下仁田町青倉"}, {"postal_code": "3702613", "postal_hyphen": "370-2613", "pref": "群馬県", "city": "甘楽郡下仁田町", "town": "大桑原", "full": "群馬県甘楽郡下仁田町大桑原"}, {"postal_code": "3702614", "postal_hyphen": "370-2614", "pref": "群馬県", "city": "甘楽郡下仁田町", "town": "風口", "full": "群馬県甘楽郡下仁田町風口"}, {"postal_code": "3702621", "postal_hyphen": "370-2621", "pref": "群馬県", "city": "甘楽郡下仁田町", "town": "上小坂", "full": "群馬県甘楽郡下仁田町上小坂"}, {"postal_code": "3702606", "postal_hyphen": "370-2606", "pref": "群馬県", "city": "甘楽郡下仁田町", "town": "川井", "full": "群馬県甘楽郡下仁田町川井"}, {"postal_code": "3702605", "postal_hyphen": "370-2605", "pref": "群馬県", "city": "甘楽郡下仁田町", "town": "栗山", "full": "群馬県甘楽郡下仁田町栗山"}, {"postal_code": "3702623", "postal_hyphen": "370-2623", "pref": "群馬県", "city": "甘楽郡下仁田町", "town": "下小坂", "full": "群馬県甘楽郡下仁田町下小坂"}, {"postal_code": "3702616", "postal_hyphen": "370-2616", "pref": "群馬県", "city": "甘楽郡下仁田町", "town": "下郷", "full": "群馬県甘楽郡下仁田町下郷"}, {"postal_code": "3702601", "postal_hyphen": "370-2601", "pref": "群馬県", "city": "甘楽郡下仁田町", "town": "下仁田", "full": "群馬県甘楽郡下仁田町下仁田"}, {"postal_code": "3702622", "postal_hyphen": "370-2622", "pref": "群馬県", "city": "甘楽郡下仁田町", "town": "中小坂", "full": "群馬県甘楽郡下仁田町中小坂"}, {"postal_code": "3702627", "postal_hyphen": "370-2627", "pref": "群馬県", "city": "甘楽郡下仁田町", "town": "西野牧", "full": "群馬県甘楽郡下仁田町西野牧"}, {"postal_code": "3702602", "postal_hyphen": "370-2602", "pref": "群馬県", "city": "甘楽郡下仁田町", "town": "白山", "full": "群馬県甘楽郡下仁田町白山"}, {"postal_code": "3702624", "postal_hyphen": "370-2624", "pref": "群馬県", "city": "甘楽郡下仁田町", "town": "東野牧", "full": "群馬県甘楽郡下仁田町東野牧"}, {"postal_code": "3702612", "postal_hyphen": "370-2612", "pref": "群馬県", "city": "甘楽郡下仁田町", "town": "平原", "full": "群馬県甘楽郡下仁田町平原"}, {"postal_code": "3702603", "postal_hyphen": "370-2603", "pref": "群馬県", "city": "甘楽郡下仁田町", "town": "馬山", "full": "群馬県甘楽郡下仁田町馬山"}, {"postal_code": "3702626", "postal_hyphen": "370-2626", "pref": "群馬県", "city": "甘楽郡下仁田町", "town": "南野牧", "full": "群馬県甘楽郡下仁田町南野牧"}, {"postal_code": "3702615", "postal_hyphen": "370-2615", "pref": "群馬県", "city": "甘楽郡下仁田町", "town": "宮室", "full": "群馬県甘楽郡下仁田町宮室"}, {"postal_code": "3702625", "postal_hyphen": "370-2625", "pref": "群馬県", "city": "甘楽郡下仁田町", "town": "本宿", "full": "群馬県甘楽郡下仁田町本宿"}, {"postal_code": "3702604", "postal_hyphen": "370-2604", "pref": "群馬県", "city": "甘楽郡下仁田町", "town": "吉崎", "full": "群馬県甘楽郡下仁田町吉崎"}, {"postal_code": "3702800", "postal_hyphen": "370-2800", "pref": "群馬県", "city": "甘楽郡南牧村", "town": "", "full": "群馬県甘楽郡南牧村"}, {"postal_code": "3702804", "postal_hyphen": "370-2804", "pref": "群馬県", "city": "甘楽郡南牧村", "town": "磐戸", "full": "群馬県甘楽郡南牧村磐戸"}, {"postal_code": "3702801", "postal_hyphen": "370-2801", "pref": "群馬県", "city": "甘楽郡南牧村", "town": "大塩沢", "full": "群馬県甘楽郡南牧村大塩沢"}, {"postal_code": "3702812", "postal_hyphen": "370-2812", "pref": "群馬県", "city": "甘楽郡南牧村", "town": "大仁田", "full": "群馬県甘楽郡南牧村大仁田"}, {"postal_code": "3702806", "postal_hyphen": "370-2806", "pref": "群馬県", "city": "甘楽郡南牧村", "town": "大日向", "full": "群馬県甘楽郡南牧村大日向"}, {"postal_code": "3702802", "postal_hyphen": "370-2802", "pref": "群馬県", "city": "甘楽郡南牧村", "town": "小沢", "full": "群馬県甘楽郡南牧村小沢"}, {"postal_code": "3702815", "postal_hyphen": "370-2815", "pref": "群馬県", "city": "甘楽郡南牧村", "town": "熊倉", "full": "群馬県甘楽郡南牧村熊倉"}, {"postal_code": "3702803", "postal_hyphen": "370-2803", "pref": "群馬県", "city": "甘楽郡南牧村", "town": "千原", "full": "群馬県甘楽郡南牧村千原"}, {"postal_code": "3702813", "postal_hyphen": "370-2813", "pref": "群馬県", "city": "甘楽郡南牧村", "town": "砥沢", "full": "群馬県甘楽郡南牧村砥沢"}, {"postal_code": "3702814", "postal_hyphen": "370-2814", "pref": "群馬県", "city": "甘楽郡南牧村", "town": "羽沢", "full": "群馬県甘楽郡南牧村羽沢"}, {"postal_code": "3702805", "postal_hyphen": "370-2805", "pref": "群馬県", "city": "甘楽郡南牧村", "town": "檜沢", "full": "群馬県甘楽郡南牧村檜沢"}, {"postal_code": "3702816", "postal_hyphen": "370-2816", "pref": "群馬県", "city": "甘楽郡南牧村", "town": "星尾", "full": "群馬県甘楽郡南牧村星尾"}, {"postal_code": "3702811", "postal_hyphen": "370-2811", "pref": "群馬県", "city": "甘楽郡南牧村", "town": "六車", "full": "群馬県甘楽郡南牧村六車"}, {"postal_code": "3702200", "postal_hyphen": "370-2200", "pref": "群馬県", "city": "甘楽郡甘楽町", "town": "", "full": "群馬県甘楽郡甘楽町"}, {"postal_code": "3702204", "postal_hyphen": "370-2204", "pref": "群馬県", "city": "甘楽郡甘楽町", "town": "秋畑", "full": "群馬県甘楽郡甘楽町秋畑"}, {"postal_code": "3702217", "postal_hyphen": "370-2217", "pref": "群馬県", "city": "甘楽郡甘楽町", "town": "天引", "full": "群馬県甘楽郡甘楽町天引"}, {"postal_code": "3702201", "postal_hyphen": "370-2201", "pref": "群馬県", "city": "甘楽郡甘楽町", "town": "上野", "full": "群馬県甘楽郡甘楽町上野"}, {"postal_code": "3702211", "postal_hyphen": "370-2211", "pref": "群馬県", "city": "甘楽郡甘楽町", "town": "小川", "full": "群馬県甘楽郡甘楽町小川"}, {"postal_code": "3702202", "postal_hyphen": "370-2202", "pref": "群馬県", "city": "甘楽郡甘楽町", "town": "小幡", "full": "群馬県甘楽郡甘楽町小幡"}, {"postal_code": "3702216", "postal_hyphen": "370-2216", "pref": "群馬県", "city": "甘楽郡甘楽町", "town": "金井", "full": "群馬県甘楽郡甘楽町金井"}, {"postal_code": "3702205", "postal_hyphen": "370-2205", "pref": "群馬県", "city": "甘楽郡甘楽町", "town": "国峰", "full": "群馬県甘楽郡甘楽町国峰"}, {"postal_code": "3702213", "postal_hyphen": "370-2213", "pref": "群馬県", "city": "甘楽郡甘楽町", "town": "白倉", "full": "群馬県甘楽郡甘楽町白倉"}, {"postal_code": "3702206", "postal_hyphen": "370-2206", "pref": "群馬県", "city": "甘楽郡甘楽町", "town": "善慶寺", "full": "群馬県甘楽郡甘楽町善慶寺"}, {"postal_code": "3702215", "postal_hyphen": "370-2215", "pref": "群馬県", "city": "甘楽郡甘楽町", "town": "造石", "full": "群馬県甘楽郡甘楽町造石"}, {"postal_code": "3702203", "postal_hyphen": "370-2203", "pref": "群馬県", "city": "甘楽郡甘楽町", "town": "轟", "full": "群馬県甘楽郡甘楽町轟"}, {"postal_code": "3702214", "postal_hyphen": "370-2214", "pref": "群馬県", "city": "甘楽郡甘楽町", "town": "庭谷", "full": "群馬県甘楽郡甘楽町庭谷"}, {"postal_code": "3702212", "postal_hyphen": "370-2212", "pref": "群馬県", "city": "甘楽郡甘楽町", "town": "福島", "full": "群馬県甘楽郡甘楽町福島"}, {"postal_code": "3770400", "postal_hyphen": "377-0400", "pref": "群馬県", "city": "吾妻郡中之条町", "town": "", "full": "群馬県吾妻郡中之条町"}, {"postal_code": "3770422", "postal_hyphen": "377-0422", "pref": "群馬県", "city": "吾妻郡中之条町", "town": "青山", "full": "群馬県吾妻郡中之条町青山"}, {"postal_code": "3771311", "postal_hyphen": "377-1311", "pref": "群馬県", "city": "吾妻郡中之条町", "town": "赤岩", "full": "群馬県吾妻郡中之条町赤岩"}, {"postal_code": "3770417", "postal_hyphen": "377-0417", "pref": "群馬県", "city": "吾妻郡中之条町", "town": "赤坂", "full": "群馬県吾妻郡中之条町赤坂"}, {"postal_code": "3770416", "postal_hyphen": "377-0416", "pref": "群馬県", "city": "吾妻郡中之条町", "town": "蟻川", "full": "群馬県吾妻郡中之条町蟻川"}, {"postal_code": "3770423", "postal_hyphen": "377-0423", "pref": "群馬県", "city": "吾妻郡中之条町", "town": "伊勢町", "full": "群馬県吾妻郡中之条町伊勢町"}, {"postal_code": "3770421", "postal_hyphen": "377-0421", "pref": "群馬県", "city": "吾妻郡中之条町", "town": "市城", "full": "群馬県吾妻郡中之条町市城"}, {"postal_code": "3771701", "postal_hyphen": "377-1701", "pref": "群馬県", "city": "吾妻郡中之条町", "town": "入山", "full": "群馬県吾妻郡中之条町入山"}, {"postal_code": "3770431", "postal_hyphen": "377-0431", "pref": "群馬県", "city": "吾妻郡中之条町", "town": "岩本", "full": "群馬県吾妻郡中之条町岩本"}, {"postal_code": "3771703", "postal_hyphen": "377-1703", "pref": "群馬県", "city": "吾妻郡中之条町", "town": "太子", "full": "群馬県吾妻郡中之条町太子"}, {"postal_code": "3770413", "postal_hyphen": "377-0413", "pref": "群馬県", "city": "吾妻郡中之条町", "town": "大塚", "full": "群馬県吾妻郡中之条町大塚"}, {"postal_code": "3770544", "postal_hyphen": "377-0544", "pref": "群馬県", "city": "吾妻郡中之条町", "town": "折田（戦道）", "full": "群馬県吾妻郡中之条町折田（戦道）"}, {"postal_code": "3770433", "postal_hyphen": "377-0433", "pref": "群馬県", "city": "吾妻郡中之条町", "town": "折田（その他）", "full": "群馬県吾妻郡中之条町折田（その他）"}, {"postal_code": "3770541", "postal_hyphen": "377-0541", "pref": "群馬県", "city": "吾妻郡中之条町", "town": "上沢渡", "full": "群馬県吾妻郡中之条町上沢渡"}, {"postal_code": "3771704", "postal_hyphen": "377-1704", "pref": "群馬県", "city": "吾妻郡中之条町", "town": "小雨", "full": "群馬県吾妻郡中之条町小雨"}, {"postal_code": "3770432", "postal_hyphen": "377-0432", "pref": "群馬県", "city": "吾妻郡中之条町", "town": "五反田", "full": "群馬県吾妻郡中之条町五反田"}, {"postal_code": "3770601", "postal_hyphen": "377-0601", "pref": "群馬県", "city": "吾妻郡中之条町", "town": "四万", "full": "群馬県吾妻郡中之条町四万"}, {"postal_code": "3770542", "postal_hyphen": "377-0542", "pref": "群馬県", "city": "吾妻郡中之条町", "town": "下沢渡", "full": "群馬県吾妻郡中之条町下沢渡"}, {"postal_code": "3770411", "postal_hyphen": "377-0411", "pref": "群馬県", "city": "吾妻郡中之条町", "town": "大道", "full": "群馬県吾妻郡中之条町大道"}, {"postal_code": "3770414", "postal_hyphen": "377-0414", "pref": "群馬県", "city": "吾妻郡中之条町", "town": "平", "full": "群馬県吾妻郡中之条町平"}, {"postal_code": "3770412", "postal_hyphen": "377-0412", "pref": "群馬県", "city": "吾妻郡中之条町", "town": "栃窪", "full": "群馬県吾妻郡中之条町栃窪"}, {"postal_code": "3770424", "postal_hyphen": "377-0424", "pref": "群馬県", "city": "吾妻郡中之条町", "town": "中之条町", "full": "群馬県吾妻郡中之条町中之条町"}, {"postal_code": "3771702", "postal_hyphen": "377-1702", "pref": "群馬県", "city": "吾妻郡中之条町", "town": "生須", "full": "群馬県吾妻郡中之条町生須"}, {"postal_code": "3770425", "postal_hyphen": "377-0425", "pref": "群馬県", "city": "吾妻郡中之条町", "town": "西中之条", "full": "群馬県吾妻郡中之条町西中之条"}, {"postal_code": "3771312", "postal_hyphen": "377-1312", "pref": "群馬県", "city": "吾妻郡中之条町", "town": "日影", "full": "群馬県吾妻郡中之条町日影"}, {"postal_code": "3770543", "postal_hyphen": "377-0543", "pref": "群馬県", "city": "吾妻郡中之条町", "town": "山田（寺社原、細尾）", "full": "群馬県吾妻郡中之条町山田（寺社原、細尾）"}, {"postal_code": "3770434", "postal_hyphen": "377-0434", "pref": "群馬県", "city": "吾妻郡中之条町", "town": "山田（その他）", "full": "群馬県吾妻郡中之条町山田（その他）"}, {"postal_code": "3770415", "postal_hyphen": "377-0415", "pref": "群馬県", "city": "吾妻郡中之条町", "town": "横尾", "full": "群馬県吾妻郡中之条町横尾"}, {"postal_code": "3771300", "postal_hyphen": "377-1300", "pref": "群馬県", "city": "吾妻郡長野原町", "town": "", "full": "群馬県吾妻郡長野原町"}, {"postal_code": "3771310", "postal_hyphen": "377-1310", "pref": "群馬県", "city": "吾妻郡長野原町", "town": "応桑（堂光原）", "full": "群馬県吾妻郡長野原町応桑（堂光原）"}, {"postal_code": "3771411", "postal_hyphen": "377-1411", "pref": "群馬県", "city": "吾妻郡長野原町", "town": "応桑（その他）", "full": "群馬県吾妻郡長野原町応桑（その他）"}, {"postal_code": "3771308", "postal_hyphen": "377-1308", "pref": "群馬県", "city": "吾妻郡長野原町", "town": "大津", "full": "群馬県吾妻郡長野原町大津"}, {"postal_code": "3771301", "postal_hyphen": "377-1301", "pref": "群馬県", "city": "吾妻郡長野原町", "town": "川原畑", "full": "群馬県吾妻郡長野原町川原畑"}, {"postal_code": "3771302", "postal_hyphen": "377-1302", "pref": "群馬県", "city": "吾妻郡長野原町", "town": "川原湯", "full": "群馬県吾妻郡長野原町川原湯"}, {"postal_code": "3771412", "postal_hyphen": "377-1412", "pref": "群馬県", "city": "吾妻郡長野原町", "town": "北軽井沢", "full": "群馬県吾妻郡長野原町北軽井沢"}, {"postal_code": "3771304", "postal_hyphen": "377-1304", "pref": "群馬県", "city": "吾妻郡長野原町", "town": "長野原", "full": "群馬県吾妻郡長野原町長野原"}, {"postal_code": "3771307", "postal_hyphen": "377-1307", "pref": "群馬県", "city": "吾妻郡長野原町", "town": "羽根尾", "full": "群馬県吾妻郡長野原町羽根尾"}, {"postal_code": "3771309", "postal_hyphen": "377-1309", "pref": "群馬県", "city": "吾妻郡長野原町", "town": "林", "full": "群馬県吾妻郡長野原町林"}, {"postal_code": "3771306", "postal_hyphen": "377-1306", "pref": "群馬県", "city": "吾妻郡長野原町", "town": "古森", "full": "群馬県吾妻郡長野原町古森"}, {"postal_code": "3771305", "postal_hyphen": "377-1305", "pref": "群馬県", "city": "吾妻郡長野原町", "town": "与喜屋", "full": "群馬県吾妻郡長野原町与喜屋"}, {"postal_code": "3771303", "postal_hyphen": "377-1303", "pref": "群馬県", "city": "吾妻郡長野原町", "town": "横壁", "full": "群馬県吾妻郡長野原町横壁"}, {"postal_code": "3771500", "postal_hyphen": "377-1500", "pref": "群馬県", "city": "吾妻郡嬬恋村", "town": "", "full": "群馬県吾妻郡嬬恋村"}, {"postal_code": "3771523", "postal_hyphen": "377-1523", "pref": "群馬県", "city": "吾妻郡嬬恋村", "town": "芦生田", "full": "群馬県吾妻郡嬬恋村芦生田"}, {"postal_code": "3771521", "postal_hyphen": "377-1521", "pref": "群馬県", "city": "吾妻郡嬬恋村", "town": "今井", "full": "群馬県吾妻郡嬬恋村今井"}, {"postal_code": "3771613", "postal_hyphen": "377-1613", "pref": "群馬県", "city": "吾妻郡嬬恋村", "town": "大笹", "full": "群馬県吾妻郡嬬恋村大笹"}, {"postal_code": "3771512", "postal_hyphen": "377-1512", "pref": "群馬県", "city": "吾妻郡嬬恋村", "town": "大前（細原２２５９〜）", "full": "群馬県吾妻郡嬬恋村大前（細原２２５９〜）"}, {"postal_code": "3771612", "postal_hyphen": "377-1612", "pref": "群馬県", "city": "吾妻郡嬬恋村", "town": "大前（その他）", "full": "群馬県吾妻郡嬬恋村大前（その他）"}, {"postal_code": "3771527", "postal_hyphen": "377-1527", "pref": "群馬県", "city": "吾妻郡嬬恋村", "town": "門貝", "full": "群馬県吾妻郡嬬恋村門貝"}, {"postal_code": "3771403", "postal_hyphen": "377-1403", "pref": "群馬県", "city": "吾妻郡嬬恋村", "town": "鎌原（あやめケ原）", "full": "群馬県吾妻郡嬬恋村鎌原（あやめケ原）"}, {"postal_code": "3771404", "postal_hyphen": "377-1404", "pref": "群馬県", "city": "吾妻郡嬬恋村", "town": "鎌原（大カイシコ）", "full": "群馬県吾妻郡嬬恋村鎌原（大カイシコ）"}, {"postal_code": "3771401", "postal_hyphen": "377-1401", "pref": "群馬県", "city": "吾妻郡嬬恋村", "town": "鎌原（奥軽井沢）", "full": "群馬県吾妻郡嬬恋村鎌原（奥軽井沢）"}, {"postal_code": "3771402", "postal_hyphen": "377-1402", "pref": "群馬県", "city": "吾妻郡嬬恋村", "town": "鎌原（鬼の泉水）", "full": "群馬県吾妻郡嬬恋村鎌原（鬼の泉水）"}, {"postal_code": "3771616", "postal_hyphen": "377-1616", "pref": "群馬県", "city": "吾妻郡嬬恋村", "town": "鎌原（柏木塚）", "full": "群馬県吾妻郡嬬恋村鎌原（柏木塚）"}, {"postal_code": "3771617", "postal_hyphen": "377-1617", "pref": "群馬県", "city": "吾妻郡嬬恋村", "town": "鎌原（群馬坂）", "full": "群馬県吾妻郡嬬恋村鎌原（群馬坂）"}, {"postal_code": "3840097", "postal_hyphen": "384-0097", "pref": "群馬県", "city": "吾妻郡嬬恋村", "town": "鎌原（高峰高原）", "full": "群馬県吾妻郡嬬恋村鎌原（高峰高原）"}, {"postal_code": "3771615", "postal_hyphen": "377-1615", "pref": "群馬県", "city": "吾妻郡嬬恋村", "town": "鎌原（藤原）", "full": "群馬県吾妻郡嬬恋村鎌原（藤原）"}, {"postal_code": "3771405", "postal_hyphen": "377-1405", "pref": "群馬県", "city": "吾妻郡嬬恋村", "town": "鎌原（モロシコ「浅間園」）", "full": "群馬県吾妻郡嬬恋村鎌原（モロシコ「浅間園」）"}, {"postal_code": "3771524", "postal_hyphen": "377-1524", "pref": "群馬県", "city": "吾妻郡嬬恋村", "town": "鎌原（その他）", "full": "群馬県吾妻郡嬬恋村鎌原（その他）"}, {"postal_code": "3771525", "postal_hyphen": "377-1525", "pref": "群馬県", "city": "吾妻郡嬬恋村", "town": "西窪", "full": "群馬県吾妻郡嬬恋村西窪"}, {"postal_code": "3771614", "postal_hyphen": "377-1614", "pref": "群馬県", "city": "吾妻郡嬬恋村", "town": "田代", "full": "群馬県吾妻郡嬬恋村田代"}, {"postal_code": "3771522", "postal_hyphen": "377-1522", "pref": "群馬県", "city": "吾妻郡嬬恋村", "town": "袋倉", "full": "群馬県吾妻郡嬬恋村袋倉"}, {"postal_code": "3771528", "postal_hyphen": "377-1528", "pref": "群馬県", "city": "吾妻郡嬬恋村", "town": "干俣（吾妻鉱山、万座温泉）", "full": "群馬県吾妻郡嬬恋村干俣（吾妻鉱山、万座温泉）"}, {"postal_code": "3771611", "postal_hyphen": "377-1611", "pref": "群馬県", "city": "吾妻郡嬬恋村", "town": "干俣（その他）", "full": "群馬県吾妻郡嬬恋村干俣（その他）"}, {"postal_code": "3771526", "postal_hyphen": "377-1526", "pref": "群馬県", "city": "吾妻郡嬬恋村", "town": "三原", "full": "群馬県吾妻郡嬬恋村三原"}, {"postal_code": "3771700", "postal_hyphen": "377-1700", "pref": "群馬県", "city": "吾妻郡草津町", "town": "", "full": "群馬県吾妻郡草津町"}, {"postal_code": "3771711", "postal_hyphen": "377-1711", "pref": "群馬県", "city": "吾妻郡草津町", "town": "草津", "full": "群馬県吾妻郡草津町草津"}, {"postal_code": "3771712", "postal_hyphen": "377-1712", "pref": "群馬県", "city": "吾妻郡草津町", "town": "前口", "full": "群馬県吾妻郡草津町前口"}, {"postal_code": "3770700", "postal_hyphen": "377-0700", "pref": "群馬県", "city": "吾妻郡高山村", "town": "", "full": "群馬県吾妻郡高山村"}, {"postal_code": "3770701", "postal_hyphen": "377-0701", "pref": "群馬県", "city": "吾妻郡高山村", "town": "尻高", "full": "群馬県吾妻郡高山村尻高"}, {"postal_code": "3770702", "postal_hyphen": "377-0702", "pref": "群馬県", "city": "吾妻郡高山村", "town": "中山", "full": "群馬県吾妻郡高山村中山"}, {"postal_code": "3770800", "postal_hyphen": "377-0800", "pref": "群馬県", "city": "吾妻郡東吾妻町", "town": "", "full": "群馬県吾妻郡東吾妻町"}, {"postal_code": "3770812", "postal_hyphen": "377-0812", "pref": "群馬県", "city": "吾妻郡東吾妻町", "town": "厚田", "full": "群馬県吾妻郡東吾妻町厚田"}, {"postal_code": "3770303", "postal_hyphen": "377-0303", "pref": "群馬県", "city": "吾妻郡東吾妻町", "town": "新巻", "full": "群馬県吾妻郡東吾妻町新巻"}, {"postal_code": "3703321", "postal_hyphen": "370-3321", "pref": "群馬県", "city": "吾妻郡東吾妻町", "town": "泉沢（烏帽子「榛名湖畔」、烏帽子国有林７７林班）", "full": "群馬県吾妻郡東吾妻町泉沢（烏帽子「榛名湖畔」、烏帽子国有林７７林班）"}, {"postal_code": "3770807", "postal_hyphen": "377-0807", "pref": "群馬県", "city": "吾妻郡東吾妻町", "town": "泉沢（その他）", "full": "群馬県吾妻郡東吾妻町泉沢（その他）"}, {"postal_code": "3770804", "postal_hyphen": "377-0804", "pref": "群馬県", "city": "吾妻郡東吾妻町", "town": "岩井", "full": "群馬県吾妻郡東吾妻町岩井"}, {"postal_code": "3770815", "postal_hyphen": "377-0815", "pref": "群馬県", "city": "吾妻郡東吾妻町", "town": "岩下", "full": "群馬県吾妻郡東吾妻町岩下"}, {"postal_code": "3770805", "postal_hyphen": "377-0805", "pref": "群馬県", "city": "吾妻郡東吾妻町", "town": "植栗", "full": "群馬県吾妻郡東吾妻町植栗"}, {"postal_code": "3770935", "postal_hyphen": "377-0935", "pref": "群馬県", "city": "吾妻郡東吾妻町", "town": "大柏木", "full": "群馬県吾妻郡東吾妻町大柏木"}, {"postal_code": "3770931", "postal_hyphen": "377-0931", "pref": "群馬県", "city": "吾妻郡東吾妻町", "town": "大戸", "full": "群馬県吾妻郡東吾妻町大戸"}, {"postal_code": "3703311", "postal_hyphen": "370-3311", "pref": "群馬県", "city": "吾妻郡東吾妻町", "town": "岡崎（烏帽子「榛名湖畔」）", "full": "群馬県吾妻郡東吾妻町岡崎（烏帽子「榛名湖畔」）"}, {"postal_code": "3770302", "postal_hyphen": "377-0302", "pref": "群馬県", "city": "吾妻郡東吾妻町", "town": "岡崎（その他）", "full": "群馬県吾妻郡東吾妻町岡崎（その他）"}, {"postal_code": "3770304", "postal_hyphen": "377-0304", "pref": "群馬県", "city": "吾妻郡東吾妻町", "town": "奥田", "full": "群馬県吾妻郡東吾妻町奥田"}, {"postal_code": "3770803", "postal_hyphen": "377-0803", "pref": "群馬県", "city": "吾妻郡東吾妻町", "town": "金井", "full": "群馬県吾妻郡東吾妻町金井"}, {"postal_code": "3703322", "postal_hyphen": "370-3322", "pref": "群馬県", "city": "吾妻郡東吾妻町", "town": "川戸（烏帽子「榛名湖畔」）", "full": "群馬県吾妻郡東吾妻町川戸（烏帽子「榛名湖畔」）"}, {"postal_code": "3770802", "postal_hyphen": "377-0802", "pref": "群馬県", "city": "吾妻郡東吾妻町", "town": "川戸（その他）", "full": "群馬県吾妻郡東吾妻町川戸（その他）"}, {"postal_code": "3770806", "postal_hyphen": "377-0806", "pref": "群馬県", "city": "吾妻郡東吾妻町", "town": "小泉", "full": "群馬県吾妻郡東吾妻町小泉"}, {"postal_code": "3770811", "postal_hyphen": "377-0811", "pref": "群馬県", "city": "吾妻郡東吾妻町", "town": "郷原", "full": "群馬県吾妻郡東吾妻町郷原"}, {"postal_code": "3770305", "postal_hyphen": "377-0305", "pref": "群馬県", "city": "吾妻郡東吾妻町", "town": "五町田", "full": "群馬県吾妻郡東吾妻町五町田"}, {"postal_code": "3770934", "postal_hyphen": "377-0934", "pref": "群馬県", "city": "吾妻郡東吾妻町", "town": "須賀尾", "full": "群馬県吾妻郡東吾妻町須賀尾"}, {"postal_code": "3770932", "postal_hyphen": "377-0932", "pref": "群馬県", "city": "吾妻郡東吾妻町", "town": "萩生", "full": "群馬県吾妻郡東吾妻町萩生"}, {"postal_code": "3770301", "postal_hyphen": "377-0301", "pref": "群馬県", "city": "吾妻郡東吾妻町", "town": "箱島", "full": "群馬県吾妻郡東吾妻町箱島"}, {"postal_code": "3770801", "postal_hyphen": "377-0801", "pref": "群馬県", "city": "吾妻郡東吾妻町", "town": "原町", "full": "群馬県吾妻郡東吾妻町原町"}, {"postal_code": "3770814", "postal_hyphen": "377-0814", "pref": "群馬県", "city": "吾妻郡東吾妻町", "town": "松谷", "full": "群馬県吾妻郡東吾妻町松谷"}, {"postal_code": "3770813", "postal_hyphen": "377-0813", "pref": "群馬県", "city": "吾妻郡東吾妻町", "town": "三島", "full": "群馬県吾妻郡東吾妻町三島"}, {"postal_code": "3770933", "postal_hyphen": "377-0933", "pref": "群馬県", "city": "吾妻郡東吾妻町", "town": "本宿", "full": "群馬県吾妻郡東吾妻町本宿"}, {"postal_code": "3770816", "postal_hyphen": "377-0816", "pref": "群馬県", "city": "吾妻郡東吾妻町", "town": "矢倉", "full": "群馬県吾妻郡東吾妻町矢倉"}, {"postal_code": "3780400", "postal_hyphen": "378-0400", "pref": "群馬県", "city": "利根郡片品村", "town": "", "full": "群馬県利根郡片品村"}, {"postal_code": "3780415", "postal_hyphen": "378-0415", "pref": "群馬県", "city": "利根郡片品村", "town": "鎌田", "full": "群馬県利根郡片品村鎌田"}, {"postal_code": "3780413", "postal_hyphen": "378-0413", "pref": "群馬県", "city": "利根郡片品村", "town": "越本", "full": "群馬県利根郡片品村越本"}, {"postal_code": "3780405", "postal_hyphen": "378-0405", "pref": "群馬県", "city": "利根郡片品村", "town": "下平", "full": "群馬県利根郡片品村下平"}, {"postal_code": "3780401", "postal_hyphen": "378-0401", "pref": "群馬県", "city": "利根郡片品村", "town": "須賀川", "full": "群馬県利根郡片品村須賀川"}, {"postal_code": "3780403", "postal_hyphen": "378-0403", "pref": "群馬県", "city": "利根郡片品村", "town": "菅沼", "full": "群馬県利根郡片品村菅沼"}, {"postal_code": "3780406", "postal_hyphen": "378-0406", "pref": "群馬県", "city": "利根郡片品村", "town": "摺淵", "full": "群馬県利根郡片品村摺淵"}, {"postal_code": "3780404", "postal_hyphen": "378-0404", "pref": "群馬県", "city": "利根郡片品村", "town": "築地", "full": "群馬県利根郡片品村築地"}, {"postal_code": "3780412", "postal_hyphen": "378-0412", "pref": "群馬県", "city": "利根郡片品村", "town": "土出", "full": "群馬県利根郡片品村土出"}, {"postal_code": "3780411", "postal_hyphen": "378-0411", "pref": "群馬県", "city": "利根郡片品村", "town": "戸倉", "full": "群馬県利根郡片品村戸倉"}, {"postal_code": "3780407", "postal_hyphen": "378-0407", "pref": "群馬県", "city": "利根郡片品村", "town": "幡谷", "full": "群馬県利根郡片品村幡谷"}, {"postal_code": "3780408", "postal_hyphen": "378-0408", "pref": "群馬県", "city": "利根郡片品村", "town": "花咲", "full": "群馬県利根郡片品村花咲"}, {"postal_code": "3780409", "postal_hyphen": "378-0409", "pref": "群馬県", "city": "利根郡片品村", "town": "針山", "full": "群馬県利根郡片品村針山"}, {"postal_code": "3780414", "postal_hyphen": "378-0414", "pref": "群馬県", "city": "利根郡片品村", "town": "東小川", "full": "群馬県利根郡片品村東小川"}, {"postal_code": "3780402", "postal_hyphen": "378-0402", "pref": "群馬県", "city": "利根郡片品村", "town": "御座入", "full": "群馬県利根郡片品村御座入"}, {"postal_code": "3780100", "postal_hyphen": "378-0100", "pref": "群馬県", "city": "利根郡川場村", "town": "", "full": "群馬県利根郡川場村"}, {"postal_code": "3780104", "postal_hyphen": "378-0104", "pref": "群馬県", "city": "利根郡川場村", "town": "太田川", "full": "群馬県利根郡川場村太田川"}, {"postal_code": "3780102", "postal_hyphen": "378-0102", "pref": "群馬県", "city": "利根郡川場村", "town": "川場湯原", "full": "群馬県利根郡川場村川場湯原"}, {"postal_code": "3780105", "postal_hyphen": "378-0105", "pref": "群馬県", "city": "利根郡川場村", "town": "小田川", "full": "群馬県利根郡川場村小田川"}, {"postal_code": "3780112", "postal_hyphen": "378-0112", "pref": "群馬県", "city": "利根郡川場村", "town": "立岩", "full": "群馬県利根郡川場村立岩"}, {"postal_code": "3780114", "postal_hyphen": "378-0114", "pref": "群馬県", "city": "利根郡川場村", "town": "天神", "full": "群馬県利根郡川場村天神"}, {"postal_code": "3780103", "postal_hyphen": "378-0103", "pref": "群馬県", "city": "利根郡川場村", "town": "中野", "full": "群馬県利根郡川場村中野"}, {"postal_code": "3780113", "postal_hyphen": "378-0113", "pref": "群馬県", "city": "利根郡川場村", "town": "生品", "full": "群馬県利根郡川場村生品"}, {"postal_code": "3780111", "postal_hyphen": "378-0111", "pref": "群馬県", "city": "利根郡川場村", "town": "萩室", "full": "群馬県利根郡川場村萩室"}, {"postal_code": "3780115", "postal_hyphen": "378-0115", "pref": "群馬県", "city": "利根郡川場村", "town": "門前", "full": "群馬県利根郡川場村門前"}, {"postal_code": "3780101", "postal_hyphen": "378-0101", "pref": "群馬県", "city": "利根郡川場村", "town": "谷地", "full": "群馬県利根郡川場村谷地"}, {"postal_code": "3791200", "postal_hyphen": "379-1200", "pref": "群馬県", "city": "利根郡昭和村", "town": "", "full": "群馬県利根郡昭和村"}, {"postal_code": "3791207", "postal_hyphen": "379-1207", "pref": "群馬県", "city": "利根郡昭和村", "town": "赤城原", "full": "群馬県利根郡昭和村赤城原"}, {"postal_code": "3791203", "postal_hyphen": "379-1203", "pref": "群馬県", "city": "利根郡昭和村", "town": "糸井", "full": "群馬県利根郡昭和村糸井"}, {"postal_code": "3791201", "postal_hyphen": "379-1201", "pref": "群馬県", "city": "利根郡昭和村", "town": "生越", "full": "群馬県利根郡昭和村生越"}, {"postal_code": "3791202", "postal_hyphen": "379-1202", "pref": "群馬県", "city": "利根郡昭和村", "town": "貝野瀬", "full": "群馬県利根郡昭和村貝野瀬"}, {"postal_code": "3791205", "postal_hyphen": "379-1205", "pref": "群馬県", "city": "利根郡昭和村", "town": "川額", "full": "群馬県利根郡昭和村川額"}, {"postal_code": "3791206", "postal_hyphen": "379-1206", "pref": "群馬県", "city": "利根郡昭和村", "town": "橡久保", "full": "群馬県利根郡昭和村橡久保"}, {"postal_code": "3791204", "postal_hyphen": "379-1204", "pref": "群馬県", "city": "利根郡昭和村", "town": "森下", "full": "群馬県利根郡昭和村森下"}, {"postal_code": "3791300", "postal_hyphen": "379-1300", "pref": "群馬県", "city": "利根郡みなかみ町", "town": "", "full": "群馬県利根郡みなかみ町"}, {"postal_code": "3791404", "postal_hyphen": "379-1404", "pref": "群馬県", "city": "利根郡みなかみ町", "town": "相俣", "full": "群馬県利根郡みなかみ町相俣"}, {"postal_code": "3791618", "postal_hyphen": "379-1618", "pref": "群馬県", "city": "利根郡みなかみ町", "town": "阿能川", "full": "群馬県利根郡みなかみ町阿能川"}, {"postal_code": "3791411", "postal_hyphen": "379-1411", "pref": "群馬県", "city": "利根郡みなかみ町", "town": "新巻", "full": "群馬県利根郡みなかみ町新巻"}, {"postal_code": "3791723", "postal_hyphen": "379-1723", "pref": "群馬県", "city": "利根郡みなかみ町", "town": "粟沢", "full": "群馬県利根郡みなかみ町粟沢"}, {"postal_code": "3791311", "postal_hyphen": "379-1311", "pref": "群馬県", "city": "利根郡みなかみ町", "town": "石倉", "full": "群馬県利根郡みなかみ町石倉"}, {"postal_code": "3791416", "postal_hyphen": "379-1416", "pref": "群馬県", "city": "利根郡みなかみ町", "town": "入須川", "full": "群馬県利根郡みなかみ町入須川"}, {"postal_code": "3791727", "postal_hyphen": "379-1727", "pref": "群馬県", "city": "利根郡みなかみ町", "town": "大穴", "full": "群馬県利根郡みなかみ町大穴"}, {"postal_code": "3791302", "postal_hyphen": "379-1302", "pref": "群馬県", "city": "利根郡みなかみ町", "town": "大沼", "full": "群馬県利根郡みなかみ町大沼"}, {"postal_code": "3791312", "postal_hyphen": "379-1312", "pref": "群馬県", "city": "利根郡みなかみ町", "town": "小川", "full": "群馬県利根郡みなかみ町小川"}, {"postal_code": "3791612", "postal_hyphen": "379-1612", "pref": "群馬県", "city": "利根郡みなかみ町", "town": "小日向", "full": "群馬県利根郡みなかみ町小日向"}, {"postal_code": "3791611", "postal_hyphen": "379-1611", "pref": "群馬県", "city": "利根郡みなかみ町", "town": "鹿野沢", "full": "群馬県利根郡みなかみ町鹿野沢"}, {"postal_code": "3791315", "postal_hyphen": "379-1315", "pref": "群馬県", "city": "利根郡みなかみ町", "town": "上津", "full": "群馬県利根郡みなかみ町上津"}, {"postal_code": "3791303", "postal_hyphen": "379-1303", "pref": "群馬県", "city": "利根郡みなかみ町", "town": "上牧", "full": "群馬県利根郡みなかみ町上牧"}, {"postal_code": "3791616", "postal_hyphen": "379-1616", "pref": "群馬県", "city": "利根郡みなかみ町", "town": "川上", "full": "群馬県利根郡みなかみ町川上"}, {"postal_code": "3791726", "postal_hyphen": "379-1726", "pref": "群馬県", "city": "利根郡みなかみ町", "town": "幸知", "full": "群馬県利根郡みなかみ町幸知"}, {"postal_code": "3791305", "postal_hyphen": "379-1305", "pref": "群馬県", "city": "利根郡みなかみ町", "town": "後閑", "full": "群馬県利根郡みなかみ町後閑"}, {"postal_code": "3791615", "postal_hyphen": "379-1615", "pref": "群馬県", "city": "利根郡みなかみ町", "town": "小仁田", "full": "群馬県利根郡みなかみ町小仁田"}, {"postal_code": "3791403", "postal_hyphen": "379-1403", "pref": "群馬県", "city": "利根郡みなかみ町", "town": "猿ヶ京温泉", "full": "群馬県利根郡みなかみ町猿ヶ京温泉"}, {"postal_code": "3791314", "postal_hyphen": "379-1314", "pref": "群馬県", "city": "利根郡みなかみ町", "town": "下津", "full": "群馬県利根郡みなかみ町下津"}, {"postal_code": "3791304", "postal_hyphen": "379-1304", "pref": "群馬県", "city": "利根郡みなかみ町", "town": "下牧", "full": "群馬県利根郡みなかみ町下牧"}, {"postal_code": "3791418", "postal_hyphen": "379-1418", "pref": "群馬県", "city": "利根郡みなかみ町", "town": "須川", "full": "群馬県利根郡みなかみ町須川"}, {"postal_code": "3791613", "postal_hyphen": "379-1613", "pref": "群馬県", "city": "利根郡みなかみ町", "town": "高日向", "full": "群馬県利根郡みなかみ町高日向"}, {"postal_code": "3791619", "postal_hyphen": "379-1619", "pref": "群馬県", "city": "利根郡みなかみ町", "town": "谷川", "full": "群馬県利根郡みなかみ町谷川"}, {"postal_code": "3791313", "postal_hyphen": "379-1313", "pref": "群馬県", "city": "利根郡みなかみ町", "town": "月夜野", "full": "群馬県利根郡みなかみ町月夜野"}, {"postal_code": "3791725", "postal_hyphen": "379-1725", "pref": "群馬県", "city": "利根郡みなかみ町", "town": "綱子", "full": "群馬県利根郡みなかみ町綱子"}, {"postal_code": "3791614", "postal_hyphen": "379-1614", "pref": "群馬県", "city": "利根郡みなかみ町", "town": "寺間", "full": "群馬県利根郡みなかみ町寺間"}, {"postal_code": "3791401", "postal_hyphen": "379-1401", "pref": "群馬県", "city": "利根郡みなかみ町", "town": "永井", "full": "群馬県利根郡みなかみ町永井"}, {"postal_code": "3791301", "postal_hyphen": "379-1301", "pref": "群馬県", "city": "利根郡みなかみ町", "town": "奈女沢", "full": "群馬県利根郡みなかみ町奈女沢"}, {"postal_code": "3791415", "postal_hyphen": "379-1415", "pref": "群馬県", "city": "利根郡みなかみ町", "town": "西峰須川", "full": "群馬県利根郡みなかみ町西峰須川"}, {"postal_code": "3791412", "postal_hyphen": "379-1412", "pref": "群馬県", "city": "利根郡みなかみ町", "town": "羽場", "full": "群馬県利根郡みなかみ町羽場"}, {"postal_code": "3791417", "postal_hyphen": "379-1417", "pref": "群馬県", "city": "利根郡みなかみ町", "town": "東峰", "full": "群馬県利根郡みなかみ町東峰"}, {"postal_code": "3791402", "postal_hyphen": "379-1402", "pref": "群馬県", "city": "利根郡みなかみ町", "town": "吹路", "full": "群馬県利根郡みなかみ町吹路"}, {"postal_code": "3791721", "postal_hyphen": "379-1721", "pref": "群馬県", "city": "利根郡みなかみ町", "town": "藤原", "full": "群馬県利根郡みなかみ町藤原"}, {"postal_code": "3791414", "postal_hyphen": "379-1414", "pref": "群馬県", "city": "利根郡みなかみ町", "town": "布施", "full": "群馬県利根郡みなかみ町布施"}, {"postal_code": "3791308", "postal_hyphen": "379-1308", "pref": "群馬県", "city": "利根郡みなかみ町", "town": "真庭", "full": "群馬県利根郡みなかみ町真庭"}, {"postal_code": "3791307", "postal_hyphen": "379-1307", "pref": "群馬県", "city": "利根郡みなかみ町", "town": "政所", "full": "群馬県利根郡みなかみ町政所"}, {"postal_code": "3791724", "postal_hyphen": "379-1724", "pref": "群馬県", "city": "利根郡みなかみ町", "town": "向山", "full": "群馬県利根郡みなかみ町向山"}, {"postal_code": "3791306", "postal_hyphen": "379-1306", "pref": "群馬県", "city": "利根郡みなかみ町", "town": "師", "full": "群馬県利根郡みなかみ町師"}, {"postal_code": "3791413", "postal_hyphen": "379-1413", "pref": "群馬県", "city": "利根郡みなかみ町", "town": "師田", "full": "群馬県利根郡みなかみ町師田"}, {"postal_code": "3791409", "postal_hyphen": "379-1409", "pref": "群馬県", "city": "利根郡みなかみ町", "town": "湯宿温泉", "full": "群馬県利根郡みなかみ町湯宿温泉"}, {"postal_code": "3791617", "postal_hyphen": "379-1617", "pref": "群馬県", "city": "利根郡みなかみ町", "town": "湯原", "full": "群馬県利根郡みなかみ町湯原"}, {"postal_code": "3791728", "postal_hyphen": "379-1728", "pref": "群馬県", "city": "利根郡みなかみ町", "town": "湯桧曽", "full": "群馬県利根郡みなかみ町湯桧曽"}, {"postal_code": "3791722", "postal_hyphen": "379-1722", "pref": "群馬県", "city": "利根郡みなかみ町", "town": "夜後", "full": "群馬県利根郡みなかみ町夜後"}, {"postal_code": "3791601", "postal_hyphen": "379-1601", "pref": "群馬県", "city": "利根郡みなかみ町", "town": "吉本", "full": "群馬県利根郡みなかみ町吉本"}, {"postal_code": "3701100", "postal_hyphen": "370-1100", "pref": "群馬県", "city": "佐波郡玉村町", "town": "", "full": "群馬県佐波郡玉村町"}, {"postal_code": "3701116", "postal_hyphen": "370-1116", "pref": "群馬県", "city": "佐波郡玉村町", "town": "飯倉", "full": "群馬県佐波郡玉村町飯倉"}, {"postal_code": "3701102", "postal_hyphen": "370-1102", "pref": "群馬県", "city": "佐波郡玉村町", "town": "飯塚", "full": "群馬県佐波郡玉村町飯塚"}, {"postal_code": "3701135", "postal_hyphen": "370-1135", "pref": "群馬県", "city": "佐波郡玉村町", "town": "板井", "full": "群馬県佐波郡玉村町板井"}, {"postal_code": "3701126", "postal_hyphen": "370-1126", "pref": "群馬県", "city": "佐波郡玉村町", "town": "宇貫", "full": "群馬県佐波郡玉村町宇貫"}, {"postal_code": "3701121", "postal_hyphen": "370-1121", "pref": "群馬県", "city": "佐波郡玉村町", "town": "上飯島", "full": "群馬県佐波郡玉村町上飯島"}, {"postal_code": "3701133", "postal_hyphen": "370-1133", "pref": "群馬県", "city": "佐波郡玉村町", "town": "上新田", "full": "群馬県佐波郡玉村町上新田"}, {"postal_code": "3701127", "postal_hyphen": "370-1127", "pref": "群馬県", "city": "佐波郡玉村町", "town": "上之手", "full": "群馬県佐波郡玉村町上之手"}, {"postal_code": "3701104", "postal_hyphen": "370-1104", "pref": "群馬県", "city": "佐波郡玉村町", "town": "上福島", "full": "群馬県佐波郡玉村町上福島"}, {"postal_code": "3701122", "postal_hyphen": "370-1122", "pref": "群馬県", "city": "佐波郡玉村町", "town": "上茂木", "full": "群馬県佐波郡玉村町上茂木"}, {"postal_code": "3701117", "postal_hyphen": "370-1117", "pref": "群馬県", "city": "佐波郡玉村町", "town": "川井", "full": "群馬県佐波郡玉村町川井"}, {"postal_code": "3701114", "postal_hyphen": "370-1114", "pref": "群馬県", "city": "佐波郡玉村町", "town": "小泉", "full": "群馬県佐波郡玉村町小泉"}, {"postal_code": "3701128", "postal_hyphen": "370-1128", "pref": "群馬県", "city": "佐波郡玉村町", "town": "後箇", "full": "群馬県佐波郡玉村町後箇"}, {"postal_code": "3701115", "postal_hyphen": "370-1115", "pref": "群馬県", "city": "佐波郡玉村町", "town": "五料", "full": "群馬県佐波郡玉村町五料"}, {"postal_code": "3701131", "postal_hyphen": "370-1131", "pref": "群馬県", "city": "佐波郡玉村町", "town": "斎田", "full": "群馬県佐波郡玉村町斎田"}, {"postal_code": "3701132", "postal_hyphen": "370-1132", "pref": "群馬県", "city": "佐波郡玉村町", "town": "下新田", "full": "群馬県佐波郡玉村町下新田"}, {"postal_code": "3701112", "postal_hyphen": "370-1112", "pref": "群馬県", "city": "佐波郡玉村町", "town": "下之宮", "full": "群馬県佐波郡玉村町下之宮"}, {"postal_code": "3701123", "postal_hyphen": "370-1123", "pref": "群馬県", "city": "佐波郡玉村町", "town": "下茂木", "full": "群馬県佐波郡玉村町下茂木"}, {"postal_code": "3701124", "postal_hyphen": "370-1124", "pref": "群馬県", "city": "佐波郡玉村町", "town": "角渕", "full": "群馬県佐波郡玉村町角渕"}, {"postal_code": "3701111", "postal_hyphen": "370-1111", "pref": "群馬県", "city": "佐波郡玉村町", "town": "南玉", "full": "群馬県佐波郡玉村町南玉"}, {"postal_code": "3701113", "postal_hyphen": "370-1113", "pref": "群馬県", "city": "佐波郡玉村町", "town": "箱石", "full": "群馬県佐波郡玉村町箱石"}, {"postal_code": "3701103", "postal_hyphen": "370-1103", "pref": "群馬県", "city": "佐波郡玉村町", "town": "樋越", "full": "群馬県佐波郡玉村町樋越"}, {"postal_code": "3701105", "postal_hyphen": "370-1105", "pref": "群馬県", "city": "佐波郡玉村町", "town": "福島", "full": "群馬県佐波郡玉村町福島"}, {"postal_code": "3701101", "postal_hyphen": "370-1101", "pref": "群馬県", "city": "佐波郡玉村町", "town": "藤川", "full": "群馬県佐波郡玉村町藤川"}, {"postal_code": "3701125", "postal_hyphen": "370-1125", "pref": "群馬県", "city": "佐波郡玉村町", "town": "八幡原", "full": "群馬県佐波郡玉村町八幡原"}, {"postal_code": "3701134", "postal_hyphen": "370-1134", "pref": "群馬県", "city": "佐波郡玉村町", "town": "与六分", "full": "群馬県佐波郡玉村町与六分"}, {"postal_code": "3740100", "postal_hyphen": "374-0100", "pref": "群馬県", "city": "邑楽郡板倉町", "town": "", "full": "群馬県邑楽郡板倉町"}, {"postal_code": "3740112", "postal_hyphen": "374-0112", "pref": "群馬県", "city": "邑楽郡板倉町", "town": "朝日野", "full": "群馬県邑楽郡板倉町朝日野"}, {"postal_code": "3740123", "postal_hyphen": "374-0123", "pref": "群馬県", "city": "邑楽郡板倉町", "town": "飯野", "full": "群馬県邑楽郡板倉町飯野"}, {"postal_code": "3740113", "postal_hyphen": "374-0113", "pref": "群馬県", "city": "邑楽郡板倉町", "town": "泉野", "full": "群馬県邑楽郡板倉町泉野"}, {"postal_code": "3740132", "postal_hyphen": "374-0132", "pref": "群馬県", "city": "邑楽郡板倉町", "town": "板倉", "full": "群馬県邑楽郡板倉町板倉"}, {"postal_code": "3740133", "postal_hyphen": "374-0133", "pref": "群馬県", "city": "邑楽郡板倉町", "town": "岩田", "full": "群馬県邑楽郡板倉町岩田"}, {"postal_code": "3740135", "postal_hyphen": "374-0135", "pref": "群馬県", "city": "邑楽郡板倉町", "town": "内蔵新田", "full": "群馬県邑楽郡板倉町内蔵新田"}, {"postal_code": "3740111", "postal_hyphen": "374-0111", "pref": "群馬県", "city": "邑楽郡板倉町", "town": "海老瀬", "full": "群馬県邑楽郡板倉町海老瀬"}, {"postal_code": "3740131", "postal_hyphen": "374-0131", "pref": "群馬県", "city": "邑楽郡板倉町", "town": "大蔵", "full": "群馬県邑楽郡板倉町大蔵"}, {"postal_code": "3740122", "postal_hyphen": "374-0122", "pref": "群馬県", "city": "邑楽郡板倉町", "town": "大高嶋", "full": "群馬県邑楽郡板倉町大高嶋"}, {"postal_code": "3740104", "postal_hyphen": "374-0104", "pref": "群馬県", "city": "邑楽郡板倉町", "town": "大荷場", "full": "群馬県邑楽郡板倉町大荷場"}, {"postal_code": "3740105", "postal_hyphen": "374-0105", "pref": "群馬県", "city": "邑楽郡板倉町", "town": "大曲", "full": "群馬県邑楽郡板倉町大曲"}, {"postal_code": "3740121", "postal_hyphen": "374-0121", "pref": "群馬県", "city": "邑楽郡板倉町", "town": "下五箇", "full": "群馬県邑楽郡板倉町下五箇"}, {"postal_code": "3740107", "postal_hyphen": "374-0107", "pref": "群馬県", "city": "邑楽郡板倉町", "town": "西岡", "full": "群馬県邑楽郡板倉町西岡"}, {"postal_code": "3740106", "postal_hyphen": "374-0106", "pref": "群馬県", "city": "邑楽郡板倉町", "town": "西岡新田", "full": "群馬県邑楽郡板倉町西岡新田"}, {"postal_code": "3740102", "postal_hyphen": "374-0102", "pref": "群馬県", "city": "邑楽郡板倉町", "town": "離", "full": "群馬県邑楽郡板倉町離"}, {"postal_code": "3740103", "postal_hyphen": "374-0103", "pref": "群馬県", "city": "邑楽郡板倉町", "town": "細谷", "full": "群馬県邑楽郡板倉町細谷"}, {"postal_code": "3740134", "postal_hyphen": "374-0134", "pref": "群馬県", "city": "邑楽郡板倉町", "town": "籾谷", "full": "群馬県邑楽郡板倉町籾谷"}, {"postal_code": "3740101", "postal_hyphen": "374-0101", "pref": "群馬県", "city": "邑楽郡板倉町", "town": "除川", "full": "群馬県邑楽郡板倉町除川"}, {"postal_code": "3700700", "postal_hyphen": "370-0700", "pref": "群馬県", "city": "邑楽郡明和町", "town": "", "full": "群馬県邑楽郡明和町"}, {"postal_code": "3700711", "postal_hyphen": "370-0711", "pref": "群馬県", "city": "邑楽郡明和町", "town": "入ケ谷", "full": "群馬県邑楽郡明和町入ケ谷"}, {"postal_code": "3700714", "postal_hyphen": "370-0714", "pref": "群馬県", "city": "邑楽郡明和町", "town": "梅原", "full": "群馬県邑楽郡明和町梅原"}, {"postal_code": "3700706", "postal_hyphen": "370-0706", "pref": "群馬県", "city": "邑楽郡明和町", "town": "江口", "full": "群馬県邑楽郡明和町江口"}, {"postal_code": "3700715", "postal_hyphen": "370-0715", "pref": "群馬県", "city": "邑楽郡明和町", "town": "大佐貫", "full": "群馬県邑楽郡明和町大佐貫"}, {"postal_code": "3700718", "postal_hyphen": "370-0718", "pref": "群馬県", "city": "邑楽郡明和町", "town": "大輪", "full": "群馬県邑楽郡明和町大輪"}, {"postal_code": "3700702", "postal_hyphen": "370-0702", "pref": "群馬県", "city": "邑楽郡明和町", "town": "上江黒", "full": "群馬県邑楽郡明和町上江黒"}, {"postal_code": "3700716", "postal_hyphen": "370-0716", "pref": "群馬県", "city": "邑楽郡明和町", "town": "川俣", "full": "群馬県邑楽郡明和町川俣"}, {"postal_code": "3700703", "postal_hyphen": "370-0703", "pref": "群馬県", "city": "邑楽郡明和町", "town": "下江黒", "full": "群馬県邑楽郡明和町下江黒"}, {"postal_code": "3700717", "postal_hyphen": "370-0717", "pref": "群馬県", "city": "邑楽郡明和町", "town": "須賀", "full": "群馬県邑楽郡明和町須賀"}, {"postal_code": "3700705", "postal_hyphen": "370-0705", "pref": "群馬県", "city": "邑楽郡明和町", "town": "千津井", "full": "群馬県邑楽郡明和町千津井"}, {"postal_code": "3700707", "postal_hyphen": "370-0707", "pref": "群馬県", "city": "邑楽郡明和町", "town": "田島", "full": "群馬県邑楽郡明和町田島"}, {"postal_code": "3700704", "postal_hyphen": "370-0704", "pref": "群馬県", "city": "邑楽郡明和町", "town": "斗合田", "full": "群馬県邑楽郡明和町斗合田"}, {"postal_code": "3700713", "postal_hyphen": "370-0713", "pref": "群馬県", "city": "邑楽郡明和町", "town": "中谷", "full": "群馬県邑楽郡明和町中谷"}, {"postal_code": "3700708", "postal_hyphen": "370-0708", "pref": "群馬県", "city": "邑楽郡明和町", "town": "新里", "full": "群馬県邑楽郡明和町新里"}, {"postal_code": "3700701", "postal_hyphen": "370-0701", "pref": "群馬県", "city": "邑楽郡明和町", "town": "南大島", "full": "群馬県邑楽郡明和町南大島"}, {"postal_code": "3700712", "postal_hyphen": "370-0712", "pref": "群馬県", "city": "邑楽郡明和町", "town": "矢島", "full": "群馬県邑楽郡明和町矢島"}, {"postal_code": "3700500", "postal_hyphen": "370-0500", "pref": "群馬県", "city": "邑楽郡千代田町", "town": "", "full": "群馬県邑楽郡千代田町"}, {"postal_code": "3700503", "postal_hyphen": "370-0503", "pref": "群馬県", "city": "邑楽郡千代田町", "town": "赤岩", "full": "群馬県邑楽郡千代田町赤岩"}, {"postal_code": "3700506", "postal_hyphen": "370-0506", "pref": "群馬県", "city": "邑楽郡千代田町", "town": "赤岩西", "full": "群馬県邑楽郡千代田町赤岩西"}, {"postal_code": "3700726", "postal_hyphen": "370-0726", "pref": "群馬県", "city": "邑楽郡千代田町", "town": "上五箇", "full": "群馬県邑楽郡千代田町上五箇"}, {"postal_code": "3700725", "postal_hyphen": "370-0725", "pref": "群馬県", "city": "邑楽郡千代田町", "town": "上中森", "full": "群馬県邑楽郡千代田町上中森"}, {"postal_code": "3700722", "postal_hyphen": "370-0722", "pref": "群馬県", "city": "邑楽郡千代田町", "town": "萱野", "full": "群馬県邑楽郡千代田町萱野"}, {"postal_code": "3700721", "postal_hyphen": "370-0721", "pref": "群馬県", "city": "邑楽郡千代田町", "town": "木崎", "full": "群馬県邑楽郡千代田町木崎"}, {"postal_code": "3700724", "postal_hyphen": "370-0724", "pref": "群馬県", "city": "邑楽郡千代田町", "town": "下中森", "full": "群馬県邑楽郡千代田町下中森"}, {"postal_code": "3700723", "postal_hyphen": "370-0723", "pref": "群馬県", "city": "邑楽郡千代田町", "town": "昭和", "full": "群馬県邑楽郡千代田町昭和"}, {"postal_code": "3700505", "postal_hyphen": "370-0505", "pref": "群馬県", "city": "邑楽郡千代田町", "town": "新福寺", "full": "群馬県邑楽郡千代田町新福寺"}, {"postal_code": "3700727", "postal_hyphen": "370-0727", "pref": "群馬県", "city": "邑楽郡千代田町", "town": "瀬戸井", "full": "群馬県邑楽郡千代田町瀬戸井"}, {"postal_code": "3700502", "postal_hyphen": "370-0502", "pref": "群馬県", "city": "邑楽郡千代田町", "town": "鍋谷", "full": "群馬県邑楽郡千代田町鍋谷"}, {"postal_code": "3700501", "postal_hyphen": "370-0501", "pref": "群馬県", "city": "邑楽郡千代田町", "town": "福島", "full": "群馬県邑楽郡千代田町福島"}, {"postal_code": "3700504", "postal_hyphen": "370-0504", "pref": "群馬県", "city": "邑楽郡千代田町", "town": "舞木", "full": "群馬県邑楽郡千代田町舞木"}, {"postal_code": "3700507", "postal_hyphen": "370-0507", "pref": "群馬県", "city": "邑楽郡千代田町", "town": "舞木東", "full": "群馬県邑楽郡千代田町舞木東"}, {"postal_code": "3700500", "postal_hyphen": "370-0500", "pref": "群馬県", "city": "邑楽郡大泉町", "town": "", "full": "群馬県邑楽郡大泉町"}, {"postal_code": "3700514", "postal_hyphen": "370-0514", "pref": "群馬県", "city": "邑楽郡大泉町", "town": "朝日", "full": "群馬県邑楽郡大泉町朝日"}, {"postal_code": "3700531", "postal_hyphen": "370-0531", "pref": "群馬県", "city": "邑楽郡大泉町", "town": "いずみ", "full": "群馬県邑楽郡大泉町いずみ"}, {"postal_code": "3700534", "postal_hyphen": "370-0534", "pref": "群馬県", "city": "邑楽郡大泉町", "town": "丘山", "full": "群馬県邑楽郡大泉町丘山"}, {"postal_code": "3700512", "postal_hyphen": "370-0512", "pref": "群馬県", "city": "邑楽郡大泉町", "town": "上小泉", "full": "群馬県邑楽郡大泉町上小泉"}, {"postal_code": "3700511", "postal_hyphen": "370-0511", "pref": "群馬県", "city": "邑楽郡大泉町", "town": "北小泉", "full": "群馬県邑楽郡大泉町北小泉"}, {"postal_code": "3700524", "postal_hyphen": "370-0524", "pref": "群馬県", "city": "邑楽郡大泉町", "town": "古海", "full": "群馬県邑楽郡大泉町古海"}, {"postal_code": "3700532", "postal_hyphen": "370-0532", "pref": "群馬県", "city": "邑楽郡大泉町", "town": "坂田", "full": "群馬県邑楽郡大泉町坂田"}, {"postal_code": "3700515", "postal_hyphen": "370-0515", "pref": "群馬県", "city": "邑楽郡大泉町", "town": "下小泉", "full": "群馬県邑楽郡大泉町下小泉"}, {"postal_code": "3700518", "postal_hyphen": "370-0518", "pref": "群馬県", "city": "邑楽郡大泉町", "town": "城之内", "full": "群馬県邑楽郡大泉町城之内"}, {"postal_code": "3700521", "postal_hyphen": "370-0521", "pref": "群馬県", "city": "邑楽郡大泉町", "town": "住吉", "full": "群馬県邑楽郡大泉町住吉"}, {"postal_code": "3700533", "postal_hyphen": "370-0533", "pref": "群馬県", "city": "邑楽郡大泉町", "town": "仙石", "full": "群馬県邑楽郡大泉町仙石"}, {"postal_code": "3700516", "postal_hyphen": "370-0516", "pref": "群馬県", "city": "邑楽郡大泉町", "town": "中央", "full": "群馬県邑楽郡大泉町中央"}, {"postal_code": "3700517", "postal_hyphen": "370-0517", "pref": "群馬県", "city": "邑楽郡大泉町", "town": "西小泉", "full": "群馬県邑楽郡大泉町西小泉"}, {"postal_code": "3700513", "postal_hyphen": "370-0513", "pref": "群馬県", "city": "邑楽郡大泉町", "town": "東小泉", "full": "群馬県邑楽郡大泉町東小泉"}, {"postal_code": "3700525", "postal_hyphen": "370-0525", "pref": "群馬県", "city": "邑楽郡大泉町", "town": "日の出", "full": "群馬県邑楽郡大泉町日の出"}, {"postal_code": "3700522", "postal_hyphen": "370-0522", "pref": "群馬県", "city": "邑楽郡大泉町", "town": "富士", "full": "群馬県邑楽郡大泉町富士"}, {"postal_code": "3700536", "postal_hyphen": "370-0536", "pref": "群馬県", "city": "邑楽郡大泉町", "town": "古氷", "full": "群馬県邑楽郡大泉町古氷"}, {"postal_code": "3700523", "postal_hyphen": "370-0523", "pref": "群馬県", "city": "邑楽郡大泉町", "town": "吉田", "full": "群馬県邑楽郡大泉町吉田"}, {"postal_code": "3700535", "postal_hyphen": "370-0535", "pref": "群馬県", "city": "邑楽郡大泉町", "town": "寄木戸", "full": "群馬県邑楽郡大泉町寄木戸"}, {"postal_code": "3700600", "postal_hyphen": "370-0600", "pref": "群馬県", "city": "邑楽郡邑楽町", "town": "", "full": "群馬県邑楽郡邑楽町"}, {"postal_code": "3700614", "postal_hyphen": "370-0614", "pref": "群馬県", "city": "邑楽郡邑楽町", "town": "赤堀", "full": "群馬県邑楽郡邑楽町赤堀"}, {"postal_code": "3700606", "postal_hyphen": "370-0606", "pref": "群馬県", "city": "邑楽郡邑楽町", "town": "秋妻", "full": "群馬県邑楽郡邑楽町秋妻"}, {"postal_code": "3700602", "postal_hyphen": "370-0602", "pref": "群馬県", "city": "邑楽郡邑楽町", "town": "明野", "full": "群馬県邑楽郡邑楽町明野"}, {"postal_code": "3700604", "postal_hyphen": "370-0604", "pref": "群馬県", "city": "邑楽郡邑楽町", "town": "石打", "full": "群馬県邑楽郡邑楽町石打"}, {"postal_code": "3700601", "postal_hyphen": "370-0601", "pref": "群馬県", "city": "邑楽郡邑楽町", "town": "鶉", "full": "群馬県邑楽郡邑楽町鶉"}, {"postal_code": "3700611", "postal_hyphen": "370-0611", "pref": "群馬県", "city": "邑楽郡邑楽町", "town": "鶉新田", "full": "群馬県邑楽郡邑楽町鶉新田"}, {"postal_code": "3700616", "postal_hyphen": "370-0616", "pref": "群馬県", "city": "邑楽郡邑楽町", "town": "光善寺", "full": "群馬県邑楽郡邑楽町光善寺"}, {"postal_code": "3700615", "postal_hyphen": "370-0615", "pref": "群馬県", "city": "邑楽郡邑楽町", "town": "篠塚", "full": "群馬県邑楽郡邑楽町篠塚"}, {"postal_code": "3700612", "postal_hyphen": "370-0612", "pref": "群馬県", "city": "邑楽郡邑楽町", "town": "新中野", "full": "群馬県邑楽郡邑楽町新中野"}, {"postal_code": "3700603", "postal_hyphen": "370-0603", "pref": "群馬県", "city": "邑楽郡邑楽町", "town": "中野", "full": "群馬県邑楽郡邑楽町中野"}, {"postal_code": "3700605", "postal_hyphen": "370-0605", "pref": "群馬県", "city": "邑楽郡邑楽町", "town": "藤川", "full": "群馬県邑楽郡邑楽町藤川"}, {"postal_code": "3700613", "postal_hyphen": "370-0613", "pref": "群馬県", "city": "邑楽郡邑楽町", "town": "狸塚", "full": "群馬県邑楽郡邑楽町狸塚"}]