[{"postal_code": "6800000", "postal_hyphen": "680-0000", "pref": "鳥取県", "city": "鳥取市", "town": "", "full": "鳥取県鳥取市"}, {"postal_code": "6800805", "postal_hyphen": "680-0805", "pref": "鳥取県", "city": "鳥取市", "town": "相生町", "full": "鳥取県鳥取市相生町"}, {"postal_code": "6800802", "postal_hyphen": "680-0802", "pref": "鳥取県", "city": "鳥取市", "town": "青葉町", "full": "鳥取県鳥取市青葉町"}, {"postal_code": "6890501", "postal_hyphen": "689-0501", "pref": "鳥取県", "city": "鳥取市", "town": "青谷町青谷", "full": "鳥取県鳥取市青谷町青谷"}, {"postal_code": "6890535", "postal_hyphen": "689-0535", "pref": "鳥取県", "city": "鳥取市", "town": "青谷町井手", "full": "鳥取県鳥取市青谷町井手"}, {"postal_code": "6890518", "postal_hyphen": "689-0518", "pref": "鳥取県", "city": "鳥取市", "town": "青谷町大坪", "full": "鳥取県鳥取市青谷町大坪"}, {"postal_code": "6890519", "postal_hyphen": "689-0519", "pref": "鳥取県", "city": "鳥取市", "town": "青谷町奥崎", "full": "鳥取県鳥取市青谷町奥崎"}, {"postal_code": "6890516", "postal_hyphen": "689-0516", "pref": "鳥取県", "city": "鳥取市", "town": "青谷町小畑", "full": "鳥取県鳥取市青谷町小畑"}, {"postal_code": "6890526", "postal_hyphen": "689-0526", "pref": "鳥取県", "city": "鳥取市", "town": "青谷町紙屋", "full": "鳥取県鳥取市青谷町紙屋"}, {"postal_code": "6890522", "postal_hyphen": "689-0522", "pref": "鳥取県", "city": "鳥取市", "town": "青谷町亀尻", "full": "鳥取県鳥取市青谷町亀尻"}, {"postal_code": "6890515", "postal_hyphen": "689-0515", "pref": "鳥取県", "city": "鳥取市", "town": "青谷町河原", "full": "鳥取県鳥取市青谷町河原"}, {"postal_code": "6890532", "postal_hyphen": "689-0532", "pref": "鳥取県", "city": "鳥取市", "town": "青谷町北河原", "full": "鳥取県鳥取市青谷町北河原"}, {"postal_code": "6890533", "postal_hyphen": "689-0533", "pref": "鳥取県", "city": "鳥取市", "town": "青谷町絹見", "full": "鳥取県鳥取市青谷町絹見"}, {"postal_code": "6890527", "postal_hyphen": "689-0527", "pref": "鳥取県", "city": "鳥取市", "town": "青谷町楠根", "full": "鳥取県鳥取市青谷町楠根"}, {"postal_code": "6890513", "postal_hyphen": "689-0513", "pref": "鳥取県", "city": "鳥取市", "town": "青谷町蔵内", "full": "鳥取県鳥取市青谷町蔵内"}, {"postal_code": "6890529", "postal_hyphen": "689-0529", "pref": "鳥取県", "city": "鳥取市", "town": "青谷町桑原", "full": "鳥取県鳥取市青谷町桑原"}, {"postal_code": "6890537", "postal_hyphen": "689-0537", "pref": "鳥取県", "city": "鳥取市", "town": "青谷町栄町", "full": "鳥取県鳥取市青谷町栄町"}, {"postal_code": "6890528", "postal_hyphen": "689-0528", "pref": "鳥取県", "city": "鳥取市", "town": "青谷町澄水", "full": "鳥取県鳥取市青谷町澄水"}, {"postal_code": "6890525", "postal_hyphen": "689-0525", "pref": "鳥取県", "city": "鳥取市", "town": "青谷町田原谷", "full": "鳥取県鳥取市青谷町田原谷"}, {"postal_code": "6890521", "postal_hyphen": "689-0521", "pref": "鳥取県", "city": "鳥取市", "town": "青谷町露谷", "full": "鳥取県鳥取市青谷町露谷"}, {"postal_code": "6890536", "postal_hyphen": "689-0536", "pref": "鳥取県", "city": "鳥取市", "town": "青谷町長和瀬", "full": "鳥取県鳥取市青谷町長和瀬"}, {"postal_code": "6890531", "postal_hyphen": "689-0531", "pref": "鳥取県", "city": "鳥取市", "town": "青谷町鳴滝", "full": "鳥取県鳥取市青谷町鳴滝"}, {"postal_code": "6890524", "postal_hyphen": "689-0524", "pref": "鳥取県", "city": "鳥取市", "town": "青谷町八葉寺", "full": "鳥取県鳥取市青谷町八葉寺"}, {"postal_code": "6890517", "postal_hyphen": "689-0517", "pref": "鳥取県", "city": "鳥取市", "town": "青谷町早牛", "full": "鳥取県鳥取市青谷町早牛"}, {"postal_code": "6890523", "postal_hyphen": "689-0523", "pref": "鳥取県", "city": "鳥取市", "town": "青谷町山田", "full": "鳥取県鳥取市青谷町山田"}, {"postal_code": "6890514", "postal_hyphen": "689-0514", "pref": "鳥取県", "city": "鳥取市", "town": "青谷町山根", "full": "鳥取県鳥取市青谷町山根"}, {"postal_code": "6890512", "postal_hyphen": "689-0512", "pref": "鳥取県", "city": "鳥取市", "town": "青谷町養郷", "full": "鳥取県鳥取市青谷町養郷"}, {"postal_code": "6890534", "postal_hyphen": "689-0534", "pref": "鳥取県", "city": "鳥取市", "town": "青谷町吉川", "full": "鳥取県鳥取市青谷町吉川"}, {"postal_code": "6890511", "postal_hyphen": "689-0511", "pref": "鳥取県", "city": "鳥取市", "town": "青谷町善田", "full": "鳥取県鳥取市青谷町善田"}, {"postal_code": "6800902", "postal_hyphen": "680-0902", "pref": "鳥取県", "city": "鳥取市", "town": "秋里", "full": "鳥取県鳥取市秋里"}, {"postal_code": "6801146", "postal_hyphen": "680-1146", "pref": "鳥取県", "city": "鳥取市", "town": "赤子田", "full": "鳥取県鳥取市赤子田"}, {"postal_code": "6801166", "postal_hyphen": "680-1166", "pref": "鳥取県", "city": "鳥取市", "town": "朝月", "full": "鳥取県鳥取市朝月"}, {"postal_code": "6801176", "postal_hyphen": "680-1176", "pref": "鳥取県", "city": "鳥取市", "town": "有富", "full": "鳥取県鳥取市有富"}, {"postal_code": "6801164", "postal_hyphen": "680-1164", "pref": "鳥取県", "city": "鳥取市", "town": "猪子", "full": "鳥取県鳥取市猪子"}, {"postal_code": "6800822", "postal_hyphen": "680-0822", "pref": "鳥取県", "city": "鳥取市", "town": "今町", "full": "鳥取県鳥取市今町"}, {"postal_code": "6800081", "postal_hyphen": "680-0081", "pref": "鳥取県", "city": "鳥取市", "town": "岩倉", "full": "鳥取県鳥取市岩倉"}, {"postal_code": "6801157", "postal_hyphen": "680-1157", "pref": "鳥取県", "city": "鳥取市", "town": "岩坪", "full": "鳥取県鳥取市岩坪"}, {"postal_code": "6800931", "postal_hyphen": "680-0931", "pref": "鳥取県", "city": "鳥取市", "town": "岩吉", "full": "鳥取県鳥取市岩吉"}, {"postal_code": "6801422", "postal_hyphen": "680-1422", "pref": "鳥取県", "city": "鳥取市", "town": "上原", "full": "鳥取県鳥取市上原"}, {"postal_code": "6800015", "postal_hyphen": "680-0015", "pref": "鳥取県", "city": "鳥取市", "town": "上町", "full": "鳥取県鳥取市上町"}, {"postal_code": "6890205", "postal_hyphen": "689-0205", "pref": "鳥取県", "city": "鳥取市", "town": "内海中", "full": "鳥取県鳥取市内海中"}, {"postal_code": "6800834", "postal_hyphen": "680-0834", "pref": "鳥取県", "city": "鳥取市", "town": "永楽温泉町", "full": "鳥取県鳥取市永楽温泉町"}, {"postal_code": "6800013", "postal_hyphen": "680-0013", "pref": "鳥取県", "city": "鳥取市", "town": "江崎町", "full": "鳥取県鳥取市江崎町"}, {"postal_code": "6800901", "postal_hyphen": "680-0901", "pref": "鳥取県", "city": "鳥取市", "town": "江津", "full": "鳥取県鳥取市江津"}, {"postal_code": "6800055", "postal_hyphen": "680-0055", "pref": "鳥取県", "city": "鳥取市", "town": "戎町", "full": "鳥取県鳥取市戎町"}, {"postal_code": "6800005", "postal_hyphen": "680-0005", "pref": "鳥取県", "city": "鳥取市", "town": "円護寺", "full": "鳥取県鳥取市円護寺"}, {"postal_code": "6801144", "postal_hyphen": "680-1144", "pref": "鳥取県", "city": "鳥取市", "town": "円通寺", "full": "鳥取県鳥取市円通寺"}, {"postal_code": "6800846", "postal_hyphen": "680-0846", "pref": "鳥取県", "city": "鳥取市", "town": "扇町", "full": "鳥取県鳥取市扇町"}, {"postal_code": "6800043", "postal_hyphen": "680-0043", "pref": "鳥取県", "city": "鳥取市", "town": "大榎町", "full": "鳥取県鳥取市大榎町"}, {"postal_code": "6800851", "postal_hyphen": "680-0851", "pref": "鳥取県", "city": "鳥取市", "town": "大杙", "full": "鳥取県鳥取市大杙"}, {"postal_code": "6801415", "postal_hyphen": "680-1415", "pref": "鳥取県", "city": "鳥取市", "town": "大塚", "full": "鳥取県鳥取市大塚"}, {"postal_code": "6801437", "postal_hyphen": "680-1437", "pref": "鳥取県", "city": "鳥取市", "town": "大畑", "full": "鳥取県鳥取市大畑"}, {"postal_code": "6800904", "postal_hyphen": "680-0904", "pref": "鳥取県", "city": "鳥取市", "town": "晩稲", "full": "鳥取県鳥取市晩稲"}, {"postal_code": "6800054", "postal_hyphen": "680-0054", "pref": "鳥取県", "city": "鳥取市", "town": "桶屋町", "full": "鳥取県鳥取市桶屋町"}, {"postal_code": "6801427", "postal_hyphen": "680-1427", "pref": "鳥取県", "city": "鳥取市", "town": "尾崎", "full": "鳥取県鳥取市尾崎"}, {"postal_code": "6800855", "postal_hyphen": "680-0855", "pref": "鳥取県", "city": "鳥取市", "town": "面影", "full": "鳥取県鳥取市面影"}, {"postal_code": "6800044", "postal_hyphen": "680-0044", "pref": "鳥取県", "city": "鳥取市", "town": "御弓町", "full": "鳥取県鳥取市御弓町"}, {"postal_code": "6891117", "postal_hyphen": "689-1117", "pref": "鳥取県", "city": "鳥取市", "town": "海蔵寺", "full": "鳥取県鳥取市海蔵寺"}, {"postal_code": "6800003", "postal_hyphen": "680-0003", "pref": "鳥取県", "city": "鳥取市", "town": "覚寺", "full": "鳥取県鳥取市覚寺"}, {"postal_code": "6800041", "postal_hyphen": "680-0041", "pref": "鳥取県", "city": "鳥取市", "town": "掛出町", "full": "鳥取県鳥取市掛出町"}, {"postal_code": "6891115", "postal_hyphen": "689-1115", "pref": "鳥取県", "city": "鳥取市", "town": "紙子谷", "full": "鳥取県鳥取市紙子谷"}, {"postal_code": "6800052", "postal_hyphen": "680-0052", "pref": "鳥取県", "city": "鳥取市", "town": "鍛冶町", "full": "鳥取県鳥取市鍛冶町"}, {"postal_code": "6800023", "postal_hyphen": "680-0023", "pref": "鳥取県", "city": "鳥取市", "town": "片原", "full": "鳥取県鳥取市片原"}, {"postal_code": "6891104", "postal_hyphen": "689-1104", "pref": "鳥取県", "city": "鳥取市", "town": "桂木", "full": "鳥取県鳥取市桂木"}, {"postal_code": "6801417", "postal_hyphen": "680-1417", "pref": "鳥取県", "city": "鳥取市", "town": "桂見", "full": "鳥取県鳥取市桂見"}, {"postal_code": "6891114", "postal_hyphen": "689-1114", "pref": "鳥取県", "city": "鳥取市", "town": "香取", "full": "鳥取県鳥取市香取"}, {"postal_code": "6801439", "postal_hyphen": "680-1439", "pref": "鳥取県", "city": "鳥取市", "town": "金沢", "full": "鳥取県鳥取市金沢"}, {"postal_code": "6800874", "postal_hyphen": "680-0874", "pref": "鳥取県", "city": "鳥取市", "town": "叶", "full": "鳥取県鳥取市叶"}, {"postal_code": "6801167", "postal_hyphen": "680-1167", "pref": "鳥取県", "city": "鳥取市", "town": "上味野", "full": "鳥取県鳥取市上味野"}, {"postal_code": "6800047", "postal_hyphen": "680-0047", "pref": "鳥取県", "city": "鳥取市", "town": "上魚町", "full": "鳥取県鳥取市上魚町"}, {"postal_code": "6801156", "postal_hyphen": "680-1156", "pref": "鳥取県", "city": "鳥取市", "town": "上砂見", "full": "鳥取県鳥取市上砂見"}, {"postal_code": "6801421", "postal_hyphen": "680-1421", "pref": "鳥取県", "city": "鳥取市", "town": "上段", "full": "鳥取県鳥取市上段"}, {"postal_code": "6800905", "postal_hyphen": "680-0905", "pref": "鳥取県", "city": "鳥取市", "town": "賀露町", "full": "鳥取県鳥取市賀露町"}, {"postal_code": "6800907", "postal_hyphen": "680-0907", "pref": "鳥取県", "city": "鳥取市", "town": "賀露町北", "full": "鳥取県鳥取市賀露町北"}, {"postal_code": "6800908", "postal_hyphen": "680-0908", "pref": "鳥取県", "city": "鳥取市", "town": "賀露町西", "full": "鳥取県鳥取市賀露町西"}, {"postal_code": "6800909", "postal_hyphen": "680-0909", "pref": "鳥取県", "city": "鳥取市", "town": "賀露町南", "full": "鳥取県鳥取市賀露町南"}, {"postal_code": "6800036", "postal_hyphen": "680-0036", "pref": "鳥取県", "city": "鳥取市", "town": "川端", "full": "鳥取県鳥取市川端"}, {"postal_code": "6801208", "postal_hyphen": "680-1208", "pref": "鳥取県", "city": "鳥取市", "town": "河原町鮎ケ丘", "full": "鳥取県鳥取市河原町鮎ケ丘"}, {"postal_code": "6801203", "postal_hyphen": "680-1203", "pref": "鳥取県", "city": "鳥取市", "town": "河原町稲常", "full": "鳥取県鳥取市河原町稲常"}, {"postal_code": "6801205", "postal_hyphen": "680-1205", "pref": "鳥取県", "city": "鳥取市", "town": "河原町今在家", "full": "鳥取県鳥取市河原町今在家"}, {"postal_code": "6801225", "postal_hyphen": "680-1225", "pref": "鳥取県", "city": "鳥取市", "town": "河原町牛戸", "full": "鳥取県鳥取市河原町牛戸"}, {"postal_code": "6801245", "postal_hyphen": "680-1245", "pref": "鳥取県", "city": "鳥取市", "town": "河原町小倉", "full": "鳥取県鳥取市河原町小倉"}, {"postal_code": "6801253", "postal_hyphen": "680-1253", "pref": "鳥取県", "city": "鳥取市", "town": "河原町小河内", "full": "鳥取県鳥取市河原町小河内"}, {"postal_code": "6801232", "postal_hyphen": "680-1232", "pref": "鳥取県", "city": "鳥取市", "town": "河原町小畑", "full": "鳥取県鳥取市河原町小畑"}, {"postal_code": "6801204", "postal_hyphen": "680-1204", "pref": "鳥取県", "city": "鳥取市", "town": "河原町片山", "full": "鳥取県鳥取市河原町片山"}, {"postal_code": "6801216", "postal_hyphen": "680-1216", "pref": "鳥取県", "city": "鳥取市", "town": "河原町釜口", "full": "鳥取県鳥取市河原町釜口"}, {"postal_code": "6801251", "postal_hyphen": "680-1251", "pref": "鳥取県", "city": "鳥取市", "town": "河原町河原", "full": "鳥取県鳥取市河原町河原"}, {"postal_code": "6801254", "postal_hyphen": "680-1254", "pref": "鳥取県", "city": "鳥取市", "town": "河原町神馬", "full": "鳥取県鳥取市河原町神馬"}, {"postal_code": "6801234", "postal_hyphen": "680-1234", "pref": "鳥取県", "city": "鳥取市", "town": "河原町北村", "full": "鳥取県鳥取市河原町北村"}, {"postal_code": "6801207", "postal_hyphen": "680-1207", "pref": "鳥取県", "city": "鳥取市", "town": "河原町郷原", "full": "鳥取県鳥取市河原町郷原"}, {"postal_code": "6801243", "postal_hyphen": "680-1243", "pref": "鳥取県", "city": "鳥取市", "town": "河原町佐貫", "full": "鳥取県鳥取市河原町佐貫"}, {"postal_code": "6801213", "postal_hyphen": "680-1213", "pref": "鳥取県", "city": "鳥取市", "town": "河原町高福", "full": "鳥取県鳥取市河原町高福"}, {"postal_code": "6801242", "postal_hyphen": "680-1242", "pref": "鳥取県", "city": "鳥取市", "town": "河原町谷一木", "full": "鳥取県鳥取市河原町谷一木"}, {"postal_code": "6801223", "postal_hyphen": "680-1223", "pref": "鳥取県", "city": "鳥取市", "town": "河原町天神原", "full": "鳥取県鳥取市河原町天神原"}, {"postal_code": "6801212", "postal_hyphen": "680-1212", "pref": "鳥取県", "city": "鳥取市", "town": "河原町徳吉", "full": "鳥取県鳥取市河原町徳吉"}, {"postal_code": "6801224", "postal_hyphen": "680-1224", "pref": "鳥取県", "city": "鳥取市", "town": "河原町中井", "full": "鳥取県鳥取市河原町中井"}, {"postal_code": "6801241", "postal_hyphen": "680-1241", "pref": "鳥取県", "city": "鳥取市", "town": "河原町長瀬", "full": "鳥取県鳥取市河原町長瀬"}, {"postal_code": "6801209", "postal_hyphen": "680-1209", "pref": "鳥取県", "city": "鳥取市", "town": "河原町西円通寺", "full": "鳥取県鳥取市河原町西円通寺"}, {"postal_code": "6801222", "postal_hyphen": "680-1222", "pref": "鳥取県", "city": "鳥取市", "town": "河原町曳田", "full": "鳥取県鳥取市河原町曳田"}, {"postal_code": "6801201", "postal_hyphen": "680-1201", "pref": "鳥取県", "city": "鳥取市", "town": "河原町袋河原", "full": "鳥取県鳥取市河原町袋河原"}, {"postal_code": "6801202", "postal_hyphen": "680-1202", "pref": "鳥取県", "city": "鳥取市", "town": "河原町布袋", "full": "鳥取県鳥取市河原町布袋"}, {"postal_code": "6801252", "postal_hyphen": "680-1252", "pref": "鳥取県", "city": "鳥取市", "town": "河原町本鹿", "full": "鳥取県鳥取市河原町本鹿"}, {"postal_code": "6801244", "postal_hyphen": "680-1244", "pref": "鳥取県", "city": "鳥取市", "town": "河原町水根", "full": "鳥取県鳥取市河原町水根"}, {"postal_code": "6801206", "postal_hyphen": "680-1206", "pref": "鳥取県", "city": "鳥取市", "town": "河原町三谷", "full": "鳥取県鳥取市河原町三谷"}, {"postal_code": "6801246", "postal_hyphen": "680-1246", "pref": "鳥取県", "city": "鳥取市", "town": "河原町山上", "full": "鳥取県鳥取市河原町山上"}, {"postal_code": "6801211", "postal_hyphen": "680-1211", "pref": "鳥取県", "city": "鳥取市", "town": "河原町山手", "full": "鳥取県鳥取市河原町山手"}, {"postal_code": "6801231", "postal_hyphen": "680-1231", "pref": "鳥取県", "city": "鳥取市", "town": "河原町湯谷", "full": "鳥取県鳥取市河原町湯谷"}, {"postal_code": "6801233", "postal_hyphen": "680-1233", "pref": "鳥取県", "city": "鳥取市", "town": "河原町弓河内", "full": "鳥取県鳥取市河原町弓河内"}, {"postal_code": "6801214", "postal_hyphen": "680-1214", "pref": "鳥取県", "city": "鳥取市", "town": "河原町八日市", "full": "鳥取県鳥取市河原町八日市"}, {"postal_code": "6801221", "postal_hyphen": "680-1221", "pref": "鳥取県", "city": "鳥取市", "town": "河原町渡一木", "full": "鳥取県鳥取市河原町渡一木"}, {"postal_code": "6801215", "postal_hyphen": "680-1215", "pref": "鳥取県", "city": "鳥取市", "town": "河原町和奈見", "full": "鳥取県鳥取市河原町和奈見"}, {"postal_code": "6800821", "postal_hyphen": "680-0821", "pref": "鳥取県", "city": "鳥取市", "town": "瓦町", "full": "鳥取県鳥取市瓦町"}, {"postal_code": "6800004", "postal_hyphen": "680-0004", "pref": "鳥取県", "city": "鳥取市", "town": "北園", "full": "鳥取県鳥取市北園"}, {"postal_code": "6801172", "postal_hyphen": "680-1172", "pref": "鳥取県", "city": "鳥取市", "town": "北村", "full": "鳥取県鳥取市北村"}, {"postal_code": "6800824", "postal_hyphen": "680-0824", "pref": "鳥取県", "city": "鳥取市", "town": "行徳", "full": "鳥取県鳥取市行徳"}, {"postal_code": "6801132", "postal_hyphen": "680-1132", "pref": "鳥取県", "city": "鳥取市", "town": "国安", "full": "鳥取県鳥取市国安"}, {"postal_code": "6800862", "postal_hyphen": "680-0862", "pref": "鳥取県", "city": "鳥取市", "town": "雲山", "full": "鳥取県鳥取市雲山"}, {"postal_code": "6801141", "postal_hyphen": "680-1141", "pref": "鳥取県", "city": "鳥取市", "town": "蔵田", "full": "鳥取県鳥取市蔵田"}, {"postal_code": "6800012", "postal_hyphen": "680-0012", "pref": "鳥取県", "city": "鳥取市", "town": "栗谷町", "full": "鳥取県鳥取市栗谷町"}, {"postal_code": "6890343", "postal_hyphen": "689-0343", "pref": "鳥取県", "city": "鳥取市", "town": "気高町飯里", "full": "鳥取県鳥取市気高町飯里"}, {"postal_code": "6890355", "postal_hyphen": "689-0355", "pref": "鳥取県", "city": "鳥取市", "town": "気高町会下", "full": "鳥取県鳥取市気高町会下"}, {"postal_code": "6890211", "postal_hyphen": "689-0211", "pref": "鳥取県", "city": "鳥取市", "town": "気高町奥沢見", "full": "鳥取県鳥取市気高町奥沢見"}, {"postal_code": "6890341", "postal_hyphen": "689-0341", "pref": "鳥取県", "city": "鳥取市", "town": "気高町下石", "full": "鳥取県鳥取市気高町下石"}, {"postal_code": "6890332", "postal_hyphen": "689-0332", "pref": "鳥取県", "city": "鳥取市", "town": "気高町勝見", "full": "鳥取県鳥取市気高町勝見"}, {"postal_code": "6890214", "postal_hyphen": "689-0214", "pref": "鳥取県", "city": "鳥取市", "town": "気高町上光", "full": "鳥取県鳥取市気高町上光"}, {"postal_code": "6890344", "postal_hyphen": "689-0344", "pref": "鳥取県", "city": "鳥取市", "town": "気高町上原", "full": "鳥取県鳥取市気高町上原"}, {"postal_code": "6890334", "postal_hyphen": "689-0334", "pref": "鳥取県", "city": "鳥取市", "town": "気高町北浜", "full": "鳥取県鳥取市気高町北浜"}, {"postal_code": "6890353", "postal_hyphen": "689-0353", "pref": "鳥取県", "city": "鳥取市", "town": "気高町郡家", "full": "鳥取県鳥取市気高町郡家"}, {"postal_code": "6890217", "postal_hyphen": "689-0217", "pref": "鳥取県", "city": "鳥取市", "town": "気高町酒津", "full": "鳥取県鳥取市気高町酒津"}, {"postal_code": "6890224", "postal_hyphen": "689-0224", "pref": "鳥取県", "city": "鳥取市", "town": "気高町重高", "full": "鳥取県鳥取市気高町重高"}, {"postal_code": "6890221", "postal_hyphen": "689-0221", "pref": "鳥取県", "city": "鳥取市", "town": "気高町下坂本", "full": "鳥取県鳥取市気高町下坂本"}, {"postal_code": "6890356", "postal_hyphen": "689-0356", "pref": "鳥取県", "city": "鳥取市", "town": "気高町下原", "full": "鳥取県鳥取市気高町下原"}, {"postal_code": "6890213", "postal_hyphen": "689-0213", "pref": "鳥取県", "city": "鳥取市", "town": "気高町下光元", "full": "鳥取県鳥取市気高町下光元"}, {"postal_code": "6890226", "postal_hyphen": "689-0226", "pref": "鳥取県", "city": "鳥取市", "town": "気高町宿", "full": "鳥取県鳥取市気高町宿"}, {"postal_code": "6890333", "postal_hyphen": "689-0333", "pref": "鳥取県", "city": "鳥取市", "town": "気高町新町", "full": "鳥取県鳥取市気高町新町"}, {"postal_code": "6890352", "postal_hyphen": "689-0352", "pref": "鳥取県", "city": "鳥取市", "town": "気高町高江", "full": "鳥取県鳥取市気高町高江"}, {"postal_code": "6890212", "postal_hyphen": "689-0212", "pref": "鳥取県", "city": "鳥取市", "town": "気高町常松", "full": "鳥取県鳥取市気高町常松"}, {"postal_code": "6890225", "postal_hyphen": "689-0225", "pref": "鳥取県", "city": "鳥取市", "town": "気高町土居", "full": "鳥取県鳥取市気高町土居"}, {"postal_code": "6890342", "postal_hyphen": "689-0342", "pref": "鳥取県", "city": "鳥取市", "town": "気高町殿", "full": "鳥取県鳥取市気高町殿"}, {"postal_code": "6890215", "postal_hyphen": "689-0215", "pref": "鳥取県", "city": "鳥取市", "town": "気高町冨吉", "full": "鳥取県鳥取市気高町冨吉"}, {"postal_code": "6890222", "postal_hyphen": "689-0222", "pref": "鳥取県", "city": "鳥取市", "town": "気高町日光", "full": "鳥取県鳥取市気高町日光"}, {"postal_code": "6890223", "postal_hyphen": "689-0223", "pref": "鳥取県", "city": "鳥取市", "town": "気高町二本木", "full": "鳥取県鳥取市気高町二本木"}, {"postal_code": "6890331", "postal_hyphen": "689-0331", "pref": "鳥取県", "city": "鳥取市", "town": "気高町浜村", "full": "鳥取県鳥取市気高町浜村"}, {"postal_code": "6890216", "postal_hyphen": "689-0216", "pref": "鳥取県", "city": "鳥取市", "town": "気高町宝木", "full": "鳥取県鳥取市気高町宝木"}, {"postal_code": "6890354", "postal_hyphen": "689-0354", "pref": "鳥取県", "city": "鳥取市", "town": "気高町睦逢", "full": "鳥取県鳥取市気高町睦逢"}, {"postal_code": "6890357", "postal_hyphen": "689-0357", "pref": "鳥取県", "city": "鳥取市", "town": "気高町八束水", "full": "鳥取県鳥取市気高町八束水"}, {"postal_code": "6890345", "postal_hyphen": "689-0345", "pref": "鳥取県", "city": "鳥取市", "town": "気高町山宮", "full": "鳥取県鳥取市気高町山宮"}, {"postal_code": "6890351", "postal_hyphen": "689-0351", "pref": "鳥取県", "city": "鳥取市", "town": "気高町八幡", "full": "鳥取県鳥取市気高町八幡"}, {"postal_code": "6800024", "postal_hyphen": "680-0024", "pref": "鳥取県", "city": "鳥取市", "town": "玄好町", "full": "鳥取県鳥取市玄好町"}, {"postal_code": "6801133", "postal_hyphen": "680-1133", "pref": "鳥取県", "city": "鳥取市", "town": "源太", "full": "鳥取県鳥取市源太"}, {"postal_code": "6891124", "postal_hyphen": "689-1124", "pref": "鳥取県", "city": "鳥取市", "town": "越路", "full": "鳥取県鳥取市越路"}, {"postal_code": "6801425", "postal_hyphen": "680-1425", "pref": "鳥取県", "city": "鳥取市", "town": "河内", "full": "鳥取県鳥取市河内"}, {"postal_code": "6800844", "postal_hyphen": "680-0844", "pref": "鳥取県", "city": "鳥取市", "town": "興南町", "full": "鳥取県鳥取市興南町"}, {"postal_code": "6801177", "postal_hyphen": "680-1177", "pref": "鳥取県", "city": "鳥取市", "town": "高路", "full": "鳥取県鳥取市高路"}, {"postal_code": "6800142", "postal_hyphen": "680-0142", "pref": "鳥取県", "city": "鳥取市", "town": "国府町麻生", "full": "鳥取県鳥取市国府町麻生"}, {"postal_code": "6800201", "postal_hyphen": "680-0201", "pref": "鳥取県", "city": "鳥取市", "town": "国府町雨滝", "full": "鳥取県鳥取市国府町雨滝"}, {"postal_code": "6800216", "postal_hyphen": "680-0216", "pref": "鳥取県", "city": "鳥取市", "town": "国府町荒舟", "full": "鳥取県鳥取市国府町荒舟"}, {"postal_code": "6800136", "postal_hyphen": "680-0136", "pref": "鳥取県", "city": "鳥取市", "town": "国府町糸谷", "full": "鳥取県鳥取市国府町糸谷"}, {"postal_code": "6808062", "postal_hyphen": "680-8062", "pref": "鳥取県", "city": "鳥取市", "town": "国府町稲葉丘", "full": "鳥取県鳥取市国府町稲葉丘"}, {"postal_code": "6800202", "postal_hyphen": "680-0202", "pref": "鳥取県", "city": "鳥取市", "town": "国府町石井谷", "full": "鳥取県鳥取市国府町石井谷"}, {"postal_code": "6800203", "postal_hyphen": "680-0203", "pref": "鳥取県", "city": "鳥取市", "town": "国府町大石", "full": "鳥取県鳥取市国府町大石"}, {"postal_code": "6800144", "postal_hyphen": "680-0144", "pref": "鳥取県", "city": "鳥取市", "town": "国府町岡益", "full": "鳥取県鳥取市国府町岡益"}, {"postal_code": "6808063", "postal_hyphen": "680-8063", "pref": "鳥取県", "city": "鳥取市", "town": "国府町奥谷", "full": "鳥取県鳥取市国府町奥谷"}, {"postal_code": "6800214", "postal_hyphen": "680-0214", "pref": "鳥取県", "city": "鳥取市", "town": "国府町上荒舟", "full": "鳥取県鳥取市国府町上荒舟"}, {"postal_code": "6800213", "postal_hyphen": "680-0213", "pref": "鳥取県", "city": "鳥取市", "town": "国府町上上地", "full": "鳥取県鳥取市国府町上上地"}, {"postal_code": "6800221", "postal_hyphen": "680-0221", "pref": "鳥取県", "city": "鳥取市", "town": "国府町神護", "full": "鳥取県鳥取市国府町神護"}, {"postal_code": "6800208", "postal_hyphen": "680-0208", "pref": "鳥取県", "city": "鳥取市", "town": "国府町木原", "full": "鳥取県鳥取市国府町木原"}, {"postal_code": "6800132", "postal_hyphen": "680-0132", "pref": "鳥取県", "city": "鳥取市", "town": "国府町神垣", "full": "鳥取県鳥取市国府町神垣"}, {"postal_code": "6800155", "postal_hyphen": "680-0155", "pref": "鳥取県", "city": "鳥取市", "town": "国府町国分寺", "full": "鳥取県鳥取市国府町国分寺"}, {"postal_code": "6800154", "postal_hyphen": "680-0154", "pref": "鳥取県", "city": "鳥取市", "town": "国府町三代寺", "full": "鳥取県鳥取市国府町三代寺"}, {"postal_code": "6800205", "postal_hyphen": "680-0205", "pref": "鳥取県", "city": "鳥取市", "town": "国府町拾石", "full": "鳥取県鳥取市国府町拾石"}, {"postal_code": "6800207", "postal_hyphen": "680-0207", "pref": "鳥取県", "city": "鳥取市", "town": "国府町下木原", "full": "鳥取県鳥取市国府町下木原"}, {"postal_code": "6808066", "postal_hyphen": "680-8066", "pref": "鳥取県", "city": "鳥取市", "town": "国府町新通り", "full": "鳥取県鳥取市国府町新通り"}, {"postal_code": "6808065", "postal_hyphen": "680-8065", "pref": "鳥取県", "city": "鳥取市", "town": "国府町新町", "full": "鳥取県鳥取市国府町新町"}, {"postal_code": "6800211", "postal_hyphen": "680-0211", "pref": "鳥取県", "city": "鳥取市", "town": "国府町菅野", "full": "鳥取県鳥取市国府町菅野"}, {"postal_code": "6800134", "postal_hyphen": "680-0134", "pref": "鳥取県", "city": "鳥取市", "town": "国府町清水", "full": "鳥取県鳥取市国府町清水"}, {"postal_code": "6800131", "postal_hyphen": "680-0131", "pref": "鳥取県", "city": "鳥取市", "town": "国府町高岡", "full": "鳥取県鳥取市国府町高岡"}, {"postal_code": "6800135", "postal_hyphen": "680-0135", "pref": "鳥取県", "city": "鳥取市", "town": "国府町谷", "full": "鳥取県鳥取市国府町谷"}, {"postal_code": "6800143", "postal_hyphen": "680-0143", "pref": "鳥取県", "city": "鳥取市", "town": "国府町玉鉾", "full": "鳥取県鳥取市国府町玉鉾"}, {"postal_code": "6800156", "postal_hyphen": "680-0156", "pref": "鳥取県", "city": "鳥取市", "town": "国府町中郷", "full": "鳥取県鳥取市国府町中郷"}, {"postal_code": "6800152", "postal_hyphen": "680-0152", "pref": "鳥取県", "city": "鳥取市", "town": "国府町庁", "full": "鳥取県鳥取市国府町庁"}, {"postal_code": "6800206", "postal_hyphen": "680-0206", "pref": "鳥取県", "city": "鳥取市", "town": "国府町栃本", "full": "鳥取県鳥取市国府町栃本"}, {"postal_code": "6800222", "postal_hyphen": "680-0222", "pref": "鳥取県", "city": "鳥取市", "town": "国府町殿", "full": "鳥取県鳥取市国府町殿"}, {"postal_code": "6800223", "postal_hyphen": "680-0223", "pref": "鳥取県", "city": "鳥取市", "town": "国府町中河原", "full": "鳥取県鳥取市国府町中河原"}, {"postal_code": "6800204", "postal_hyphen": "680-0204", "pref": "鳥取県", "city": "鳥取市", "town": "国府町楠城", "full": "鳥取県鳥取市国府町楠城"}, {"postal_code": "6800226", "postal_hyphen": "680-0226", "pref": "鳥取県", "city": "鳥取市", "town": "国府町新井", "full": "鳥取県鳥取市国府町新井"}, {"postal_code": "6800145", "postal_hyphen": "680-0145", "pref": "鳥取県", "city": "鳥取市", "town": "国府町広西", "full": "鳥取県鳥取市国府町広西"}, {"postal_code": "6808064", "postal_hyphen": "680-8064", "pref": "鳥取県", "city": "鳥取市", "town": "国府町分上", "full": "鳥取県鳥取市国府町分上"}, {"postal_code": "6800153", "postal_hyphen": "680-0153", "pref": "鳥取県", "city": "鳥取市", "town": "国府町法花寺", "full": "鳥取県鳥取市国府町法花寺"}, {"postal_code": "6800146", "postal_hyphen": "680-0146", "pref": "鳥取県", "city": "鳥取市", "town": "国府町町屋", "full": "鳥取県鳥取市国府町町屋"}, {"postal_code": "6800224", "postal_hyphen": "680-0224", "pref": "鳥取県", "city": "鳥取市", "town": "国府町松尾", "full": "鳥取県鳥取市国府町松尾"}, {"postal_code": "6800141", "postal_hyphen": "680-0141", "pref": "鳥取県", "city": "鳥取市", "town": "国府町美歎", "full": "鳥取県鳥取市国府町美歎"}, {"postal_code": "6800151", "postal_hyphen": "680-0151", "pref": "鳥取県", "city": "鳥取市", "town": "国府町宮下", "full": "鳥取県鳥取市国府町宮下"}, {"postal_code": "6800215", "postal_hyphen": "680-0215", "pref": "鳥取県", "city": "鳥取市", "town": "国府町山崎", "full": "鳥取県鳥取市国府町山崎"}, {"postal_code": "6800133", "postal_hyphen": "680-0133", "pref": "鳥取県", "city": "鳥取市", "town": "国府町山根", "full": "鳥取県鳥取市国府町山根"}, {"postal_code": "6800225", "postal_hyphen": "680-0225", "pref": "鳥取県", "city": "鳥取市", "town": "国府町吉野", "full": "鳥取県鳥取市国府町吉野"}, {"postal_code": "6800212", "postal_hyphen": "680-0212", "pref": "鳥取県", "city": "鳥取市", "town": "国府町上地", "full": "鳥取県鳥取市国府町上地"}, {"postal_code": "6891125", "postal_hyphen": "689-1125", "pref": "鳥取県", "city": "鳥取市", "town": "古郡家", "full": "鳥取県鳥取市古郡家"}, {"postal_code": "6800073", "postal_hyphen": "680-0073", "pref": "鳥取県", "city": "鳥取市", "town": "小西谷", "full": "鳥取県鳥取市小西谷"}, {"postal_code": "6890207", "postal_hyphen": "689-0207", "pref": "鳥取県", "city": "鳥取市", "town": "小沢見", "full": "鳥取県鳥取市小沢見"}, {"postal_code": "6800932", "postal_hyphen": "680-0932", "pref": "鳥取県", "city": "鳥取市", "town": "五反田町", "full": "鳥取県鳥取市五反田町"}, {"postal_code": "6800813", "postal_hyphen": "680-0813", "pref": "鳥取県", "city": "鳥取市", "town": "寿町", "full": "鳥取県鳥取市寿町"}, {"postal_code": "6800946", "postal_hyphen": "680-0946", "pref": "鳥取県", "city": "鳥取市", "town": "湖山町", "full": "鳥取県鳥取市湖山町"}, {"postal_code": "6800942", "postal_hyphen": "680-0942", "pref": "鳥取県", "city": "鳥取市", "town": "湖山町東", "full": "鳥取県鳥取市湖山町東"}, {"postal_code": "6800947", "postal_hyphen": "680-0947", "pref": "鳥取県", "city": "鳥取市", "town": "湖山町西", "full": "鳥取県鳥取市湖山町西"}, {"postal_code": "6800945", "postal_hyphen": "680-0945", "pref": "鳥取県", "city": "鳥取市", "town": "湖山町南", "full": "鳥取県鳥取市湖山町南"}, {"postal_code": "6800941", "postal_hyphen": "680-0941", "pref": "鳥取県", "city": "鳥取市", "town": "湖山町北", "full": "鳥取県鳥取市湖山町北"}, {"postal_code": "6800021", "postal_hyphen": "680-0021", "pref": "鳥取県", "city": "鳥取市", "town": "材木町", "full": "鳥取県鳥取市材木町"}, {"postal_code": "6800823", "postal_hyphen": "680-0823", "pref": "鳥取県", "city": "鳥取市", "town": "幸町", "full": "鳥取県鳥取市幸町"}, {"postal_code": "6800831", "postal_hyphen": "680-0831", "pref": "鳥取県", "city": "鳥取市", "town": "栄町", "full": "鳥取県鳥取市栄町"}, {"postal_code": "6800853", "postal_hyphen": "680-0853", "pref": "鳥取県", "city": "鳥取市", "town": "桜谷", "full": "鳥取県鳥取市桜谷"}, {"postal_code": "6891304", "postal_hyphen": "689-1304", "pref": "鳥取県", "city": "鳥取市", "town": "佐治町大井", "full": "鳥取県鳥取市佐治町大井"}, {"postal_code": "6891324", "postal_hyphen": "689-1324", "pref": "鳥取県", "city": "鳥取市", "town": "佐治町尾際", "full": "鳥取県鳥取市佐治町尾際"}, {"postal_code": "6891301", "postal_hyphen": "689-1301", "pref": "鳥取県", "city": "鳥取市", "town": "佐治町葛谷", "full": "鳥取県鳥取市佐治町葛谷"}, {"postal_code": "6891313", "postal_hyphen": "689-1313", "pref": "鳥取県", "city": "鳥取市", "town": "佐治町加瀬木", "full": "鳥取県鳥取市佐治町加瀬木"}, {"postal_code": "6891314", "postal_hyphen": "689-1314", "pref": "鳥取県", "city": "鳥取市", "town": "佐治町加茂", "full": "鳥取県鳥取市佐治町加茂"}, {"postal_code": "6891303", "postal_hyphen": "689-1303", "pref": "鳥取県", "city": "鳥取市", "town": "佐治町刈地", "full": "鳥取県鳥取市佐治町刈地"}, {"postal_code": "6891321", "postal_hyphen": "689-1321", "pref": "鳥取県", "city": "鳥取市", "town": "佐治町河本", "full": "鳥取県鳥取市佐治町河本"}, {"postal_code": "6891302", "postal_hyphen": "689-1302", "pref": "鳥取県", "city": "鳥取市", "town": "佐治町小原", "full": "鳥取県鳥取市佐治町小原"}, {"postal_code": "6891312", "postal_hyphen": "689-1312", "pref": "鳥取県", "city": "鳥取市", "town": "佐治町高山", "full": "鳥取県鳥取市佐治町高山"}, {"postal_code": "6891322", "postal_hyphen": "689-1322", "pref": "鳥取県", "city": "鳥取市", "town": "佐治町つく谷", "full": "鳥取県鳥取市佐治町つく谷"}, {"postal_code": "6891307", "postal_hyphen": "689-1307", "pref": "鳥取県", "city": "鳥取市", "town": "佐治町津無", "full": "鳥取県鳥取市佐治町津無"}, {"postal_code": "6891311", "postal_hyphen": "689-1311", "pref": "鳥取県", "city": "鳥取市", "town": "佐治町津野", "full": "鳥取県鳥取市佐治町津野"}, {"postal_code": "6891326", "postal_hyphen": "689-1326", "pref": "鳥取県", "city": "鳥取市", "town": "佐治町栃原", "full": "鳥取県鳥取市佐治町栃原"}, {"postal_code": "6891325", "postal_hyphen": "689-1325", "pref": "鳥取県", "city": "鳥取市", "town": "佐治町中", "full": "鳥取県鳥取市佐治町中"}, {"postal_code": "6891315", "postal_hyphen": "689-1315", "pref": "鳥取県", "city": "鳥取市", "town": "佐治町畑", "full": "鳥取県鳥取市佐治町畑"}, {"postal_code": "6891316", "postal_hyphen": "689-1316", "pref": "鳥取県", "city": "鳥取市", "town": "佐治町福園", "full": "鳥取県鳥取市佐治町福園"}, {"postal_code": "6891306", "postal_hyphen": "689-1306", "pref": "鳥取県", "city": "鳥取市", "town": "佐治町古市", "full": "鳥取県鳥取市佐治町古市"}, {"postal_code": "6891305", "postal_hyphen": "689-1305", "pref": "鳥取県", "city": "鳥取市", "town": "佐治町森坪", "full": "鳥取県鳥取市佐治町森坪"}, {"postal_code": "6891323", "postal_hyphen": "689-1323", "pref": "鳥取県", "city": "鳥取市", "town": "佐治町余戸", "full": "鳥取県鳥取市佐治町余戸"}, {"postal_code": "6800935", "postal_hyphen": "680-0935", "pref": "鳥取県", "city": "鳥取市", "town": "里仁", "full": "鳥取県鳥取市里仁"}, {"postal_code": "6890425", "postal_hyphen": "689-0425", "pref": "鳥取県", "city": "鳥取市", "town": "鹿野町今市", "full": "鳥取県鳥取市鹿野町今市"}, {"postal_code": "6890422", "postal_hyphen": "689-0422", "pref": "鳥取県", "city": "鳥取市", "town": "鹿野町岡木", "full": "鳥取県鳥取市鹿野町岡木"}, {"postal_code": "6890421", "postal_hyphen": "689-0421", "pref": "鳥取県", "city": "鳥取市", "town": "鹿野町乙亥正", "full": "鳥取県鳥取市鹿野町乙亥正"}, {"postal_code": "6890412", "postal_hyphen": "689-0412", "pref": "鳥取県", "city": "鳥取市", "town": "鹿野町河内", "full": "鳥取県鳥取市鹿野町河内"}, {"postal_code": "6890413", "postal_hyphen": "689-0413", "pref": "鳥取県", "city": "鳥取市", "town": "鹿野町小別所", "full": "鳥取県鳥取市鹿野町小別所"}, {"postal_code": "6890405", "postal_hyphen": "689-0405", "pref": "鳥取県", "city": "鳥取市", "town": "鹿野町鹿野", "full": "鳥取県鳥取市鹿野町鹿野"}, {"postal_code": "6890411", "postal_hyphen": "689-0411", "pref": "鳥取県", "city": "鳥取市", "town": "鹿野町鷲峯", "full": "鳥取県鳥取市鹿野町鷲峯"}, {"postal_code": "6890403", "postal_hyphen": "689-0403", "pref": "鳥取県", "city": "鳥取市", "town": "鹿野町末用", "full": "鳥取県鳥取市鹿野町末用"}, {"postal_code": "6890426", "postal_hyphen": "689-0426", "pref": "鳥取県", "city": "鳥取市", "town": "鹿野町寺内", "full": "鳥取県鳥取市鹿野町寺内"}, {"postal_code": "6890402", "postal_hyphen": "689-0402", "pref": "鳥取県", "city": "鳥取市", "town": "鹿野町閉野", "full": "鳥取県鳥取市鹿野町閉野"}, {"postal_code": "6890423", "postal_hyphen": "689-0423", "pref": "鳥取県", "city": "鳥取市", "town": "鹿野町中園", "full": "鳥取県鳥取市鹿野町中園"}, {"postal_code": "6890401", "postal_hyphen": "689-0401", "pref": "鳥取県", "city": "鳥取市", "town": "鹿野町広木", "full": "鳥取県鳥取市鹿野町広木"}, {"postal_code": "6890404", "postal_hyphen": "689-0404", "pref": "鳥取県", "city": "鳥取市", "town": "鹿野町水谷", "full": "鳥取県鳥取市鹿野町水谷"}, {"postal_code": "6890424", "postal_hyphen": "689-0424", "pref": "鳥取県", "city": "鳥取市", "town": "鹿野町宮方", "full": "鳥取県鳥取市鹿野町宮方"}, {"postal_code": "6801151", "postal_hyphen": "680-1151", "pref": "鳥取県", "city": "鳥取市", "town": "倭文", "full": "鳥取県鳥取市倭文"}, {"postal_code": "6801174", "postal_hyphen": "680-1174", "pref": "鳥取県", "city": "鳥取市", "town": "篠坂", "full": "鳥取県鳥取市篠坂"}, {"postal_code": "6801411", "postal_hyphen": "680-1411", "pref": "鳥取県", "city": "鳥取市", "town": "嶋", "full": "鳥取県鳥取市嶋"}, {"postal_code": "6801165", "postal_hyphen": "680-1165", "pref": "鳥取県", "city": "鳥取市", "town": "下味野", "full": "鳥取県鳥取市下味野"}, {"postal_code": "6801154", "postal_hyphen": "680-1154", "pref": "鳥取県", "city": "鳥取市", "town": "下砂見", "full": "鳥取県鳥取市下砂見"}, {"postal_code": "6801414", "postal_hyphen": "680-1414", "pref": "鳥取県", "city": "鳥取市", "town": "下段", "full": "鳥取県鳥取市下段"}, {"postal_code": "6800912", "postal_hyphen": "680-0912", "pref": "鳥取県", "city": "鳥取市", "town": "商栄町", "full": "鳥取県鳥取市商栄町"}, {"postal_code": "6891103", "postal_hyphen": "689-1103", "pref": "鳥取県", "city": "鳥取市", "town": "生山", "full": "鳥取県鳥取市生山"}, {"postal_code": "6800017", "postal_hyphen": "680-0017", "pref": "鳥取県", "city": "鳥取市", "town": "尚徳町", "full": "鳥取県鳥取市尚徳町"}, {"postal_code": "6800922", "postal_hyphen": "680-0922", "pref": "鳥取県", "city": "鳥取市", "town": "菖蒲", "full": "鳥取県鳥取市菖蒲"}, {"postal_code": "6800854", "postal_hyphen": "680-0854", "pref": "鳥取県", "city": "鳥取市", "town": "正蓮寺", "full": "鳥取県鳥取市正蓮寺"}, {"postal_code": "6800056", "postal_hyphen": "680-0056", "pref": "鳥取県", "city": "鳥取市", "town": "職人町", "full": "鳥取県鳥取市職人町"}, {"postal_code": "6800861", "postal_hyphen": "680-0861", "pref": "鳥取県", "city": "鳥取市", "town": "新", "full": "鳥取県鳥取市新"}, {"postal_code": "6800812", "postal_hyphen": "680-0812", "pref": "鳥取県", "city": "鳥取市", "town": "新品治町", "full": "鳥取県鳥取市新品治町"}, {"postal_code": "6800035", "postal_hyphen": "680-0035", "pref": "鳥取県", "city": "鳥取市", "town": "新町", "full": "鳥取県鳥取市新町"}, {"postal_code": "6800833", "postal_hyphen": "680-0833", "pref": "鳥取県", "city": "鳥取市", "town": "末広温泉町", "full": "鳥取県鳥取市末広温泉町"}, {"postal_code": "6891101", "postal_hyphen": "689-1101", "pref": "鳥取県", "city": "鳥取市", "town": "杉崎", "full": "鳥取県鳥取市杉崎"}, {"postal_code": "6800875", "postal_hyphen": "680-0875", "pref": "鳥取県", "city": "鳥取市", "town": "数津", "full": "鳥取県鳥取市数津"}, {"postal_code": "6801435", "postal_hyphen": "680-1435", "pref": "鳥取県", "city": "鳥取市", "town": "瀬田蔵", "full": "鳥取県鳥取市瀬田蔵"}, {"postal_code": "6801432", "postal_hyphen": "680-1432", "pref": "鳥取県", "city": "鳥取市", "town": "双六原", "full": "鳥取県鳥取市双六原"}, {"postal_code": "6801418", "postal_hyphen": "680-1418", "pref": "鳥取県", "city": "鳥取市", "town": "大桷", "full": "鳥取県鳥取市大桷"}, {"postal_code": "6800863", "postal_hyphen": "680-0863", "pref": "鳥取県", "city": "鳥取市", "town": "大覚寺", "full": "鳥取県鳥取市大覚寺"}, {"postal_code": "6801416", "postal_hyphen": "680-1416", "pref": "鳥取県", "city": "鳥取市", "town": "高住", "full": "鳥取県鳥取市高住"}, {"postal_code": "6800045", "postal_hyphen": "680-0045", "pref": "鳥取県", "city": "鳥取市", "town": "大工町頭", "full": "鳥取県鳥取市大工町頭"}, {"postal_code": "6800072", "postal_hyphen": "680-0072", "pref": "鳥取県", "city": "鳥取市", "town": "滝山", "full": "鳥取県鳥取市滝山"}, {"postal_code": "6801162", "postal_hyphen": "680-1162", "pref": "鳥取県", "city": "鳥取市", "town": "竹生", "full": "鳥取県鳥取市竹生"}, {"postal_code": "6800804", "postal_hyphen": "680-0804", "pref": "鳥取県", "city": "鳥取市", "town": "田島", "full": "鳥取県鳥取市田島"}, {"postal_code": "6800061", "postal_hyphen": "680-0061", "pref": "鳥取県", "city": "鳥取市", "town": "立川町", "full": "鳥取県鳥取市立川町"}, {"postal_code": "6801152", "postal_hyphen": "680-1152", "pref": "鳥取県", "city": "鳥取市", "town": "玉津", "full": "鳥取県鳥取市玉津"}, {"postal_code": "6800943", "postal_hyphen": "680-0943", "pref": "鳥取県", "city": "鳥取市", "town": "足山", "full": "鳥取県鳥取市足山"}, {"postal_code": "6800032", "postal_hyphen": "680-0032", "pref": "鳥取県", "city": "鳥取市", "town": "茶町", "full": "鳥取県鳥取市茶町"}, {"postal_code": "6800911", "postal_hyphen": "680-0911", "pref": "鳥取県", "city": "鳥取市", "town": "千代水", "full": "鳥取県鳥取市千代水"}, {"postal_code": "6891102", "postal_hyphen": "689-1102", "pref": "鳥取県", "city": "鳥取市", "town": "津ノ井", "full": "鳥取県鳥取市津ノ井"}, {"postal_code": "6800053", "postal_hyphen": "680-0053", "pref": "鳥取県", "city": "鳥取市", "town": "寺町", "full": "鳥取県鳥取市寺町"}, {"postal_code": "6800803", "postal_hyphen": "680-0803", "pref": "鳥取県", "city": "鳥取市", "town": "田園町", "full": "鳥取県鳥取市田園町"}, {"postal_code": "6800847", "postal_hyphen": "680-0847", "pref": "鳥取県", "city": "鳥取市", "town": "天神町", "full": "鳥取県鳥取市天神町"}, {"postal_code": "6800934", "postal_hyphen": "680-0934", "pref": "鳥取県", "city": "鳥取市", "town": "徳尾", "full": "鳥取県鳥取市徳尾"}, {"postal_code": "6800933", "postal_hyphen": "680-0933", "pref": "鳥取県", "city": "鳥取市", "town": "徳吉", "full": "鳥取県鳥取市徳吉"}, {"postal_code": "6800845", "postal_hyphen": "680-0845", "pref": "鳥取県", "city": "鳥取市", "town": "富安", "full": "鳥取県鳥取市富安"}, {"postal_code": "6891106", "postal_hyphen": "689-1106", "pref": "鳥取県", "city": "鳥取市", "town": "中大路", "full": "鳥取県鳥取市中大路"}, {"postal_code": "6801155", "postal_hyphen": "680-1155", "pref": "鳥取県", "city": "鳥取市", "town": "中砂見", "full": "鳥取県鳥取市中砂見"}, {"postal_code": "6800016", "postal_hyphen": "680-0016", "pref": "鳥取県", "city": "鳥取市", "town": "中町", "full": "鳥取県鳥取市中町"}, {"postal_code": "6801175", "postal_hyphen": "680-1175", "pref": "鳥取県", "city": "鳥取市", "town": "中村", "full": "鳥取県鳥取市中村"}, {"postal_code": "6801436", "postal_hyphen": "680-1436", "pref": "鳥取県", "city": "鳥取市", "town": "長柄", "full": "鳥取県鳥取市長柄"}, {"postal_code": "6891121", "postal_hyphen": "689-1121", "pref": "鳥取県", "city": "鳥取市", "town": "南栄町", "full": "鳥取県鳥取市南栄町"}, {"postal_code": "6800033", "postal_hyphen": "680-0033", "pref": "鳥取県", "city": "鳥取市", "town": "二階町", "full": "鳥取県鳥取市二階町"}, {"postal_code": "6801173", "postal_hyphen": "680-1173", "pref": "鳥取県", "city": "鳥取市", "town": "西今在家", "full": "鳥取県鳥取市西今在家"}, {"postal_code": "6801145", "postal_hyphen": "680-1145", "pref": "鳥取県", "city": "鳥取市", "town": "西円通寺", "full": "鳥取県鳥取市西円通寺"}, {"postal_code": "6891107", "postal_hyphen": "689-1107", "pref": "鳥取県", "city": "鳥取市", "town": "西大路", "full": "鳥取県鳥取市西大路"}, {"postal_code": "6800811", "postal_hyphen": "680-0811", "pref": "鳥取県", "city": "鳥取市", "town": "西品治", "full": "鳥取県鳥取市西品治"}, {"postal_code": "6800022", "postal_hyphen": "680-0022", "pref": "鳥取県", "city": "鳥取市", "town": "西町", "full": "鳥取県鳥取市西町"}, {"postal_code": "6891113", "postal_hyphen": "689-1113", "pref": "鳥取県", "city": "鳥取市", "town": "祢宜谷", "full": "鳥取県鳥取市祢宜谷"}, {"postal_code": "6801413", "postal_hyphen": "680-1413", "pref": "鳥取県", "city": "鳥取市", "town": "野坂", "full": "鳥取県鳥取市野坂"}, {"postal_code": "6800924", "postal_hyphen": "680-0924", "pref": "鳥取県", "city": "鳥取市", "town": "野寺", "full": "鳥取県鳥取市野寺"}, {"postal_code": "6890206", "postal_hyphen": "689-0206", "pref": "鳥取県", "city": "鳥取市", "town": "白兎", "full": "鳥取県鳥取市白兎"}, {"postal_code": "6801142", "postal_hyphen": "680-1142", "pref": "鳥取県", "city": "鳥取市", "town": "橋本", "full": "鳥取県鳥取市橋本"}, {"postal_code": "6801153", "postal_hyphen": "680-1153", "pref": "鳥取県", "city": "鳥取市", "town": "長谷", "full": "鳥取県鳥取市長谷"}, {"postal_code": "6801143", "postal_hyphen": "680-1143", "pref": "鳥取県", "city": "鳥取市", "town": "八坂", "full": "鳥取県鳥取市八坂"}, {"postal_code": "6800923", "postal_hyphen": "680-0923", "pref": "鳥取県", "city": "鳥取市", "town": "服部", "full": "鳥取県鳥取市服部"}, {"postal_code": "6801131", "postal_hyphen": "680-1131", "pref": "鳥取県", "city": "鳥取市", "town": "馬場", "full": "鳥取県鳥取市馬場"}, {"postal_code": "6800014", "postal_hyphen": "680-0014", "pref": "鳥取県", "city": "鳥取市", "town": "馬場町", "full": "鳥取県鳥取市馬場町"}, {"postal_code": "6800001", "postal_hyphen": "680-0001", "pref": "鳥取県", "city": "鳥取市", "town": "浜坂", "full": "鳥取県鳥取市浜坂"}, {"postal_code": "6800002", "postal_hyphen": "680-0002", "pref": "鳥取県", "city": "鳥取市", "town": "浜坂東", "full": "鳥取県鳥取市浜坂東"}, {"postal_code": "6800852", "postal_hyphen": "680-0852", "pref": "鳥取県", "city": "鳥取市", "town": "東今在家", "full": "鳥取県鳥取市東今在家"}, {"postal_code": "6891105", "postal_hyphen": "689-1105", "pref": "鳥取県", "city": "鳥取市", "town": "東大路", "full": "鳥取県鳥取市東大路"}, {"postal_code": "6800835", "postal_hyphen": "680-0835", "pref": "鳥取県", "city": "鳥取市", "town": "東品治町", "full": "鳥取県鳥取市東品治町"}, {"postal_code": "6800011", "postal_hyphen": "680-0011", "pref": "鳥取県", "city": "鳥取市", "town": "東町", "full": "鳥取県鳥取市東町"}, {"postal_code": "6891123", "postal_hyphen": "689-1123", "pref": "鳥取県", "city": "鳥取市", "town": "久末", "full": "鳥取県鳥取市久末"}, {"postal_code": "6891116", "postal_hyphen": "689-1116", "pref": "鳥取県", "city": "鳥取市", "town": "広岡", "full": "鳥取県鳥取市広岡"}, {"postal_code": "6801438", "postal_hyphen": "680-1438", "pref": "鳥取県", "city": "鳥取市", "town": "福井", "full": "鳥取県鳥取市福井"}, {"postal_code": "6890106", "postal_hyphen": "689-0106", "pref": "鳥取県", "city": "鳥取市", "town": "福部町海士", "full": "鳥取県鳥取市福部町海士"}, {"postal_code": "6890101", "postal_hyphen": "689-0101", "pref": "鳥取県", "city": "鳥取市", "town": "福部町岩戸", "full": "鳥取県鳥取市福部町岩戸"}, {"postal_code": "6808021", "postal_hyphen": "680-8021", "pref": "鳥取県", "city": "鳥取市", "town": "福部町久志羅（上野）", "full": "鳥取県鳥取市福部町久志羅（上野）"}, {"postal_code": "6890113", "postal_hyphen": "689-0113", "pref": "鳥取県", "city": "鳥取市", "town": "福部町久志羅（その他）", "full": "鳥取県鳥取市福部町久志羅（その他）"}, {"postal_code": "6890112", "postal_hyphen": "689-0112", "pref": "鳥取県", "city": "鳥取市", "town": "福部町蔵見", "full": "鳥取県鳥取市福部町蔵見"}, {"postal_code": "6890111", "postal_hyphen": "689-0111", "pref": "鳥取県", "city": "鳥取市", "town": "福部町栗谷", "full": "鳥取県鳥取市福部町栗谷"}, {"postal_code": "6808022", "postal_hyphen": "680-8022", "pref": "鳥取県", "city": "鳥取市", "town": "福部町左近（上野）", "full": "鳥取県鳥取市福部町左近（上野）"}, {"postal_code": "6890114", "postal_hyphen": "689-0114", "pref": "鳥取県", "city": "鳥取市", "town": "福部町左近（その他）", "full": "鳥取県鳥取市福部町左近（その他）"}, {"postal_code": "6890103", "postal_hyphen": "689-0103", "pref": "鳥取県", "city": "鳥取市", "town": "福部町高江", "full": "鳥取県鳥取市福部町高江"}, {"postal_code": "6890116", "postal_hyphen": "689-0116", "pref": "鳥取県", "city": "鳥取市", "town": "福部町中", "full": "鳥取県鳥取市福部町中"}, {"postal_code": "6890117", "postal_hyphen": "689-0117", "pref": "鳥取県", "city": "鳥取市", "town": "福部町南田", "full": "鳥取県鳥取市福部町南田"}, {"postal_code": "6890102", "postal_hyphen": "689-0102", "pref": "鳥取県", "city": "鳥取市", "town": "福部町細川", "full": "鳥取県鳥取市福部町細川"}, {"postal_code": "6890115", "postal_hyphen": "689-0115", "pref": "鳥取県", "city": "鳥取市", "town": "福部町八重原", "full": "鳥取県鳥取市福部町八重原"}, {"postal_code": "6890104", "postal_hyphen": "689-0104", "pref": "鳥取県", "city": "鳥取市", "town": "福部町箭溪", "full": "鳥取県鳥取市福部町箭溪"}, {"postal_code": "6890105", "postal_hyphen": "689-0105", "pref": "鳥取県", "city": "鳥取市", "town": "福部町湯山", "full": "鳥取県鳥取市福部町湯山"}, {"postal_code": "6890201", "postal_hyphen": "689-0201", "pref": "鳥取県", "city": "鳥取市", "town": "伏野", "full": "鳥取県鳥取市伏野"}, {"postal_code": "6800944", "postal_hyphen": "680-0944", "pref": "鳥取県", "city": "鳥取市", "town": "布勢", "full": "鳥取県鳥取市布勢"}, {"postal_code": "6891122", "postal_hyphen": "689-1122", "pref": "鳥取県", "city": "鳥取市", "town": "船木", "full": "鳥取県鳥取市船木"}, {"postal_code": "6800865", "postal_hyphen": "680-0865", "pref": "鳥取県", "city": "鳥取市", "town": "古市", "full": "鳥取県鳥取市古市"}, {"postal_code": "6800921", "postal_hyphen": "680-0921", "pref": "鳥取県", "city": "鳥取市", "town": "古海", "full": "鳥取県鳥取市古海"}, {"postal_code": "6800074", "postal_hyphen": "680-0074", "pref": "鳥取県", "city": "鳥取市", "town": "卯垣", "full": "鳥取県鳥取市卯垣"}, {"postal_code": "6800042", "postal_hyphen": "680-0042", "pref": "鳥取県", "city": "鳥取市", "town": "庖丁人町", "full": "鳥取県鳥取市庖丁人町"}, {"postal_code": "6801426", "postal_hyphen": "680-1426", "pref": "鳥取県", "city": "鳥取市", "town": "細見", "full": "鳥取県鳥取市細見"}, {"postal_code": "6801434", "postal_hyphen": "680-1434", "pref": "鳥取県", "city": "鳥取市", "town": "洞谷", "full": "鳥取県鳥取市洞谷"}, {"postal_code": "6800031", "postal_hyphen": "680-0031", "pref": "鳥取県", "city": "鳥取市", "town": "本町", "full": "鳥取県鳥取市本町"}, {"postal_code": "6801424", "postal_hyphen": "680-1424", "pref": "鳥取県", "city": "鳥取市", "town": "槇原", "full": "鳥取県鳥取市槇原"}, {"postal_code": "6801423", "postal_hyphen": "680-1423", "pref": "鳥取県", "city": "鳥取市", "town": "松上", "full": "鳥取県鳥取市松上"}, {"postal_code": "6800801", "postal_hyphen": "680-0801", "pref": "鳥取県", "city": "鳥取市", "town": "松並町", "full": "鳥取県鳥取市松並町"}, {"postal_code": "6801444", "postal_hyphen": "680-1444", "pref": "鳥取県", "city": "鳥取市", "town": "松原", "full": "鳥取県鳥取市松原"}, {"postal_code": "6800873", "postal_hyphen": "680-0873", "pref": "鳥取県", "city": "鳥取市", "town": "的場", "full": "鳥取県鳥取市的場"}, {"postal_code": "6800006", "postal_hyphen": "680-0006", "pref": "鳥取県", "city": "鳥取市", "town": "丸山町", "full": "鳥取県鳥取市丸山町"}, {"postal_code": "6890204", "postal_hyphen": "689-0204", "pref": "鳥取県", "city": "鳥取市", "town": "御熊", "full": "鳥取県鳥取市御熊"}, {"postal_code": "6890203", "postal_hyphen": "689-0203", "pref": "鳥取県", "city": "鳥取市", "town": "三津", "full": "鳥取県鳥取市三津"}, {"postal_code": "6800915", "postal_hyphen": "680-0915", "pref": "鳥取県", "city": "鳥取市", "town": "緑ケ丘", "full": "鳥取県鳥取市緑ケ丘"}, {"postal_code": "6800906", "postal_hyphen": "680-0906", "pref": "鳥取県", "city": "鳥取市", "town": "港町", "full": "鳥取県鳥取市港町"}, {"postal_code": "6800903", "postal_hyphen": "680-0903", "pref": "鳥取県", "city": "鳥取市", "town": "南隈", "full": "鳥取県鳥取市南隈"}, {"postal_code": "6800814", "postal_hyphen": "680-0814", "pref": "鳥取県", "city": "鳥取市", "town": "南町", "full": "鳥取県鳥取市南町"}, {"postal_code": "6800914", "postal_hyphen": "680-0914", "pref": "鳥取県", "city": "鳥取市", "town": "南安長", "full": "鳥取県鳥取市南安長"}, {"postal_code": "6800843", "postal_hyphen": "680-0843", "pref": "鳥取県", "city": "鳥取市", "town": "南吉方", "full": "鳥取県鳥取市南吉方"}, {"postal_code": "6890202", "postal_hyphen": "689-0202", "pref": "鳥取県", "city": "鳥取市", "town": "美萩野", "full": "鳥取県鳥取市美萩野"}, {"postal_code": "6801412", "postal_hyphen": "680-1412", "pref": "鳥取県", "city": "鳥取市", "town": "宮谷", "full": "鳥取県鳥取市宮谷"}, {"postal_code": "6800872", "postal_hyphen": "680-0872", "pref": "鳥取県", "city": "鳥取市", "town": "宮長", "full": "鳥取県鳥取市宮長"}, {"postal_code": "6801428", "postal_hyphen": "680-1428", "pref": "鳥取県", "city": "鳥取市", "town": "三山口", "full": "鳥取県鳥取市三山口"}, {"postal_code": "6801431", "postal_hyphen": "680-1431", "pref": "鳥取県", "city": "鳥取市", "town": "妙徳寺", "full": "鳥取県鳥取市妙徳寺"}, {"postal_code": "6891126", "postal_hyphen": "689-1126", "pref": "鳥取県", "city": "鳥取市", "town": "美和", "full": "鳥取県鳥取市美和"}, {"postal_code": "6801161", "postal_hyphen": "680-1161", "pref": "鳥取県", "city": "鳥取市", "town": "向国安", "full": "鳥取県鳥取市向国安"}, {"postal_code": "6891215", "postal_hyphen": "689-1215", "pref": "鳥取県", "city": "鳥取市", "town": "用瀬町赤波", "full": "鳥取県鳥取市用瀬町赤波"}, {"postal_code": "6891214", "postal_hyphen": "689-1214", "pref": "鳥取県", "city": "鳥取市", "town": "用瀬町旭ケ丘", "full": "鳥取県鳥取市用瀬町旭ケ丘"}, {"postal_code": "6891227", "postal_hyphen": "689-1227", "pref": "鳥取県", "city": "鳥取市", "town": "用瀬町安蔵", "full": "鳥取県鳥取市用瀬町安蔵"}, {"postal_code": "6891222", "postal_hyphen": "689-1222", "pref": "鳥取県", "city": "鳥取市", "town": "用瀬町家奥", "full": "鳥取県鳥取市用瀬町家奥"}, {"postal_code": "6891229", "postal_hyphen": "689-1229", "pref": "鳥取県", "city": "鳥取市", "town": "用瀬町江波", "full": "鳥取県鳥取市用瀬町江波"}, {"postal_code": "6891223", "postal_hyphen": "689-1223", "pref": "鳥取県", "city": "鳥取市", "town": "用瀬町金屋", "full": "鳥取県鳥取市用瀬町金屋"}, {"postal_code": "6891226", "postal_hyphen": "689-1226", "pref": "鳥取県", "city": "鳥取市", "town": "用瀬町川中", "full": "鳥取県鳥取市用瀬町川中"}, {"postal_code": "6891224", "postal_hyphen": "689-1224", "pref": "鳥取県", "city": "鳥取市", "town": "用瀬町樟原", "full": "鳥取県鳥取市用瀬町樟原"}, {"postal_code": "6891213", "postal_hyphen": "689-1213", "pref": "鳥取県", "city": "鳥取市", "town": "用瀬町鷹狩", "full": "鳥取県鳥取市用瀬町鷹狩"}, {"postal_code": "6891221", "postal_hyphen": "689-1221", "pref": "鳥取県", "city": "鳥取市", "town": "用瀬町古用瀬", "full": "鳥取県鳥取市用瀬町古用瀬"}, {"postal_code": "6891211", "postal_hyphen": "689-1211", "pref": "鳥取県", "city": "鳥取市", "town": "用瀬町別府", "full": "鳥取県鳥取市用瀬町別府"}, {"postal_code": "6891212", "postal_hyphen": "689-1212", "pref": "鳥取県", "city": "鳥取市", "town": "用瀬町美成", "full": "鳥取県鳥取市用瀬町美成"}, {"postal_code": "6891225", "postal_hyphen": "689-1225", "pref": "鳥取県", "city": "鳥取市", "town": "用瀬町宮原", "full": "鳥取県鳥取市用瀬町宮原"}, {"postal_code": "6891201", "postal_hyphen": "689-1201", "pref": "鳥取県", "city": "鳥取市", "town": "用瀬町用瀬", "full": "鳥取県鳥取市用瀬町用瀬"}, {"postal_code": "6891228", "postal_hyphen": "689-1228", "pref": "鳥取県", "city": "鳥取市", "town": "用瀬町屋住", "full": "鳥取県鳥取市用瀬町屋住"}, {"postal_code": "6800034", "postal_hyphen": "680-0034", "pref": "鳥取県", "city": "鳥取市", "town": "元魚町", "full": "鳥取県鳥取市元魚町"}, {"postal_code": "6800046", "postal_hyphen": "680-0046", "pref": "鳥取県", "city": "鳥取市", "town": "元大工町", "full": "鳥取県鳥取市元大工町"}, {"postal_code": "6801171", "postal_hyphen": "680-1171", "pref": "鳥取県", "city": "鳥取市", "town": "本高", "full": "鳥取県鳥取市本高"}, {"postal_code": "6800037", "postal_hyphen": "680-0037", "pref": "鳥取県", "city": "鳥取市", "town": "元町", "full": "鳥取県鳥取市元町"}, {"postal_code": "6800071", "postal_hyphen": "680-0071", "pref": "鳥取県", "city": "鳥取市", "town": "百谷", "full": "鳥取県鳥取市百谷"}, {"postal_code": "6800806", "postal_hyphen": "680-0806", "pref": "鳥取県", "city": "鳥取市", "town": "薬師町", "full": "鳥取県鳥取市薬師町"}, {"postal_code": "6800913", "postal_hyphen": "680-0913", "pref": "鳥取県", "city": "鳥取市", "town": "安長", "full": "鳥取県鳥取市安長"}, {"postal_code": "6801433", "postal_hyphen": "680-1433", "pref": "鳥取県", "city": "鳥取市", "town": "矢矯", "full": "鳥取県鳥取市矢矯"}, {"postal_code": "6800008", "postal_hyphen": "680-0008", "pref": "鳥取県", "city": "鳥取市", "town": "山城町", "full": "鳥取県鳥取市山城町"}, {"postal_code": "6800832", "postal_hyphen": "680-0832", "pref": "鳥取県", "city": "鳥取市", "town": "弥生町", "full": "鳥取県鳥取市弥生町"}, {"postal_code": "6800007", "postal_hyphen": "680-0007", "pref": "鳥取県", "city": "鳥取市", "town": "湯所町", "full": "鳥取県鳥取市湯所町"}, {"postal_code": "6801163", "postal_hyphen": "680-1163", "pref": "鳥取県", "city": "鳥取市", "town": "横枕", "full": "鳥取県鳥取市横枕"}, {"postal_code": "6801442", "postal_hyphen": "680-1442", "pref": "鳥取県", "city": "鳥取市", "town": "吉岡温泉町", "full": "鳥取県鳥取市吉岡温泉町"}, {"postal_code": "6800842", "postal_hyphen": "680-0842", "pref": "鳥取県", "city": "鳥取市", "town": "吉方", "full": "鳥取県鳥取市吉方"}, {"postal_code": "6800841", "postal_hyphen": "680-0841", "pref": "鳥取県", "city": "鳥取市", "town": "吉方温泉", "full": "鳥取県鳥取市吉方温泉"}, {"postal_code": "6800062", "postal_hyphen": "680-0062", "pref": "鳥取県", "city": "鳥取市", "town": "吉方町", "full": "鳥取県鳥取市吉方町"}, {"postal_code": "6801441", "postal_hyphen": "680-1441", "pref": "鳥取県", "city": "鳥取市", "town": "良田", "full": "鳥取県鳥取市良田"}, {"postal_code": "6800864", "postal_hyphen": "680-0864", "pref": "鳥取県", "city": "鳥取市", "town": "吉成", "full": "鳥取県鳥取市吉成"}, {"postal_code": "6800871", "postal_hyphen": "680-0871", "pref": "鳥取県", "city": "鳥取市", "town": "吉成南町", "full": "鳥取県鳥取市吉成南町"}, {"postal_code": "6801443", "postal_hyphen": "680-1443", "pref": "鳥取県", "city": "鳥取市", "town": "六反田", "full": "鳥取県鳥取市六反田"}, {"postal_code": "6800051", "postal_hyphen": "680-0051", "pref": "鳥取県", "city": "鳥取市", "town": "若桜町", "full": "鳥取県鳥取市若桜町"}, {"postal_code": "6891112", "postal_hyphen": "689-1112", "pref": "鳥取県", "city": "鳥取市", "town": "若葉台南", "full": "鳥取県鳥取市若葉台南"}, {"postal_code": "6891111", "postal_hyphen": "689-1111", "pref": "鳥取県", "city": "鳥取市", "town": "若葉台北", "full": "鳥取県鳥取市若葉台北"}, {"postal_code": "6830000", "postal_hyphen": "683-0000", "pref": "鳥取県", "city": "米子市", "town": "", "full": "鳥取県米子市"}, {"postal_code": "6830252", "postal_hyphen": "683-0252", "pref": "鳥取県", "city": "米子市", "town": "青木", "full": "鳥取県米子市青木"}, {"postal_code": "6893515", "postal_hyphen": "689-3515", "pref": "鳥取県", "city": "米子市", "town": "赤井手", "full": "鳥取県米子市赤井手"}, {"postal_code": "6830813", "postal_hyphen": "683-0813", "pref": "鳥取県", "city": "米子市", "town": "朝日町", "full": "鳥取県米子市朝日町"}, {"postal_code": "6830046", "postal_hyphen": "683-0046", "pref": "鳥取県", "city": "米子市", "town": "愛宕町", "full": "鳥取県米子市愛宕町"}, {"postal_code": "6830846", "postal_hyphen": "683-0846", "pref": "鳥取県", "city": "米子市", "town": "安倍", "full": "鳥取県米子市安倍"}, {"postal_code": "6830021", "postal_hyphen": "683-0021", "pref": "鳥取県", "city": "米子市", "town": "石井", "full": "鳥取県米子市石井"}, {"postal_code": "6893512", "postal_hyphen": "689-3512", "pref": "鳥取県", "city": "米子市", "town": "泉", "full": "鳥取県米子市泉"}, {"postal_code": "6893533", "postal_hyphen": "689-3533", "pref": "鳥取県", "city": "米子市", "town": "一部", "full": "鳥取県米子市一部"}, {"postal_code": "6893542", "postal_hyphen": "689-3542", "pref": "鳥取県", "city": "米子市", "town": "今在家", "full": "鳥取県米子市今在家"}, {"postal_code": "6830833", "postal_hyphen": "683-0833", "pref": "鳥取県", "city": "米子市", "town": "岩倉町", "full": "鳥取県米子市岩倉町"}, {"postal_code": "6830027", "postal_hyphen": "683-0027", "pref": "鳥取県", "city": "米子市", "town": "陰田町", "full": "鳥取県米子市陰田町"}, {"postal_code": "6830834", "postal_hyphen": "683-0834", "pref": "鳥取県", "city": "米子市", "town": "内町", "full": "鳥取県米子市内町"}, {"postal_code": "6893544", "postal_hyphen": "689-3544", "pref": "鳥取県", "city": "米子市", "town": "浦津", "full": "鳥取県米子市浦津"}, {"postal_code": "6830257", "postal_hyphen": "683-0257", "pref": "鳥取県", "city": "米子市", "town": "榎原", "full": "鳥取県米子市榎原"}, {"postal_code": "6830104", "postal_hyphen": "683-0104", "pref": "鳥取県", "city": "米子市", "town": "大崎", "full": "鳥取県米子市大崎"}, {"postal_code": "6830101", "postal_hyphen": "683-0101", "pref": "鳥取県", "city": "米子市", "town": "大篠津町", "full": "鳥取県米子市大篠津町"}, {"postal_code": "6830045", "postal_hyphen": "683-0045", "pref": "鳥取県", "city": "米子市", "town": "大谷町", "full": "鳥取県米子市大谷町"}, {"postal_code": "6830256", "postal_hyphen": "683-0256", "pref": "鳥取県", "city": "米子市", "town": "大袋", "full": "鳥取県米子市大袋"}, {"postal_code": "6893513", "postal_hyphen": "689-3513", "pref": "鳥取県", "city": "米子市", "town": "岡成", "full": "鳥取県米子市岡成"}, {"postal_code": "6830016", "postal_hyphen": "683-0016", "pref": "鳥取県", "city": "米子市", "town": "奥谷", "full": "鳥取県米子市奥谷"}, {"postal_code": "6893514", "postal_hyphen": "689-3514", "pref": "鳥取県", "city": "米子市", "town": "尾高", "full": "鳥取県米子市尾高"}, {"postal_code": "6830814", "postal_hyphen": "683-0814", "pref": "鳥取県", "city": "米子市", "town": "尾高町", "full": "鳥取県米子市尾高町"}, {"postal_code": "6830003", "postal_hyphen": "683-0003", "pref": "鳥取県", "city": "米子市", "town": "皆生", "full": "鳥取県米子市皆生"}, {"postal_code": "6830001", "postal_hyphen": "683-0001", "pref": "鳥取県", "city": "米子市", "town": "皆生温泉", "full": "鳥取県米子市皆生温泉"}, {"postal_code": "6830002", "postal_hyphen": "683-0002", "pref": "鳥取県", "city": "米子市", "town": "皆生新田", "full": "鳥取県米子市皆生新田"}, {"postal_code": "6830812", "postal_hyphen": "683-0812", "pref": "鳥取県", "city": "米子市", "town": "角盤町", "full": "鳥取県米子市角盤町"}, {"postal_code": "6830251", "postal_hyphen": "683-0251", "pref": "鳥取県", "city": "米子市", "town": "兼久", "full": "鳥取県米子市兼久"}, {"postal_code": "6830255", "postal_hyphen": "683-0255", "pref": "鳥取県", "city": "米子市", "town": "上安曇", "full": "鳥取県米子市上安曇"}, {"postal_code": "6830841", "postal_hyphen": "683-0841", "pref": "鳥取県", "city": "米子市", "town": "上後藤", "full": "鳥取県米子市上後藤"}, {"postal_code": "6893532", "postal_hyphen": "689-3532", "pref": "鳥取県", "city": "米子市", "town": "上新印", "full": "鳥取県米子市上新印"}, {"postal_code": "6830004", "postal_hyphen": "683-0004", "pref": "鳥取県", "city": "米子市", "town": "上福原", "full": "鳥取県米子市上福原"}, {"postal_code": "6830823", "postal_hyphen": "683-0823", "pref": "鳥取県", "city": "米子市", "town": "加茂町", "full": "鳥取県米子市加茂町"}, {"postal_code": "6893543", "postal_hyphen": "689-3543", "pref": "鳥取県", "city": "米子市", "town": "蚊屋", "full": "鳥取県米子市蚊屋"}, {"postal_code": "6893521", "postal_hyphen": "689-3521", "pref": "鳥取県", "city": "米子市", "town": "河岡", "full": "鳥取県米子市河岡"}, {"postal_code": "6830852", "postal_hyphen": "683-0852", "pref": "鳥取県", "city": "米子市", "town": "河崎", "full": "鳥取県米子市河崎"}, {"postal_code": "6830051", "postal_hyphen": "683-0051", "pref": "鳥取県", "city": "米子市", "town": "勝田町", "full": "鳥取県米子市勝田町"}, {"postal_code": "6830007", "postal_hyphen": "683-0007", "pref": "鳥取県", "city": "米子市", "town": "観音寺", "full": "鳥取県米子市観音寺"}, {"postal_code": "6830009", "postal_hyphen": "683-0009", "pref": "鳥取県", "city": "米子市", "town": "観音寺新町", "full": "鳥取県米子市観音寺新町"}, {"postal_code": "6830047", "postal_hyphen": "683-0047", "pref": "鳥取県", "city": "米子市", "town": "祇園町", "full": "鳥取県米子市祇園町"}, {"postal_code": "6830844", "postal_hyphen": "683-0844", "pref": "鳥取県", "city": "米子市", "town": "義方町", "full": "鳥取県米子市義方町"}, {"postal_code": "6830825", "postal_hyphen": "683-0825", "pref": "鳥取県", "city": "米子市", "town": "錦海町", "full": "鳥取県米子市錦海町"}, {"postal_code": "6893522", "postal_hyphen": "689-3522", "pref": "鳥取県", "city": "米子市", "town": "日下", "full": "鳥取県米子市日下"}, {"postal_code": "6830006", "postal_hyphen": "683-0006", "pref": "鳥取県", "city": "米子市", "town": "車尾", "full": "鳥取県米子市車尾"}, {"postal_code": "6830008", "postal_hyphen": "683-0008", "pref": "鳥取県", "city": "米子市", "town": "車尾南", "full": "鳥取県米子市車尾南"}, {"postal_code": "6893546", "postal_hyphen": "689-3546", "pref": "鳥取県", "city": "米子市", "town": "熊党", "full": "鳥取県米子市熊党"}, {"postal_code": "6830824", "postal_hyphen": "683-0824", "pref": "鳥取県", "city": "米子市", "town": "久米町", "full": "鳥取県米子市久米町"}, {"postal_code": "6830054", "postal_hyphen": "683-0054", "pref": "鳥取県", "city": "米子市", "town": "糀町", "full": "鳥取県米子市糀町"}, {"postal_code": "6830062", "postal_hyphen": "683-0062", "pref": "鳥取県", "city": "米子市", "town": "紺屋町", "full": "鳥取県米子市紺屋町"}, {"postal_code": "6893537", "postal_hyphen": "689-3537", "pref": "鳥取県", "city": "米子市", "town": "古豊千", "full": "鳥取県米子市古豊千"}, {"postal_code": "6830842", "postal_hyphen": "683-0842", "pref": "鳥取県", "city": "米子市", "town": "三本松", "full": "鳥取県米子市三本松"}, {"postal_code": "6830042", "postal_hyphen": "683-0042", "pref": "鳥取県", "city": "米子市", "town": "塩町", "full": "鳥取県米子市塩町"}, {"postal_code": "6830253", "postal_hyphen": "683-0253", "pref": "鳥取県", "city": "米子市", "town": "下安曇", "full": "鳥取県米子市下安曇"}, {"postal_code": "6893531", "postal_hyphen": "689-3531", "pref": "鳥取県", "city": "米子市", "town": "下新印", "full": "鳥取県米子市下新印"}, {"postal_code": "6893511", "postal_hyphen": "689-3511", "pref": "鳥取県", "city": "米子市", "town": "下郷", "full": "鳥取県米子市下郷"}, {"postal_code": "6830037", "postal_hyphen": "683-0037", "pref": "鳥取県", "city": "米子市", "town": "昭和町", "full": "鳥取県米子市昭和町"}, {"postal_code": "6830801", "postal_hyphen": "683-0801", "pref": "鳥取県", "city": "米子市", "town": "新開", "full": "鳥取県米子市新開"}, {"postal_code": "6830043", "postal_hyphen": "683-0043", "pref": "鳥取県", "city": "米子市", "town": "末広町", "full": "鳥取県米子市末広町"}, {"postal_code": "6830013", "postal_hyphen": "683-0013", "pref": "鳥取県", "city": "米子市", "town": "諏訪", "full": "鳥取県米子市諏訪"}, {"postal_code": "6893524", "postal_hyphen": "689-3524", "pref": "鳥取県", "city": "米子市", "town": "石州府", "full": "鳥取県米子市石州府"}, {"postal_code": "6830044", "postal_hyphen": "683-0044", "pref": "鳥取県", "city": "米子市", "town": "大工町", "full": "鳥取県米子市大工町"}, {"postal_code": "6893536", "postal_hyphen": "689-3536", "pref": "鳥取県", "city": "米子市", "town": "高島", "full": "鳥取県米子市高島"}, {"postal_code": "6830832", "postal_hyphen": "683-0832", "pref": "鳥取県", "city": "米子市", "town": "立町", "full": "鳥取県米子市立町"}, {"postal_code": "6830041", "postal_hyphen": "683-0041", "pref": "鳥取県", "city": "米子市", "town": "茶町", "full": "鳥取県米子市茶町"}, {"postal_code": "6830831", "postal_hyphen": "683-0831", "pref": "鳥取県", "city": "米子市", "town": "寺町", "full": "鳥取県米子市寺町"}, {"postal_code": "6830821", "postal_hyphen": "683-0821", "pref": "鳥取県", "city": "米子市", "town": "天神町", "full": "鳥取県米子市天神町"}, {"postal_code": "6830064", "postal_hyphen": "683-0064", "pref": "鳥取県", "city": "米子市", "town": "道笑町", "full": "鳥取県米子市道笑町"}, {"postal_code": "6830103", "postal_hyphen": "683-0103", "pref": "鳥取県", "city": "米子市", "town": "富益町", "full": "鳥取県米子市富益町"}, {"postal_code": "6830005", "postal_hyphen": "683-0005", "pref": "鳥取県", "city": "米子市", "town": "中島", "full": "鳥取県米子市中島"}, {"postal_code": "6830822", "postal_hyphen": "683-0822", "pref": "鳥取県", "city": "米子市", "town": "中町", "full": "鳥取県米子市中町"}, {"postal_code": "6830014", "postal_hyphen": "683-0014", "pref": "鳥取県", "city": "米子市", "town": "永江", "full": "鳥取県米子市永江"}, {"postal_code": "6830033", "postal_hyphen": "683-0033", "pref": "鳥取県", "city": "米子市", "town": "長砂町", "full": "鳥取県米子市長砂町"}, {"postal_code": "6830022", "postal_hyphen": "683-0022", "pref": "鳥取県", "city": "米子市", "town": "奈喜良", "full": "鳥取県米子市奈喜良"}, {"postal_code": "6830835", "postal_hyphen": "683-0835", "pref": "鳥取県", "city": "米子市", "town": "灘町", "full": "鳥取県米子市灘町"}, {"postal_code": "6830026", "postal_hyphen": "683-0026", "pref": "鳥取県", "city": "米子市", "town": "新山", "full": "鳥取県米子市新山"}, {"postal_code": "6830811", "postal_hyphen": "683-0811", "pref": "鳥取県", "city": "米子市", "town": "錦町", "full": "鳥取県米子市錦町"}, {"postal_code": "6830816", "postal_hyphen": "683-0816", "pref": "鳥取県", "city": "米子市", "town": "西倉吉町", "full": "鳥取県米子市西倉吉町"}, {"postal_code": "6830826", "postal_hyphen": "683-0826", "pref": "鳥取県", "city": "米子市", "town": "西町", "full": "鳥取県米子市西町"}, {"postal_code": "6830805", "postal_hyphen": "683-0805", "pref": "鳥取県", "city": "米子市", "town": "西福原", "full": "鳥取県米子市西福原"}, {"postal_code": "6893541", "postal_hyphen": "689-3541", "pref": "鳥取県", "city": "米子市", "town": "二本木", "full": "鳥取県米子市二本木"}, {"postal_code": "6830052", "postal_hyphen": "683-0052", "pref": "鳥取県", "city": "米子市", "town": "博労町", "full": "鳥取県米子市博労町"}, {"postal_code": "6830023", "postal_hyphen": "683-0023", "pref": "鳥取県", "city": "米子市", "town": "橋本", "full": "鳥取県米子市橋本"}, {"postal_code": "6830845", "postal_hyphen": "683-0845", "pref": "鳥取県", "city": "米子市", "town": "旗ヶ崎", "full": "鳥取県米子市旗ヶ崎"}, {"postal_code": "6830836", "postal_hyphen": "683-0836", "pref": "鳥取県", "city": "米子市", "town": "花園町", "full": "鳥取県米子市花園町"}, {"postal_code": "6830815", "postal_hyphen": "683-0815", "pref": "鳥取県", "city": "米子市", "town": "東倉吉町", "full": "鳥取県米子市東倉吉町"}, {"postal_code": "6830067", "postal_hyphen": "683-0067", "pref": "鳥取県", "city": "米子市", "town": "東町", "full": "鳥取県米子市東町"}, {"postal_code": "6830802", "postal_hyphen": "683-0802", "pref": "鳥取県", "city": "米子市", "town": "東福原", "full": "鳥取県米子市東福原"}, {"postal_code": "6830031", "postal_hyphen": "683-0031", "pref": "鳥取県", "city": "米子市", "town": "東山町", "full": "鳥取県米子市東山町"}, {"postal_code": "6893535", "postal_hyphen": "689-3535", "pref": "鳥取県", "city": "米子市", "town": "東八幡", "full": "鳥取県米子市東八幡"}, {"postal_code": "6830855", "postal_hyphen": "683-0855", "pref": "鳥取県", "city": "米子市", "town": "彦名新田", "full": "鳥取県米子市彦名新田"}, {"postal_code": "6830854", "postal_hyphen": "683-0854", "pref": "鳥取県", "city": "米子市", "town": "彦名町", "full": "鳥取県米子市彦名町"}, {"postal_code": "6830803", "postal_hyphen": "683-0803", "pref": "鳥取県", "city": "米子市", "town": "日ノ出町", "full": "鳥取県米子市日ノ出町"}, {"postal_code": "6830066", "postal_hyphen": "683-0066", "pref": "鳥取県", "city": "米子市", "town": "日野町", "full": "鳥取県米子市日野町"}, {"postal_code": "6830015", "postal_hyphen": "683-0015", "pref": "鳥取県", "city": "米子市", "town": "日原", "full": "鳥取県米子市日原"}, {"postal_code": "6830011", "postal_hyphen": "683-0011", "pref": "鳥取県", "city": "米子市", "town": "福市", "full": "鳥取県米子市福市"}, {"postal_code": "6893523", "postal_hyphen": "689-3523", "pref": "鳥取県", "city": "米子市", "town": "福万", "full": "鳥取県米子市福万"}, {"postal_code": "6830055", "postal_hyphen": "683-0055", "pref": "鳥取県", "city": "米子市", "town": "冨士見町", "full": "鳥取県米子市冨士見町"}, {"postal_code": "6830025", "postal_hyphen": "683-0025", "pref": "鳥取県", "city": "米子市", "town": "古市", "full": "鳥取県米子市古市"}, {"postal_code": "6830254", "postal_hyphen": "683-0254", "pref": "鳥取県", "city": "米子市", "town": "別所", "full": "鳥取県米子市別所"}, {"postal_code": "6830063", "postal_hyphen": "683-0063", "pref": "鳥取県", "city": "米子市", "town": "法勝寺町", "full": "鳥取県米子市法勝寺町"}, {"postal_code": "6830065", "postal_hyphen": "683-0065", "pref": "鳥取県", "city": "米子市", "town": "万能町", "full": "鳥取県米子市万能町"}, {"postal_code": "6893534", "postal_hyphen": "689-3534", "pref": "鳥取県", "city": "米子市", "town": "水浜", "full": "鳥取県米子市水浜"}, {"postal_code": "6893516", "postal_hyphen": "689-3516", "pref": "鳥取県", "city": "米子市", "town": "みのり町", "full": "鳥取県米子市みのり町"}, {"postal_code": "6830843", "postal_hyphen": "683-0843", "pref": "鳥取県", "city": "米子市", "town": "三旗町", "full": "鳥取県米子市三旗町"}, {"postal_code": "6830034", "postal_hyphen": "683-0034", "pref": "鳥取県", "city": "米子市", "town": "美吉", "full": "鳥取県米子市美吉"}, {"postal_code": "6830017", "postal_hyphen": "683-0017", "pref": "鳥取県", "city": "米子市", "town": "宗像", "full": "鳥取県米子市宗像"}, {"postal_code": "6830053", "postal_hyphen": "683-0053", "pref": "鳥取県", "city": "米子市", "town": "明治町", "full": "鳥取県米子市明治町"}, {"postal_code": "6830035", "postal_hyphen": "683-0035", "pref": "鳥取県", "city": "米子市", "town": "目久美町", "full": "鳥取県米子市目久美町"}, {"postal_code": "6830036", "postal_hyphen": "683-0036", "pref": "鳥取県", "city": "米子市", "town": "弥生町", "full": "鳥取県米子市弥生町"}, {"postal_code": "6830012", "postal_hyphen": "683-0012", "pref": "鳥取県", "city": "米子市", "town": "八幡", "full": "鳥取県米子市八幡"}, {"postal_code": "6830032", "postal_hyphen": "683-0032", "pref": "鳥取県", "city": "米子市", "town": "陽田町", "full": "鳥取県米子市陽田町"}, {"postal_code": "6893545", "postal_hyphen": "689-3545", "pref": "鳥取県", "city": "米子市", "town": "吉岡", "full": "鳥取県米子市吉岡"}, {"postal_code": "6830024", "postal_hyphen": "683-0024", "pref": "鳥取県", "city": "米子市", "town": "吉谷", "full": "鳥取県米子市吉谷"}, {"postal_code": "6830105", "postal_hyphen": "683-0105", "pref": "鳥取県", "city": "米子市", "town": "葭津", "full": "鳥取県米子市葭津"}, {"postal_code": "6830061", "postal_hyphen": "683-0061", "pref": "鳥取県", "city": "米子市", "town": "四日市町", "full": "鳥取県米子市四日市町"}, {"postal_code": "6893412", "postal_hyphen": "689-3412", "pref": "鳥取県", "city": "米子市", "town": "淀江町稲吉", "full": "鳥取県米子市淀江町稲吉"}, {"postal_code": "6893401", "postal_hyphen": "689-3401", "pref": "鳥取県", "city": "米子市", "town": "淀江町今津", "full": "鳥取県米子市淀江町今津"}, {"postal_code": "6893423", "postal_hyphen": "689-3423", "pref": "鳥取県", "city": "米子市", "town": "淀江町小波", "full": "鳥取県米子市淀江町小波"}, {"postal_code": "6893425", "postal_hyphen": "689-3425", "pref": "鳥取県", "city": "米子市", "town": "淀江町佐陀", "full": "鳥取県米子市淀江町佐陀"}, {"postal_code": "6893418", "postal_hyphen": "689-3418", "pref": "鳥取県", "city": "米子市", "town": "淀江町高井谷", "full": "鳥取県米子市淀江町高井谷"}, {"postal_code": "6893415", "postal_hyphen": "689-3415", "pref": "鳥取県", "city": "米子市", "town": "淀江町富繁", "full": "鳥取県米子市淀江町富繁"}, {"postal_code": "6893417", "postal_hyphen": "689-3417", "pref": "鳥取県", "city": "米子市", "town": "淀江町中西尾", "full": "鳥取県米子市淀江町中西尾"}, {"postal_code": "6893424", "postal_hyphen": "689-3424", "pref": "鳥取県", "city": "米子市", "town": "淀江町中間", "full": "鳥取県米子市淀江町中間"}, {"postal_code": "6893414", "postal_hyphen": "689-3414", "pref": "鳥取県", "city": "米子市", "town": "淀江町西尾原", "full": "鳥取県米子市淀江町西尾原"}, {"postal_code": "6893403", "postal_hyphen": "689-3403", "pref": "鳥取県", "city": "米子市", "town": "淀江町西原", "full": "鳥取県米子市淀江町西原"}, {"postal_code": "6893422", "postal_hyphen": "689-3422", "pref": "鳥取県", "city": "米子市", "town": "淀江町平岡", "full": "鳥取県米子市淀江町平岡"}, {"postal_code": "6893416", "postal_hyphen": "689-3416", "pref": "鳥取県", "city": "米子市", "town": "淀江町福井", "full": "鳥取県米子市淀江町福井"}, {"postal_code": "6893411", "postal_hyphen": "689-3411", "pref": "鳥取県", "city": "米子市", "town": "淀江町福岡", "full": "鳥取県米子市淀江町福岡"}, {"postal_code": "6893421", "postal_hyphen": "689-3421", "pref": "鳥取県", "city": "米子市", "town": "淀江町福頼", "full": "鳥取県米子市淀江町福頼"}, {"postal_code": "6893413", "postal_hyphen": "689-3413", "pref": "鳥取県", "city": "米子市", "town": "淀江町本宮", "full": "鳥取県米子市淀江町本宮"}, {"postal_code": "6893402", "postal_hyphen": "689-3402", "pref": "鳥取県", "city": "米子市", "town": "淀江町淀江", "full": "鳥取県米子市淀江町淀江"}, {"postal_code": "6830804", "postal_hyphen": "683-0804", "pref": "鳥取県", "city": "米子市", "town": "米原", "full": "鳥取県米子市米原"}, {"postal_code": "6830851", "postal_hyphen": "683-0851", "pref": "鳥取県", "city": "米子市", "town": "夜見町", "full": "鳥取県米子市夜見町"}, {"postal_code": "6893547", "postal_hyphen": "689-3547", "pref": "鳥取県", "city": "米子市", "town": "流通町", "full": "鳥取県米子市流通町"}, {"postal_code": "6830853", "postal_hyphen": "683-0853", "pref": "鳥取県", "city": "米子市", "town": "両三柳", "full": "鳥取県米子市両三柳"}, {"postal_code": "6830102", "postal_hyphen": "683-0102", "pref": "鳥取県", "city": "米子市", "town": "和田町", "full": "鳥取県米子市和田町"}, {"postal_code": "6820000", "postal_hyphen": "682-0000", "pref": "鳥取県", "city": "倉吉市", "town": "", "full": "鳥取県倉吉市"}, {"postal_code": "6820822", "postal_hyphen": "682-0822", "pref": "鳥取県", "city": "倉吉市", "town": "葵町", "full": "鳥取県倉吉市葵町"}, {"postal_code": "6820021", "postal_hyphen": "682-0021", "pref": "鳥取県", "city": "倉吉市", "town": "上井", "full": "鳥取県倉吉市上井"}, {"postal_code": "6820022", "postal_hyphen": "682-0022", "pref": "鳥取県", "city": "倉吉市", "town": "上井町", "full": "鳥取県倉吉市上井町"}, {"postal_code": "6820871", "postal_hyphen": "682-0871", "pref": "鳥取県", "city": "倉吉市", "town": "旭田町", "full": "鳥取県倉吉市旭田町"}, {"postal_code": "6820001", "postal_hyphen": "682-0001", "pref": "鳥取県", "city": "倉吉市", "town": "穴窪", "full": "鳥取県倉吉市穴窪"}, {"postal_code": "6820901", "postal_hyphen": "682-0901", "pref": "鳥取県", "city": "倉吉市", "town": "穴沢", "full": "鳥取県倉吉市穴沢"}, {"postal_code": "6820024", "postal_hyphen": "682-0024", "pref": "鳥取県", "city": "倉吉市", "town": "伊木", "full": "鳥取県倉吉市伊木"}, {"postal_code": "6820855", "postal_hyphen": "682-0855", "pref": "鳥取県", "city": "倉吉市", "town": "生田", "full": "鳥取県倉吉市生田"}, {"postal_code": "6820933", "postal_hyphen": "682-0933", "pref": "鳥取県", "city": "倉吉市", "town": "石塚", "full": "鳥取県倉吉市石塚"}, {"postal_code": "6820006", "postal_hyphen": "682-0006", "pref": "鳥取県", "city": "倉吉市", "town": "井手畑", "full": "鳥取県倉吉市井手畑"}, {"postal_code": "6820641", "postal_hyphen": "682-0641", "pref": "鳥取県", "city": "倉吉市", "town": "今在家", "full": "鳥取県倉吉市今在家"}, {"postal_code": "6820801", "postal_hyphen": "682-0801", "pref": "鳥取県", "city": "倉吉市", "town": "巌城", "full": "鳥取県倉吉市巌城"}, {"postal_code": "6820842", "postal_hyphen": "682-0842", "pref": "鳥取県", "city": "倉吉市", "town": "岩倉", "full": "鳥取県倉吉市岩倉"}, {"postal_code": "6820821", "postal_hyphen": "682-0821", "pref": "鳥取県", "city": "倉吉市", "town": "魚町", "full": "鳥取県倉吉市魚町"}, {"postal_code": "6820811", "postal_hyphen": "682-0811", "pref": "鳥取県", "city": "倉吉市", "town": "上灘町", "full": "鳥取県倉吉市上灘町"}, {"postal_code": "6820865", "postal_hyphen": "682-0865", "pref": "鳥取県", "city": "倉吉市", "town": "越中町", "full": "鳥取県倉吉市越中町"}, {"postal_code": "6820813", "postal_hyphen": "682-0813", "pref": "鳥取県", "city": "倉吉市", "town": "円谷町", "full": "鳥取県倉吉市円谷町"}, {"postal_code": "6820623", "postal_hyphen": "682-0623", "pref": "鳥取県", "city": "倉吉市", "town": "大河内", "full": "鳥取県倉吉市大河内"}, {"postal_code": "6820947", "postal_hyphen": "682-0947", "pref": "鳥取県", "city": "倉吉市", "town": "大沢", "full": "鳥取県倉吉市大沢"}, {"postal_code": "6820632", "postal_hyphen": "682-0632", "pref": "鳥取県", "city": "倉吉市", "town": "大立", "full": "鳥取県倉吉市大立"}, {"postal_code": "6820941", "postal_hyphen": "682-0941", "pref": "鳥取県", "city": "倉吉市", "town": "大谷", "full": "鳥取県倉吉市大谷"}, {"postal_code": "6820948", "postal_hyphen": "682-0948", "pref": "鳥取県", "city": "倉吉市", "town": "大谷茶屋", "full": "鳥取県倉吉市大谷茶屋"}, {"postal_code": "6820011", "postal_hyphen": "682-0011", "pref": "鳥取県", "city": "倉吉市", "town": "大塚", "full": "鳥取県倉吉市大塚"}, {"postal_code": "6820042", "postal_hyphen": "682-0042", "pref": "鳥取県", "city": "倉吉市", "town": "大平町", "full": "鳥取県倉吉市大平町"}, {"postal_code": "6820841", "postal_hyphen": "682-0841", "pref": "鳥取県", "city": "倉吉市", "town": "大宮", "full": "鳥取県倉吉市大宮"}, {"postal_code": "6820645", "postal_hyphen": "682-0645", "pref": "鳥取県", "city": "倉吉市", "town": "岡", "full": "鳥取県倉吉市岡"}, {"postal_code": "6820931", "postal_hyphen": "682-0931", "pref": "鳥取県", "city": "倉吉市", "town": "小鴨", "full": "鳥取県倉吉市小鴨"}, {"postal_code": "6820607", "postal_hyphen": "682-0607", "pref": "鳥取県", "city": "倉吉市", "town": "尾田", "full": "鳥取県倉吉市尾田"}, {"postal_code": "6820034", "postal_hyphen": "682-0034", "pref": "鳥取県", "city": "倉吉市", "town": "大原", "full": "鳥取県倉吉市大原"}, {"postal_code": "6820904", "postal_hyphen": "682-0904", "pref": "鳥取県", "city": "倉吉市", "town": "尾原", "full": "鳥取県倉吉市尾原"}, {"postal_code": "6820014", "postal_hyphen": "682-0014", "pref": "鳥取県", "city": "倉吉市", "town": "海田東町", "full": "鳥取県倉吉市海田東町"}, {"postal_code": "6820016", "postal_hyphen": "682-0016", "pref": "鳥取県", "city": "倉吉市", "town": "海田西町", "full": "鳥取県倉吉市海田西町"}, {"postal_code": "6820015", "postal_hyphen": "682-0015", "pref": "鳥取県", "city": "倉吉市", "town": "海田南町", "full": "鳥取県倉吉市海田南町"}, {"postal_code": "6820864", "postal_hyphen": "682-0864", "pref": "鳥取県", "city": "倉吉市", "town": "鍛冶町", "full": "鳥取県倉吉市鍛冶町"}, {"postal_code": "6820902", "postal_hyphen": "682-0902", "pref": "鳥取県", "city": "倉吉市", "town": "上神", "full": "鳥取県倉吉市上神"}, {"postal_code": "6820621", "postal_hyphen": "682-0621", "pref": "鳥取県", "city": "倉吉市", "town": "忰谷", "full": "鳥取県倉吉市忰谷"}, {"postal_code": "6820875", "postal_hyphen": "682-0875", "pref": "鳥取県", "city": "倉吉市", "town": "金森町", "full": "鳥取県倉吉市金森町"}, {"postal_code": "6820041", "postal_hyphen": "682-0041", "pref": "鳥取県", "city": "倉吉市", "town": "河北町", "full": "鳥取県倉吉市河北町"}, {"postal_code": "6820631", "postal_hyphen": "682-0631", "pref": "鳥取県", "city": "倉吉市", "town": "上大立", "full": "鳥取県倉吉市上大立"}, {"postal_code": "6820642", "postal_hyphen": "682-0642", "pref": "鳥取県", "city": "倉吉市", "town": "上福田", "full": "鳥取県倉吉市上福田"}, {"postal_code": "6820934", "postal_hyphen": "682-0934", "pref": "鳥取県", "city": "倉吉市", "town": "上古川", "full": "鳥取県倉吉市上古川"}, {"postal_code": "6820032", "postal_hyphen": "682-0032", "pref": "鳥取県", "city": "倉吉市", "town": "上余戸", "full": "鳥取県倉吉市上余戸"}, {"postal_code": "6820602", "postal_hyphen": "682-0602", "pref": "鳥取県", "city": "倉吉市", "town": "上米積", "full": "鳥取県倉吉市上米積"}, {"postal_code": "6820923", "postal_hyphen": "682-0923", "pref": "鳥取県", "city": "倉吉市", "town": "鴨川町", "full": "鳥取県倉吉市鴨川町"}, {"postal_code": "6820846", "postal_hyphen": "682-0846", "pref": "鳥取県", "city": "倉吉市", "town": "鴨河内", "full": "鳥取県倉吉市鴨河内"}, {"postal_code": "6820633", "postal_hyphen": "682-0633", "pref": "鳥取県", "city": "倉吉市", "town": "河来見", "full": "鳥取県倉吉市河来見"}, {"postal_code": "6820924", "postal_hyphen": "682-0924", "pref": "鳥取県", "city": "倉吉市", "town": "河原町", "full": "鳥取県倉吉市河原町"}, {"postal_code": "6820857", "postal_hyphen": "682-0857", "pref": "鳥取県", "city": "倉吉市", "town": "北野", "full": "鳥取県倉吉市北野"}, {"postal_code": "6820903", "postal_hyphen": "682-0903", "pref": "鳥取県", "city": "倉吉市", "town": "北面", "full": "鳥取県倉吉市北面"}, {"postal_code": "6820932", "postal_hyphen": "682-0932", "pref": "鳥取県", "city": "倉吉市", "town": "蔵内", "full": "鳥取県倉吉市蔵内"}, {"postal_code": "6820033", "postal_hyphen": "682-0033", "pref": "鳥取県", "city": "倉吉市", "town": "栗尾", "full": "鳥取県倉吉市栗尾"}, {"postal_code": "6820945", "postal_hyphen": "682-0945", "pref": "鳥取県", "city": "倉吉市", "town": "黒見", "full": "鳥取県倉吉市黒見"}, {"postal_code": "6820942", "postal_hyphen": "682-0942", "pref": "鳥取県", "city": "倉吉市", "town": "国府", "full": "鳥取県倉吉市国府"}, {"postal_code": "6820035", "postal_hyphen": "682-0035", "pref": "鳥取県", "city": "倉吉市", "town": "広栄町", "full": "鳥取県倉吉市広栄町"}, {"postal_code": "6820883", "postal_hyphen": "682-0883", "pref": "鳥取県", "city": "倉吉市", "town": "荒神町", "full": "鳥取県倉吉市荒神町"}, {"postal_code": "6820943", "postal_hyphen": "682-0943", "pref": "鳥取県", "city": "倉吉市", "town": "国分寺", "full": "鳥取県倉吉市国分寺"}, {"postal_code": "6820867", "postal_hyphen": "682-0867", "pref": "鳥取県", "city": "倉吉市", "town": "越殿町", "full": "鳥取県倉吉市越殿町"}, {"postal_code": "6820044", "postal_hyphen": "682-0044", "pref": "鳥取県", "city": "倉吉市", "town": "小田", "full": "鳥取県倉吉市小田"}, {"postal_code": "6820045", "postal_hyphen": "682-0045", "pref": "鳥取県", "city": "倉吉市", "town": "小田東", "full": "鳥取県倉吉市小田東"}, {"postal_code": "6820807", "postal_hyphen": "682-0807", "pref": "鳥取県", "city": "倉吉市", "town": "幸町", "full": "鳥取県倉吉市幸町"}, {"postal_code": "6820885", "postal_hyphen": "682-0885", "pref": "鳥取県", "city": "倉吉市", "town": "堺町", "full": "鳥取県倉吉市堺町"}, {"postal_code": "6820634", "postal_hyphen": "682-0634", "pref": "鳥取県", "city": "倉吉市", "town": "桜", "full": "鳥取県倉吉市桜"}, {"postal_code": "6820606", "postal_hyphen": "682-0606", "pref": "鳥取県", "city": "倉吉市", "town": "沢谷", "full": "鳥取県倉吉市沢谷"}, {"postal_code": "6820613", "postal_hyphen": "682-0613", "pref": "鳥取県", "city": "倉吉市", "town": "志津", "full": "鳥取県倉吉市志津"}, {"postal_code": "6820837", "postal_hyphen": "682-0837", "pref": "鳥取県", "city": "倉吉市", "town": "下大江", "full": "鳥取県倉吉市下大江"}, {"postal_code": "6820812", "postal_hyphen": "682-0812", "pref": "鳥取県", "city": "倉吉市", "town": "下田中町", "full": "鳥取県倉吉市下田中町"}, {"postal_code": "6820643", "postal_hyphen": "682-0643", "pref": "鳥取県", "city": "倉吉市", "town": "下福田", "full": "鳥取県倉吉市下福田"}, {"postal_code": "6820005", "postal_hyphen": "682-0005", "pref": "鳥取県", "city": "倉吉市", "town": "下古川", "full": "鳥取県倉吉市下古川"}, {"postal_code": "6820031", "postal_hyphen": "682-0031", "pref": "鳥取県", "city": "倉吉市", "town": "下余戸", "full": "鳥取県倉吉市下余戸"}, {"postal_code": "6820601", "postal_hyphen": "682-0601", "pref": "鳥取県", "city": "倉吉市", "town": "下米積", "full": "鳥取県倉吉市下米積"}, {"postal_code": "6820925", "postal_hyphen": "682-0925", "pref": "鳥取県", "city": "倉吉市", "town": "秋喜", "full": "鳥取県倉吉市秋喜"}, {"postal_code": "6820926", "postal_hyphen": "682-0926", "pref": "鳥取県", "city": "倉吉市", "town": "秋喜西町", "full": "鳥取県倉吉市秋喜西町"}, {"postal_code": "6820806", "postal_hyphen": "682-0806", "pref": "鳥取県", "city": "倉吉市", "town": "昭和町", "full": "鳥取県倉吉市昭和町"}, {"postal_code": "6820003", "postal_hyphen": "682-0003", "pref": "鳥取県", "city": "倉吉市", "town": "新田", "full": "鳥取県倉吉市新田"}, {"postal_code": "6820861", "postal_hyphen": "682-0861", "pref": "鳥取県", "city": "倉吉市", "town": "新町", "full": "鳥取県倉吉市新町"}, {"postal_code": "6820815", "postal_hyphen": "682-0815", "pref": "鳥取県", "city": "倉吉市", "town": "新陽町", "full": "鳥取県倉吉市新陽町"}, {"postal_code": "6820952", "postal_hyphen": "682-0952", "pref": "鳥取県", "city": "倉吉市", "town": "鋤", "full": "鳥取県倉吉市鋤"}, {"postal_code": "6820611", "postal_hyphen": "682-0611", "pref": "鳥取県", "city": "倉吉市", "town": "杉野", "full": "鳥取県倉吉市杉野"}, {"postal_code": "6820843", "postal_hyphen": "682-0843", "pref": "鳥取県", "city": "倉吉市", "town": "菅原", "full": "鳥取県倉吉市菅原"}, {"postal_code": "6820817", "postal_hyphen": "682-0817", "pref": "鳥取県", "city": "倉吉市", "town": "住吉町", "full": "鳥取県倉吉市住吉町"}, {"postal_code": "6820012", "postal_hyphen": "682-0012", "pref": "鳥取県", "city": "倉吉市", "town": "清谷", "full": "鳥取県倉吉市清谷"}, {"postal_code": "6820017", "postal_hyphen": "682-0017", "pref": "鳥取県", "city": "倉吉市", "town": "清谷町", "full": "鳥取県倉吉市清谷町"}, {"postal_code": "6820401", "postal_hyphen": "682-0401", "pref": "鳥取県", "city": "倉吉市", "town": "関金町安歩", "full": "鳥取県倉吉市関金町安歩"}, {"postal_code": "6820421", "postal_hyphen": "682-0421", "pref": "鳥取県", "city": "倉吉市", "town": "関金町今西", "full": "鳥取県倉吉市関金町今西"}, {"postal_code": "6820402", "postal_hyphen": "682-0402", "pref": "鳥取県", "city": "倉吉市", "town": "関金町大鳥居", "full": "鳥取県倉吉市関金町大鳥居"}, {"postal_code": "6820433", "postal_hyphen": "682-0433", "pref": "鳥取県", "city": "倉吉市", "town": "関金町小泉", "full": "鳥取県倉吉市関金町小泉"}, {"postal_code": "6820413", "postal_hyphen": "682-0413", "pref": "鳥取県", "city": "倉吉市", "town": "関金町郡家", "full": "鳥取県倉吉市関金町郡家"}, {"postal_code": "6820411", "postal_hyphen": "682-0411", "pref": "鳥取県", "city": "倉吉市", "town": "関金町関金宿", "full": "鳥取県倉吉市関金町関金宿"}, {"postal_code": "6820404", "postal_hyphen": "682-0404", "pref": "鳥取県", "city": "倉吉市", "town": "関金町泰久寺", "full": "鳥取県倉吉市関金町泰久寺"}, {"postal_code": "6820434", "postal_hyphen": "682-0434", "pref": "鳥取県", "city": "倉吉市", "town": "関金町野添", "full": "鳥取県倉吉市関金町野添"}, {"postal_code": "6820432", "postal_hyphen": "682-0432", "pref": "鳥取県", "city": "倉吉市", "town": "関金町福原", "full": "鳥取県倉吉市関金町福原"}, {"postal_code": "6820422", "postal_hyphen": "682-0422", "pref": "鳥取県", "city": "倉吉市", "town": "関金町堀", "full": "鳥取県倉吉市関金町堀"}, {"postal_code": "6820403", "postal_hyphen": "682-0403", "pref": "鳥取県", "city": "倉吉市", "town": "関金町松河原", "full": "鳥取県倉吉市関金町松河原"}, {"postal_code": "6820423", "postal_hyphen": "682-0423", "pref": "鳥取県", "city": "倉吉市", "town": "関金町明高", "full": "鳥取県倉吉市関金町明高"}, {"postal_code": "6820412", "postal_hyphen": "682-0412", "pref": "鳥取県", "city": "倉吉市", "town": "関金町山口", "full": "鳥取県倉吉市関金町山口"}, {"postal_code": "6820431", "postal_hyphen": "682-0431", "pref": "鳥取県", "city": "倉吉市", "town": "関金町米富", "full": "鳥取県倉吉市関金町米富"}, {"postal_code": "6820863", "postal_hyphen": "682-0863", "pref": "鳥取県", "city": "倉吉市", "town": "瀬崎町", "full": "鳥取県倉吉市瀬崎町"}, {"postal_code": "6820886", "postal_hyphen": "682-0886", "pref": "鳥取県", "city": "倉吉市", "town": "大正町", "full": "鳥取県倉吉市大正町"}, {"postal_code": "6820816", "postal_hyphen": "682-0816", "pref": "鳥取県", "city": "倉吉市", "town": "駄経寺町", "full": "鳥取県倉吉市駄経寺町"}, {"postal_code": "6820626", "postal_hyphen": "682-0626", "pref": "鳥取県", "city": "倉吉市", "town": "立見", "full": "鳥取県倉吉市立見"}, {"postal_code": "6820954", "postal_hyphen": "682-0954", "pref": "鳥取県", "city": "倉吉市", "town": "谷", "full": "鳥取県倉吉市谷"}, {"postal_code": "6820951", "postal_hyphen": "682-0951", "pref": "鳥取県", "city": "倉吉市", "town": "津原", "full": "鳥取県倉吉市津原"}, {"postal_code": "6820911", "postal_hyphen": "682-0911", "pref": "鳥取県", "city": "倉吉市", "town": "寺谷", "full": "鳥取県倉吉市寺谷"}, {"postal_code": "6820043", "postal_hyphen": "682-0043", "pref": "鳥取県", "city": "倉吉市", "town": "天神町", "full": "鳥取県倉吉市天神町"}, {"postal_code": "6820884", "postal_hyphen": "682-0884", "pref": "鳥取県", "city": "倉吉市", "town": "研屋町", "full": "鳥取県倉吉市研屋町"}, {"postal_code": "6820832", "postal_hyphen": "682-0832", "pref": "鳥取県", "city": "倉吉市", "town": "富海", "full": "鳥取県倉吉市富海"}, {"postal_code": "6820002", "postal_hyphen": "682-0002", "pref": "鳥取県", "city": "倉吉市", "town": "中江", "full": "鳥取県倉吉市中江"}, {"postal_code": "6820856", "postal_hyphen": "682-0856", "pref": "鳥取県", "city": "倉吉市", "town": "中河原", "full": "鳥取県倉吉市中河原"}, {"postal_code": "6820612", "postal_hyphen": "682-0612", "pref": "鳥取県", "city": "倉吉市", "town": "中野", "full": "鳥取県倉吉市中野"}, {"postal_code": "6820824", "postal_hyphen": "682-0824", "pref": "鳥取県", "city": "倉吉市", "town": "仲ノ町", "full": "鳥取県倉吉市仲ノ町"}, {"postal_code": "6820836", "postal_hyphen": "682-0836", "pref": "鳥取県", "city": "倉吉市", "town": "長坂新町", "full": "鳥取県倉吉市長坂新町"}, {"postal_code": "6820835", "postal_hyphen": "682-0835", "pref": "鳥取県", "city": "倉吉市", "town": "長坂町", "full": "鳥取県倉吉市長坂町"}, {"postal_code": "6820622", "postal_hyphen": "682-0622", "pref": "鳥取県", "city": "倉吉市", "town": "長谷", "full": "鳥取県倉吉市長谷"}, {"postal_code": "6820874", "postal_hyphen": "682-0874", "pref": "鳥取県", "city": "倉吉市", "town": "西岩倉町", "full": "鳥取県倉吉市西岩倉町"}, {"postal_code": "6820851", "postal_hyphen": "682-0851", "pref": "鳥取県", "city": "倉吉市", "town": "西倉吉町", "full": "鳥取県倉吉市西倉吉町"}, {"postal_code": "6820825", "postal_hyphen": "682-0825", "pref": "鳥取県", "city": "倉吉市", "town": "西仲町", "full": "鳥取県倉吉市西仲町"}, {"postal_code": "6820921", "postal_hyphen": "682-0921", "pref": "鳥取県", "city": "倉吉市", "town": "西福守町", "full": "鳥取県倉吉市西福守町"}, {"postal_code": "6820862", "postal_hyphen": "682-0862", "pref": "鳥取県", "city": "倉吉市", "town": "西町", "full": "鳥取県倉吉市西町"}, {"postal_code": "6820036", "postal_hyphen": "682-0036", "pref": "鳥取県", "city": "倉吉市", "town": "虹ケ丘町", "full": "鳥取県倉吉市虹ケ丘町"}, {"postal_code": "6820831", "postal_hyphen": "682-0831", "pref": "鳥取県", "city": "倉吉市", "town": "八幡町", "full": "鳥取県倉吉市八幡町"}, {"postal_code": "6820635", "postal_hyphen": "682-0635", "pref": "鳥取県", "city": "倉吉市", "town": "服部", "full": "鳥取県倉吉市服部"}, {"postal_code": "6820953", "postal_hyphen": "682-0953", "pref": "鳥取県", "city": "倉吉市", "town": "半坂", "full": "鳥取県倉吉市半坂"}, {"postal_code": "6820914", "postal_hyphen": "682-0914", "pref": "鳥取県", "city": "倉吉市", "town": "馬場町", "full": "鳥取県倉吉市馬場町"}, {"postal_code": "6820624", "postal_hyphen": "682-0624", "pref": "鳥取県", "city": "倉吉市", "town": "般若", "full": "鳥取県倉吉市般若"}, {"postal_code": "6820802", "postal_hyphen": "682-0802", "pref": "鳥取県", "city": "倉吉市", "town": "東巌城町", "full": "鳥取県倉吉市東巌城町"}, {"postal_code": "6820873", "postal_hyphen": "682-0873", "pref": "鳥取県", "city": "倉吉市", "town": "東岩倉町", "full": "鳥取県倉吉市東岩倉町"}, {"postal_code": "6820834", "postal_hyphen": "682-0834", "pref": "鳥取県", "city": "倉吉市", "town": "東鴨", "full": "鳥取県倉吉市東鴨"}, {"postal_code": "6820833", "postal_hyphen": "682-0833", "pref": "鳥取県", "city": "倉吉市", "town": "東鴨新町", "full": "鳥取県倉吉市東鴨新町"}, {"postal_code": "6820804", "postal_hyphen": "682-0804", "pref": "鳥取県", "city": "倉吉市", "town": "東昭和町", "full": "鳥取県倉吉市東昭和町"}, {"postal_code": "6820826", "postal_hyphen": "682-0826", "pref": "鳥取県", "city": "倉吉市", "town": "東仲町", "full": "鳥取県倉吉市東仲町"}, {"postal_code": "6820823", "postal_hyphen": "682-0823", "pref": "鳥取県", "city": "倉吉市", "town": "東町", "full": "鳥取県倉吉市東町"}, {"postal_code": "6820844", "postal_hyphen": "682-0844", "pref": "鳥取県", "city": "倉吉市", "town": "広瀬", "full": "鳥取県倉吉市広瀬"}, {"postal_code": "6820866", "postal_hyphen": "682-0866", "pref": "鳥取県", "city": "倉吉市", "town": "広瀬町", "full": "鳥取県倉吉市広瀬町"}, {"postal_code": "6820644", "postal_hyphen": "682-0644", "pref": "鳥取県", "city": "倉吉市", "town": "福積", "full": "鳥取県倉吉市福積"}, {"postal_code": "6820605", "postal_hyphen": "682-0605", "pref": "鳥取県", "city": "倉吉市", "town": "福富", "full": "鳥取県倉吉市福富"}, {"postal_code": "6820013", "postal_hyphen": "682-0013", "pref": "鳥取県", "city": "倉吉市", "town": "福庭", "full": "鳥取県倉吉市福庭"}, {"postal_code": "6820018", "postal_hyphen": "682-0018", "pref": "鳥取県", "city": "倉吉市", "town": "福庭町", "full": "鳥取県倉吉市福庭町"}, {"postal_code": "6820944", "postal_hyphen": "682-0944", "pref": "鳥取県", "city": "倉吉市", "town": "福光", "full": "鳥取県倉吉市福光"}, {"postal_code": "6820604", "postal_hyphen": "682-0604", "pref": "鳥取県", "city": "倉吉市", "town": "福本", "full": "鳥取県倉吉市福本"}, {"postal_code": "6820922", "postal_hyphen": "682-0922", "pref": "鳥取県", "city": "倉吉市", "town": "福守町", "full": "鳥取県倉吉市福守町"}, {"postal_code": "6820847", "postal_hyphen": "682-0847", "pref": "鳥取県", "city": "倉吉市", "town": "福山", "full": "鳥取県倉吉市福山"}, {"postal_code": "6820872", "postal_hyphen": "682-0872", "pref": "鳥取県", "city": "倉吉市", "town": "福吉町", "full": "鳥取県倉吉市福吉町"}, {"postal_code": "6820915", "postal_hyphen": "682-0915", "pref": "鳥取県", "city": "倉吉市", "town": "不入岡", "full": "鳥取県倉吉市不入岡"}, {"postal_code": "6820004", "postal_hyphen": "682-0004", "pref": "鳥取県", "city": "倉吉市", "town": "古川沢", "full": "鳥取県倉吉市古川沢"}, {"postal_code": "6820905", "postal_hyphen": "682-0905", "pref": "鳥取県", "city": "倉吉市", "town": "別所", "full": "鳥取県倉吉市別所"}, {"postal_code": "6820852", "postal_hyphen": "682-0852", "pref": "鳥取県", "city": "倉吉市", "town": "丸山町", "full": "鳥取県倉吉市丸山町"}, {"postal_code": "6820603", "postal_hyphen": "682-0603", "pref": "鳥取県", "city": "倉吉市", "town": "三江", "full": "鳥取県倉吉市三江"}, {"postal_code": "6820854", "postal_hyphen": "682-0854", "pref": "鳥取県", "city": "倉吉市", "town": "みどり町", "full": "鳥取県倉吉市みどり町"}, {"postal_code": "6820882", "postal_hyphen": "682-0882", "pref": "鳥取県", "city": "倉吉市", "town": "湊町", "full": "鳥取県倉吉市湊町"}, {"postal_code": "6820805", "postal_hyphen": "682-0805", "pref": "鳥取県", "city": "倉吉市", "town": "南昭和町", "full": "鳥取県倉吉市南昭和町"}, {"postal_code": "6820845", "postal_hyphen": "682-0845", "pref": "鳥取県", "city": "倉吉市", "town": "耳", "full": "鳥取県倉吉市耳"}, {"postal_code": "6820881", "postal_hyphen": "682-0881", "pref": "鳥取県", "city": "倉吉市", "town": "宮川町", "full": "鳥取県倉吉市宮川町"}, {"postal_code": "6820803", "postal_hyphen": "682-0803", "pref": "鳥取県", "city": "倉吉市", "town": "見日町", "full": "鳥取県倉吉市見日町"}, {"postal_code": "6820887", "postal_hyphen": "682-0887", "pref": "鳥取県", "city": "倉吉市", "town": "明治町", "full": "鳥取県倉吉市明治町"}, {"postal_code": "6820625", "postal_hyphen": "682-0625", "pref": "鳥取県", "city": "倉吉市", "town": "椋波", "full": "鳥取県倉吉市椋波"}, {"postal_code": "6820615", "postal_hyphen": "682-0615", "pref": "鳥取県", "city": "倉吉市", "town": "森", "full": "鳥取県倉吉市森"}, {"postal_code": "6820025", "postal_hyphen": "682-0025", "pref": "鳥取県", "city": "倉吉市", "town": "八屋", "full": "鳥取県倉吉市八屋"}, {"postal_code": "6820023", "postal_hyphen": "682-0023", "pref": "鳥取県", "city": "倉吉市", "town": "山根", "full": "鳥取県倉吉市山根"}, {"postal_code": "6820946", "postal_hyphen": "682-0946", "pref": "鳥取県", "city": "倉吉市", "town": "横田", "full": "鳥取県倉吉市横田"}, {"postal_code": "6820853", "postal_hyphen": "682-0853", "pref": "鳥取県", "city": "倉吉市", "town": "余戸谷町", "full": "鳥取県倉吉市余戸谷町"}, {"postal_code": "6820814", "postal_hyphen": "682-0814", "pref": "鳥取県", "city": "倉吉市", "town": "米田町", "full": "鳥取県倉吉市米田町"}, {"postal_code": "6820912", "postal_hyphen": "682-0912", "pref": "鳥取県", "city": "倉吉市", "town": "和田", "full": "鳥取県倉吉市和田"}, {"postal_code": "6820913", "postal_hyphen": "682-0913", "pref": "鳥取県", "city": "倉吉市", "town": "和田東町", "full": "鳥取県倉吉市和田東町"}, {"postal_code": "6840000", "postal_hyphen": "684-0000", "pref": "鳥取県", "city": "境港市", "town": "", "full": "鳥取県境港市"}, {"postal_code": "6840011", "postal_hyphen": "684-0011", "pref": "鳥取県", "city": "境港市", "town": "相生町", "full": "鳥取県境港市相生町"}, {"postal_code": "6840033", "postal_hyphen": "684-0033", "pref": "鳥取県", "city": "境港市", "town": "上道町", "full": "鳥取県境港市上道町"}, {"postal_code": "6840013", "postal_hyphen": "684-0013", "pref": "鳥取県", "city": "境港市", "town": "朝日町", "full": "鳥取県境港市朝日町"}, {"postal_code": "6840006", "postal_hyphen": "684-0006", "pref": "鳥取県", "city": "境港市", "town": "栄町", "full": "鳥取県境港市栄町"}, {"postal_code": "6840023", "postal_hyphen": "684-0023", "pref": "鳥取県", "city": "境港市", "town": "京町", "full": "鳥取県境港市京町"}, {"postal_code": "6840056", "postal_hyphen": "684-0056", "pref": "鳥取県", "city": "境港市", "town": "幸神町", "full": "鳥取県境港市幸神町"}, {"postal_code": "6840053", "postal_hyphen": "684-0053", "pref": "鳥取県", "city": "境港市", "town": "小篠津町", "full": "鳥取県境港市小篠津町"}, {"postal_code": "6840055", "postal_hyphen": "684-0055", "pref": "鳥取県", "city": "境港市", "town": "佐斐神町", "full": "鳥取県境港市佐斐神町"}, {"postal_code": "6840054", "postal_hyphen": "684-0054", "pref": "鳥取県", "city": "境港市", "town": "財ノ木町", "full": "鳥取県境港市財ノ木町"}, {"postal_code": "6840064", "postal_hyphen": "684-0064", "pref": "鳥取県", "city": "境港市", "town": "三軒屋町", "full": "鳥取県境港市三軒屋町"}, {"postal_code": "6840074", "postal_hyphen": "684-0074", "pref": "鳥取県", "city": "境港市", "town": "潮見町", "full": "鳥取県境港市潮見町"}, {"postal_code": "6840015", "postal_hyphen": "684-0015", "pref": "鳥取県", "city": "境港市", "town": "東雲町", "full": "鳥取県境港市東雲町"}, {"postal_code": "6840066", "postal_hyphen": "684-0066", "pref": "鳥取県", "city": "境港市", "town": "芝町", "full": "鳥取県境港市芝町"}, {"postal_code": "6840001", "postal_hyphen": "684-0001", "pref": "鳥取県", "city": "境港市", "town": "清水町", "full": "鳥取県境港市清水町"}, {"postal_code": "6840034", "postal_hyphen": "684-0034", "pref": "鳥取県", "city": "境港市", "town": "昭和町", "full": "鳥取県境港市昭和町"}, {"postal_code": "6840026", "postal_hyphen": "684-0026", "pref": "鳥取県", "city": "境港市", "town": "末広町", "full": "鳥取県境港市末広町"}, {"postal_code": "6840063", "postal_hyphen": "684-0063", "pref": "鳥取県", "city": "境港市", "town": "誠道町", "full": "鳥取県境港市誠道町"}, {"postal_code": "6840004", "postal_hyphen": "684-0004", "pref": "鳥取県", "city": "境港市", "town": "大正町", "full": "鳥取県境港市大正町"}, {"postal_code": "6840045", "postal_hyphen": "684-0045", "pref": "鳥取県", "city": "境港市", "town": "高松町", "full": "鳥取県境港市高松町"}, {"postal_code": "6840046", "postal_hyphen": "684-0046", "pref": "鳥取県", "city": "境港市", "town": "竹内団地", "full": "鳥取県境港市竹内団地"}, {"postal_code": "6840043", "postal_hyphen": "684-0043", "pref": "鳥取県", "city": "境港市", "town": "竹内町", "full": "鳥取県境港市竹内町"}, {"postal_code": "6840071", "postal_hyphen": "684-0071", "pref": "鳥取県", "city": "境港市", "town": "外江町", "full": "鳥取県境港市外江町"}, {"postal_code": "6840073", "postal_hyphen": "684-0073", "pref": "鳥取県", "city": "境港市", "town": "中海干拓地", "full": "鳥取県境港市中海干拓地"}, {"postal_code": "6840041", "postal_hyphen": "684-0041", "pref": "鳥取県", "city": "境港市", "town": "中野町", "full": "鳥取県境港市中野町"}, {"postal_code": "6840012", "postal_hyphen": "684-0012", "pref": "鳥取県", "city": "境港市", "town": "中町", "full": "鳥取県境港市中町"}, {"postal_code": "6840051", "postal_hyphen": "684-0051", "pref": "鳥取県", "city": "境港市", "town": "新屋町", "full": "鳥取県境港市新屋町"}, {"postal_code": "6840075", "postal_hyphen": "684-0075", "pref": "鳥取県", "city": "境港市", "town": "西工業団地", "full": "鳥取県境港市西工業団地"}, {"postal_code": "6840014", "postal_hyphen": "684-0014", "pref": "鳥取県", "city": "境港市", "town": "入船町", "full": "鳥取県境港市入船町"}, {"postal_code": "6840062", "postal_hyphen": "684-0062", "pref": "鳥取県", "city": "境港市", "town": "蓮池町", "full": "鳥取県境港市蓮池町"}, {"postal_code": "6840016", "postal_hyphen": "684-0016", "pref": "鳥取県", "city": "境港市", "town": "花町", "full": "鳥取県境港市花町"}, {"postal_code": "6840021", "postal_hyphen": "684-0021", "pref": "鳥取県", "city": "境港市", "town": "馬場崎町", "full": "鳥取県境港市馬場崎町"}, {"postal_code": "6840003", "postal_hyphen": "684-0003", "pref": "鳥取県", "city": "境港市", "town": "浜ノ町", "full": "鳥取県境港市浜ノ町"}, {"postal_code": "6840027", "postal_hyphen": "684-0027", "pref": "鳥取県", "city": "境港市", "town": "東本町", "full": "鳥取県境港市東本町"}, {"postal_code": "6840024", "postal_hyphen": "684-0024", "pref": "鳥取県", "city": "境港市", "town": "日ノ出町", "full": "鳥取県境港市日ノ出町"}, {"postal_code": "6840042", "postal_hyphen": "684-0042", "pref": "鳥取県", "city": "境港市", "town": "福定町", "full": "鳥取県境港市福定町"}, {"postal_code": "6840025", "postal_hyphen": "684-0025", "pref": "鳥取県", "city": "境港市", "town": "本町", "full": "鳥取県境港市本町"}, {"postal_code": "6840005", "postal_hyphen": "684-0005", "pref": "鳥取県", "city": "境港市", "town": "松ケ枝町", "full": "鳥取県境港市松ケ枝町"}, {"postal_code": "6840017", "postal_hyphen": "684-0017", "pref": "鳥取県", "city": "境港市", "town": "岬町", "full": "鳥取県境港市岬町"}, {"postal_code": "6840031", "postal_hyphen": "684-0031", "pref": "鳥取県", "city": "境港市", "town": "湊町", "full": "鳥取県境港市湊町"}, {"postal_code": "6840044", "postal_hyphen": "684-0044", "pref": "鳥取県", "city": "境港市", "town": "美保町", "full": "鳥取県境港市美保町"}, {"postal_code": "6840052", "postal_hyphen": "684-0052", "pref": "鳥取県", "city": "境港市", "town": "麦垣町", "full": "鳥取県境港市麦垣町"}, {"postal_code": "6840022", "postal_hyphen": "684-0022", "pref": "鳥取県", "city": "境港市", "town": "明治町", "full": "鳥取県境港市明治町"}, {"postal_code": "6840032", "postal_hyphen": "684-0032", "pref": "鳥取県", "city": "境港市", "town": "元町", "full": "鳥取県境港市元町"}, {"postal_code": "6840065", "postal_hyphen": "684-0065", "pref": "鳥取県", "city": "境港市", "town": "森岡町", "full": "鳥取県境港市森岡町"}, {"postal_code": "6840002", "postal_hyphen": "684-0002", "pref": "鳥取県", "city": "境港市", "town": "弥生町", "full": "鳥取県境港市弥生町"}, {"postal_code": "6840076", "postal_hyphen": "684-0076", "pref": "鳥取県", "city": "境港市", "town": "夕日ケ丘", "full": "鳥取県境港市夕日ケ丘"}, {"postal_code": "6840061", "postal_hyphen": "684-0061", "pref": "鳥取県", "city": "境港市", "town": "米川町", "full": "鳥取県境港市米川町"}, {"postal_code": "6840072", "postal_hyphen": "684-0072", "pref": "鳥取県", "city": "境港市", "town": "渡町", "full": "鳥取県境港市渡町"}, {"postal_code": "6810000", "postal_hyphen": "681-0000", "pref": "鳥取県", "city": "岩美郡岩美町", "town": "", "full": "鳥取県岩美郡岩美町"}, {"postal_code": "6810002", "postal_hyphen": "681-0002", "pref": "鳥取県", "city": "岩美郡岩美町", "town": "相谷", "full": "鳥取県岩美郡岩美町相谷"}, {"postal_code": "6810036", "postal_hyphen": "681-0036", "pref": "鳥取県", "city": "岩美郡岩美町", "town": "相山", "full": "鳥取県岩美郡岩美町相山"}, {"postal_code": "6810074", "postal_hyphen": "681-0074", "pref": "鳥取県", "city": "岩美郡岩美町", "town": "網代", "full": "鳥取県岩美郡岩美町網代"}, {"postal_code": "6810032", "postal_hyphen": "681-0032", "pref": "鳥取県", "city": "岩美郡岩美町", "town": "洗井", "full": "鳥取県岩美郡岩美町洗井"}, {"postal_code": "6810055", "postal_hyphen": "681-0055", "pref": "鳥取県", "city": "岩美郡岩美町", "town": "荒金", "full": "鳥取県岩美郡岩美町荒金"}, {"postal_code": "6810047", "postal_hyphen": "681-0047", "pref": "鳥取県", "city": "岩美郡岩美町", "town": "池谷", "full": "鳥取県岩美郡岩美町池谷"}, {"postal_code": "6810024", "postal_hyphen": "681-0024", "pref": "鳥取県", "city": "岩美郡岩美町", "town": "岩井", "full": "鳥取県岩美郡岩美町岩井"}, {"postal_code": "6810052", "postal_hyphen": "681-0052", "pref": "鳥取県", "city": "岩美郡岩美町", "town": "岩常", "full": "鳥取県岩美郡岩美町岩常"}, {"postal_code": "6810072", "postal_hyphen": "681-0072", "pref": "鳥取県", "city": "岩美郡岩美町", "town": "岩本", "full": "鳥取県岩美郡岩美町岩本"}, {"postal_code": "6810054", "postal_hyphen": "681-0054", "pref": "鳥取県", "city": "岩美郡岩美町", "town": "院内", "full": "鳥取県岩美郡岩美町院内"}, {"postal_code": "6810025", "postal_hyphen": "681-0025", "pref": "鳥取県", "city": "岩美郡岩美町", "town": "宇治", "full": "鳥取県岩美郡岩美町宇治"}, {"postal_code": "6810003", "postal_hyphen": "681-0003", "pref": "鳥取県", "city": "岩美郡岩美町", "town": "浦富", "full": "鳥取県岩美郡岩美町浦富"}, {"postal_code": "6810046", "postal_hyphen": "681-0046", "pref": "鳥取県", "city": "岩美郡岩美町", "town": "延興寺", "full": "鳥取県岩美郡岩美町延興寺"}, {"postal_code": "6810043", "postal_hyphen": "681-0043", "pref": "鳥取県", "city": "岩美郡岩美町", "town": "大坂", "full": "鳥取県岩美郡岩美町大坂"}, {"postal_code": "6810063", "postal_hyphen": "681-0063", "pref": "鳥取県", "city": "岩美郡岩美町", "town": "太田", "full": "鳥取県岩美郡岩美町太田"}, {"postal_code": "6810073", "postal_hyphen": "681-0073", "pref": "鳥取県", "city": "岩美郡岩美町", "town": "大谷", "full": "鳥取県岩美郡岩美町大谷"}, {"postal_code": "6810014", "postal_hyphen": "681-0014", "pref": "鳥取県", "city": "岩美郡岩美町", "town": "大羽尾", "full": "鳥取県岩美郡岩美町大羽尾"}, {"postal_code": "6810042", "postal_hyphen": "681-0042", "pref": "鳥取県", "city": "岩美郡岩美町", "town": "小田", "full": "鳥取県岩美郡岩美町小田"}, {"postal_code": "6810062", "postal_hyphen": "681-0062", "pref": "鳥取県", "city": "岩美郡岩美町", "town": "恩志", "full": "鳥取県岩美郡岩美町恩志"}, {"postal_code": "6810031", "postal_hyphen": "681-0031", "pref": "鳥取県", "city": "岩美郡岩美町", "town": "蒲生", "full": "鳥取県岩美郡岩美町蒲生"}, {"postal_code": "6810045", "postal_hyphen": "681-0045", "pref": "鳥取県", "city": "岩美郡岩美町", "town": "唐川", "full": "鳥取県岩美郡岩美町唐川"}, {"postal_code": "6810051", "postal_hyphen": "681-0051", "pref": "鳥取県", "city": "岩美郡岩美町", "town": "河崎", "full": "鳥取県岩美郡岩美町河崎"}, {"postal_code": "6810034", "postal_hyphen": "681-0034", "pref": "鳥取県", "city": "岩美郡岩美町", "town": "銀山", "full": "鳥取県岩美郡岩美町銀山"}, {"postal_code": "6810011", "postal_hyphen": "681-0011", "pref": "鳥取県", "city": "岩美郡岩美町", "town": "陸上", "full": "鳥取県岩美郡岩美町陸上"}, {"postal_code": "6810041", "postal_hyphen": "681-0041", "pref": "鳥取県", "city": "岩美郡岩美町", "town": "黒谷", "full": "鳥取県岩美郡岩美町黒谷"}, {"postal_code": "6810013", "postal_hyphen": "681-0013", "pref": "鳥取県", "city": "岩美郡岩美町", "town": "小羽尾", "full": "鳥取県岩美郡岩美町小羽尾"}, {"postal_code": "6810022", "postal_hyphen": "681-0022", "pref": "鳥取県", "city": "岩美郡岩美町", "town": "白地", "full": "鳥取県岩美郡岩美町白地"}, {"postal_code": "6810053", "postal_hyphen": "681-0053", "pref": "鳥取県", "city": "岩美郡岩美町", "town": "高住", "full": "鳥取県岩美郡岩美町高住"}, {"postal_code": "6810061", "postal_hyphen": "681-0061", "pref": "鳥取県", "city": "岩美郡岩美町", "town": "高山", "full": "鳥取県岩美郡岩美町高山"}, {"postal_code": "6810071", "postal_hyphen": "681-0071", "pref": "鳥取県", "city": "岩美郡岩美町", "town": "田後", "full": "鳥取県岩美郡岩美町田後"}, {"postal_code": "6810012", "postal_hyphen": "681-0012", "pref": "鳥取県", "city": "岩美郡岩美町", "town": "田河内", "full": "鳥取県岩美郡岩美町田河内"}, {"postal_code": "6810056", "postal_hyphen": "681-0056", "pref": "鳥取県", "city": "岩美郡岩美町", "town": "長郷", "full": "鳥取県岩美郡岩美町長郷"}, {"postal_code": "6810044", "postal_hyphen": "681-0044", "pref": "鳥取県", "city": "岩美郡岩美町", "town": "外邑", "full": "鳥取県岩美郡岩美町外邑"}, {"postal_code": "6810033", "postal_hyphen": "681-0033", "pref": "鳥取県", "city": "岩美郡岩美町", "town": "鳥越", "full": "鳥取県岩美郡岩美町鳥越"}, {"postal_code": "6810021", "postal_hyphen": "681-0021", "pref": "鳥取県", "city": "岩美郡岩美町", "town": "長谷", "full": "鳥取県岩美郡岩美町長谷"}, {"postal_code": "6810065", "postal_hyphen": "681-0065", "pref": "鳥取県", "city": "岩美郡岩美町", "town": "新井", "full": "鳥取県岩美郡岩美町新井"}, {"postal_code": "6810035", "postal_hyphen": "681-0035", "pref": "鳥取県", "city": "岩美郡岩美町", "town": "馬場", "full": "鳥取県岩美郡岩美町馬場"}, {"postal_code": "6810064", "postal_hyphen": "681-0064", "pref": "鳥取県", "city": "岩美郡岩美町", "town": "本庄", "full": "鳥取県岩美郡岩美町本庄"}, {"postal_code": "6810001", "postal_hyphen": "681-0001", "pref": "鳥取県", "city": "岩美郡岩美町", "town": "牧谷", "full": "鳥取県岩美郡岩美町牧谷"}, {"postal_code": "6810023", "postal_hyphen": "681-0023", "pref": "鳥取県", "city": "岩美郡岩美町", "town": "真名", "full": "鳥取県岩美郡岩美町真名"}, {"postal_code": "6800700", "postal_hyphen": "680-0700", "pref": "鳥取県", "city": "八頭郡若桜町", "town": "", "full": "鳥取県八頭郡若桜町"}, {"postal_code": "6800713", "postal_hyphen": "680-0713", "pref": "鳥取県", "city": "八頭郡若桜町", "town": "赤松", "full": "鳥取県八頭郡若桜町赤松"}, {"postal_code": "6800722", "postal_hyphen": "680-0722", "pref": "鳥取県", "city": "八頭郡若桜町", "town": "浅井", "full": "鳥取県八頭郡若桜町浅井"}, {"postal_code": "6800743", "postal_hyphen": "680-0743", "pref": "鳥取県", "city": "八頭郡若桜町", "town": "糸白見", "full": "鳥取県八頭郡若桜町糸白見"}, {"postal_code": "6800731", "postal_hyphen": "680-0731", "pref": "鳥取県", "city": "八頭郡若桜町", "town": "岩屋堂", "full": "鳥取県八頭郡若桜町岩屋堂"}, {"postal_code": "6800741", "postal_hyphen": "680-0741", "pref": "鳥取県", "city": "八頭郡若桜町", "town": "大炊", "full": "鳥取県八頭郡若桜町大炊"}, {"postal_code": "6800733", "postal_hyphen": "680-0733", "pref": "鳥取県", "city": "八頭郡若桜町", "town": "大野", "full": "鳥取県八頭郡若桜町大野"}, {"postal_code": "6800735", "postal_hyphen": "680-0735", "pref": "鳥取県", "city": "八頭郡若桜町", "town": "落折", "full": "鳥取県八頭郡若桜町落折"}, {"postal_code": "6800734", "postal_hyphen": "680-0734", "pref": "鳥取県", "city": "八頭郡若桜町", "town": "小船", "full": "鳥取県八頭郡若桜町小船"}, {"postal_code": "6800742", "postal_hyphen": "680-0742", "pref": "鳥取県", "city": "八頭郡若桜町", "town": "岸野", "full": "鳥取県八頭郡若桜町岸野"}, {"postal_code": "6800714", "postal_hyphen": "680-0714", "pref": "鳥取県", "city": "八頭郡若桜町", "town": "来見野", "full": "鳥取県八頭郡若桜町来見野"}, {"postal_code": "6800723", "postal_hyphen": "680-0723", "pref": "鳥取県", "city": "八頭郡若桜町", "town": "香田", "full": "鳥取県八頭郡若桜町香田"}, {"postal_code": "6800745", "postal_hyphen": "680-0745", "pref": "鳥取県", "city": "八頭郡若桜町", "town": "須澄", "full": "鳥取県八頭郡若桜町須澄"}, {"postal_code": "6800712", "postal_hyphen": "680-0712", "pref": "鳥取県", "city": "八頭郡若桜町", "town": "高野", "full": "鳥取県八頭郡若桜町高野"}, {"postal_code": "6800728", "postal_hyphen": "680-0728", "pref": "鳥取県", "city": "八頭郡若桜町", "town": "つく米", "full": "鳥取県八頭郡若桜町つく米"}, {"postal_code": "6800732", "postal_hyphen": "680-0732", "pref": "鳥取県", "city": "八頭郡若桜町", "town": "中原", "full": "鳥取県八頭郡若桜町中原"}, {"postal_code": "6800724", "postal_hyphen": "680-0724", "pref": "鳥取県", "city": "八頭郡若桜町", "town": "長砂", "full": "鳥取県八頭郡若桜町長砂"}, {"postal_code": "6800744", "postal_hyphen": "680-0744", "pref": "鳥取県", "city": "八頭郡若桜町", "town": "根安", "full": "鳥取県八頭郡若桜町根安"}, {"postal_code": "6800726", "postal_hyphen": "680-0726", "pref": "鳥取県", "city": "八頭郡若桜町", "town": "淵見", "full": "鳥取県八頭郡若桜町淵見"}, {"postal_code": "6800711", "postal_hyphen": "680-0711", "pref": "鳥取県", "city": "八頭郡若桜町", "town": "三倉", "full": "鳥取県八頭郡若桜町三倉"}, {"postal_code": "6800727", "postal_hyphen": "680-0727", "pref": "鳥取県", "city": "八頭郡若桜町", "town": "茗荷谷", "full": "鳥取県八頭郡若桜町茗荷谷"}, {"postal_code": "6800715", "postal_hyphen": "680-0715", "pref": "鳥取県", "city": "八頭郡若桜町", "town": "諸鹿", "full": "鳥取県八頭郡若桜町諸鹿"}, {"postal_code": "6800721", "postal_hyphen": "680-0721", "pref": "鳥取県", "city": "八頭郡若桜町", "town": "屋堂羅", "full": "鳥取県八頭郡若桜町屋堂羅"}, {"postal_code": "6800725", "postal_hyphen": "680-0725", "pref": "鳥取県", "city": "八頭郡若桜町", "town": "湯原", "full": "鳥取県八頭郡若桜町湯原"}, {"postal_code": "6800746", "postal_hyphen": "680-0746", "pref": "鳥取県", "city": "八頭郡若桜町", "town": "吉川", "full": "鳥取県八頭郡若桜町吉川"}, {"postal_code": "6800701", "postal_hyphen": "680-0701", "pref": "鳥取県", "city": "八頭郡若桜町", "town": "若桜", "full": "鳥取県八頭郡若桜町若桜"}, {"postal_code": "6891400", "postal_hyphen": "689-1400", "pref": "鳥取県", "city": "八頭郡智頭町", "town": "", "full": "鳥取県八頭郡智頭町"}, {"postal_code": "6891412", "postal_hyphen": "689-1412", "pref": "鳥取県", "city": "八頭郡智頭町", "town": "芦津", "full": "鳥取県八頭郡智頭町芦津"}, {"postal_code": "6891401", "postal_hyphen": "689-1401", "pref": "鳥取県", "city": "八頭郡智頭町", "town": "市瀬", "full": "鳥取県八頭郡智頭町市瀬"}, {"postal_code": "6891404", "postal_hyphen": "689-1404", "pref": "鳥取県", "city": "八頭郡智頭町", "town": "岩神", "full": "鳥取県八頭郡智頭町岩神"}, {"postal_code": "6891465", "postal_hyphen": "689-1465", "pref": "鳥取県", "city": "八頭郡智頭町", "town": "宇波", "full": "鳥取県八頭郡智頭町宇波"}, {"postal_code": "6891451", "postal_hyphen": "689-1451", "pref": "鳥取県", "city": "八頭郡智頭町", "town": "大背", "full": "鳥取県八頭郡智頭町大背"}, {"postal_code": "6891421", "postal_hyphen": "689-1421", "pref": "鳥取県", "city": "八頭郡智頭町", "town": "大内", "full": "鳥取県八頭郡智頭町大内"}, {"postal_code": "6891442", "postal_hyphen": "689-1442", "pref": "鳥取県", "city": "八頭郡智頭町", "town": "大屋", "full": "鳥取県八頭郡智頭町大屋"}, {"postal_code": "6891413", "postal_hyphen": "689-1413", "pref": "鳥取県", "city": "八頭郡智頭町", "town": "大呂", "full": "鳥取県八頭郡智頭町大呂"}, {"postal_code": "6891452", "postal_hyphen": "689-1452", "pref": "鳥取県", "city": "八頭郡智頭町", "town": "奥本", "full": "鳥取県八頭郡智頭町奥本"}, {"postal_code": "6891422", "postal_hyphen": "689-1422", "pref": "鳥取県", "city": "八頭郡智頭町", "town": "尾見", "full": "鳥取県八頭郡智頭町尾見"}, {"postal_code": "6891436", "postal_hyphen": "689-1436", "pref": "鳥取県", "city": "八頭郡智頭町", "town": "木原", "full": "鳥取県八頭郡智頭町木原"}, {"postal_code": "6891464", "postal_hyphen": "689-1464", "pref": "鳥取県", "city": "八頭郡智頭町", "town": "口宇波", "full": "鳥取県八頭郡智頭町口宇波"}, {"postal_code": "6891467", "postal_hyphen": "689-1467", "pref": "鳥取県", "city": "八頭郡智頭町", "town": "口波多", "full": "鳥取県八頭郡智頭町口波多"}, {"postal_code": "6891441", "postal_hyphen": "689-1441", "pref": "鳥取県", "city": "八頭郡智頭町", "town": "慶所", "full": "鳥取県八頭郡智頭町慶所"}, {"postal_code": "6891416", "postal_hyphen": "689-1416", "pref": "鳥取県", "city": "八頭郡智頭町", "town": "毛谷", "full": "鳥取県八頭郡智頭町毛谷"}, {"postal_code": "6891454", "postal_hyphen": "689-1454", "pref": "鳥取県", "city": "八頭郡智頭町", "town": "河津原", "full": "鳥取県八頭郡智頭町河津原"}, {"postal_code": "6891415", "postal_hyphen": "689-1415", "pref": "鳥取県", "city": "八頭郡智頭町", "town": "郷原", "full": "鳥取県八頭郡智頭町郷原"}, {"postal_code": "6891424", "postal_hyphen": "689-1424", "pref": "鳥取県", "city": "八頭郡智頭町", "town": "駒帰", "full": "鳥取県八頭郡智頭町駒帰"}, {"postal_code": "6891461", "postal_hyphen": "689-1461", "pref": "鳥取県", "city": "八頭郡智頭町", "town": "坂原", "full": "鳥取県八頭郡智頭町坂原"}, {"postal_code": "6891417", "postal_hyphen": "689-1417", "pref": "鳥取県", "city": "八頭郡智頭町", "town": "篠坂", "full": "鳥取県八頭郡智頭町篠坂"}, {"postal_code": "6891468", "postal_hyphen": "689-1468", "pref": "鳥取県", "city": "八頭郡智頭町", "town": "惣地", "full": "鳥取県八頭郡智頭町惣地"}, {"postal_code": "6891402", "postal_hyphen": "689-1402", "pref": "鳥取県", "city": "八頭郡智頭町", "town": "智頭", "full": "鳥取県八頭郡智頭町智頭"}, {"postal_code": "6891462", "postal_hyphen": "689-1462", "pref": "鳥取県", "city": "八頭郡智頭町", "town": "中田", "full": "鳥取県八頭郡智頭町中田"}, {"postal_code": "6891423", "postal_hyphen": "689-1423", "pref": "鳥取県", "city": "八頭郡智頭町", "town": "中原", "full": "鳥取県八頭郡智頭町中原"}, {"postal_code": "6891463", "postal_hyphen": "689-1463", "pref": "鳥取県", "city": "八頭郡智頭町", "town": "新見", "full": "鳥取県八頭郡智頭町新見"}, {"postal_code": "6891455", "postal_hyphen": "689-1455", "pref": "鳥取県", "city": "八頭郡智頭町", "town": "西宇塚", "full": "鳥取県八頭郡智頭町西宇塚"}, {"postal_code": "6891426", "postal_hyphen": "689-1426", "pref": "鳥取県", "city": "八頭郡智頭町", "town": "西谷", "full": "鳥取県八頭郡智頭町西谷"}, {"postal_code": "6891414", "postal_hyphen": "689-1414", "pref": "鳥取県", "city": "八頭郡智頭町", "town": "西野", "full": "鳥取県八頭郡智頭町西野"}, {"postal_code": "6891444", "postal_hyphen": "689-1444", "pref": "鳥取県", "city": "八頭郡智頭町", "town": "野原", "full": "鳥取県八頭郡智頭町野原"}, {"postal_code": "6891466", "postal_hyphen": "689-1466", "pref": "鳥取県", "city": "八頭郡智頭町", "town": "波多", "full": "鳥取県八頭郡智頭町波多"}, {"postal_code": "6891433", "postal_hyphen": "689-1433", "pref": "鳥取県", "city": "八頭郡智頭町", "town": "埴師", "full": "鳥取県八頭郡智頭町埴師"}, {"postal_code": "6891445", "postal_hyphen": "689-1445", "pref": "鳥取県", "city": "八頭郡智頭町", "town": "早瀬", "full": "鳥取県八頭郡智頭町早瀬"}, {"postal_code": "6891453", "postal_hyphen": "689-1453", "pref": "鳥取県", "city": "八頭郡智頭町", "town": "東宇塚", "full": "鳥取県八頭郡智頭町東宇塚"}, {"postal_code": "6891425", "postal_hyphen": "689-1425", "pref": "鳥取県", "city": "八頭郡智頭町", "town": "福原", "full": "鳥取県八頭郡智頭町福原"}, {"postal_code": "6891432", "postal_hyphen": "689-1432", "pref": "鳥取県", "city": "八頭郡智頭町", "town": "穂見", "full": "鳥取県八頭郡智頭町穂見"}, {"postal_code": "6891443", "postal_hyphen": "689-1443", "pref": "鳥取県", "city": "八頭郡智頭町", "town": "真鹿野", "full": "鳥取県八頭郡智頭町真鹿野"}, {"postal_code": "6891437", "postal_hyphen": "689-1437", "pref": "鳥取県", "city": "八頭郡智頭町", "town": "三田", "full": "鳥取県八頭郡智頭町三田"}, {"postal_code": "6891403", "postal_hyphen": "689-1403", "pref": "鳥取県", "city": "八頭郡智頭町", "town": "南方", "full": "鳥取県八頭郡智頭町南方"}, {"postal_code": "6891434", "postal_hyphen": "689-1434", "pref": "鳥取県", "city": "八頭郡智頭町", "town": "三吉", "full": "鳥取県八頭郡智頭町三吉"}, {"postal_code": "6891411", "postal_hyphen": "689-1411", "pref": "鳥取県", "city": "八頭郡智頭町", "town": "八河谷", "full": "鳥取県八頭郡智頭町八河谷"}, {"postal_code": "6891431", "postal_hyphen": "689-1431", "pref": "鳥取県", "city": "八頭郡智頭町", "town": "山根", "full": "鳥取県八頭郡智頭町山根"}, {"postal_code": "6891435", "postal_hyphen": "689-1435", "pref": "鳥取県", "city": "八頭郡智頭町", "town": "横田", "full": "鳥取県八頭郡智頭町横田"}, {"postal_code": "6800400", "postal_hyphen": "680-0400", "pref": "鳥取県", "city": "八頭郡八頭町", "town": "", "full": "鳥取県八頭郡八頭町"}, {"postal_code": "6800302", "postal_hyphen": "680-0302", "pref": "鳥取県", "city": "八頭郡八頭町", "town": "明辺", "full": "鳥取県八頭郡八頭町明辺"}, {"postal_code": "6800305", "postal_hyphen": "680-0305", "pref": "鳥取県", "city": "八頭郡八頭町", "town": "麻生", "full": "鳥取県八頭郡八頭町麻生"}, {"postal_code": "6800452", "postal_hyphen": "680-0452", "pref": "鳥取県", "city": "八頭郡八頭町", "town": "池田", "full": "鳥取県八頭郡八頭町池田"}, {"postal_code": "6800425", "postal_hyphen": "680-0425", "pref": "鳥取県", "city": "八頭郡八頭町", "town": "井古", "full": "鳥取県八頭郡八頭町井古"}, {"postal_code": "6800454", "postal_hyphen": "680-0454", "pref": "鳥取県", "city": "八頭郡八頭町", "town": "石田百井", "full": "鳥取県八頭郡八頭町石田百井"}, {"postal_code": "6800442", "postal_hyphen": "680-0442", "pref": "鳥取県", "city": "八頭郡八頭町", "town": "市谷", "full": "鳥取県八頭郡八頭町市谷"}, {"postal_code": "6800311", "postal_hyphen": "680-0311", "pref": "鳥取県", "city": "八頭郡八頭町", "town": "市場", "full": "鳥取県八頭郡八頭町市場"}, {"postal_code": "6800424", "postal_hyphen": "680-0424", "pref": "鳥取県", "city": "八頭郡八頭町", "town": "稲荷", "full": "鳥取県八頭郡八頭町稲荷"}, {"postal_code": "6800537", "postal_hyphen": "680-0537", "pref": "鳥取県", "city": "八頭郡八頭町", "town": "岩淵", "full": "鳥取県八頭郡八頭町岩淵"}, {"postal_code": "6800434", "postal_hyphen": "680-0434", "pref": "鳥取県", "city": "八頭郡八頭町", "town": "延命寺", "full": "鳥取県八頭郡八頭町延命寺"}, {"postal_code": "6800416", "postal_hyphen": "680-0416", "pref": "鳥取県", "city": "八頭郡八頭町", "town": "大江", "full": "鳥取県八頭郡八頭町大江"}, {"postal_code": "6800435", "postal_hyphen": "680-0435", "pref": "鳥取県", "city": "八頭郡八頭町", "town": "大坪", "full": "鳥取県八頭郡八頭町大坪"}, {"postal_code": "6800427", "postal_hyphen": "680-0427", "pref": "鳥取県", "city": "八頭郡八頭町", "town": "奥谷", "full": "鳥取県八頭郡八頭町奥谷"}, {"postal_code": "6800543", "postal_hyphen": "680-0543", "pref": "鳥取県", "city": "八頭郡八頭町", "town": "奥野", "full": "鳥取県八頭郡八頭町奥野"}, {"postal_code": "6800303", "postal_hyphen": "680-0303", "pref": "鳥取県", "city": "八頭郡八頭町", "town": "落岩", "full": "鳥取県八頭郡八頭町落岩"}, {"postal_code": "6800426", "postal_hyphen": "680-0426", "pref": "鳥取県", "city": "八頭郡八頭町", "town": "下坂", "full": "鳥取県八頭郡八頭町下坂"}, {"postal_code": "6800533", "postal_hyphen": "680-0533", "pref": "鳥取県", "city": "八頭郡八頭町", "town": "皆原", "full": "鳥取県八頭郡八頭町皆原"}, {"postal_code": "6800545", "postal_hyphen": "680-0545", "pref": "鳥取県", "city": "八頭郡八頭町", "town": "柿原", "full": "鳥取県八頭郡八頭町柿原"}, {"postal_code": "6800312", "postal_hyphen": "680-0312", "pref": "鳥取県", "city": "八頭郡八頭町", "town": "覚王寺", "full": "鳥取県八頭郡八頭町覚王寺"}, {"postal_code": "6800534", "postal_hyphen": "680-0534", "pref": "鳥取県", "city": "八頭郡八頭町", "town": "鍛冶屋", "full": "鳥取県八頭郡八頭町鍛冶屋"}, {"postal_code": "6800422", "postal_hyphen": "680-0422", "pref": "鳥取県", "city": "八頭郡八頭町", "town": "門尾", "full": "鳥取県八頭郡八頭町門尾"}, {"postal_code": "6800313", "postal_hyphen": "680-0313", "pref": "鳥取県", "city": "八頭郡八頭町", "town": "上津黒", "full": "鳥取県八頭郡八頭町上津黒"}, {"postal_code": "6800401", "postal_hyphen": "680-0401", "pref": "鳥取県", "city": "八頭郡八頭町", "town": "上野", "full": "鳥取県八頭郡八頭町上野"}, {"postal_code": "6800432", "postal_hyphen": "680-0432", "pref": "鳥取県", "city": "八頭郡八頭町", "town": "上峰寺", "full": "鳥取県八頭郡八頭町上峰寺"}, {"postal_code": "6800601", "postal_hyphen": "680-0601", "pref": "鳥取県", "city": "八頭郡八頭町", "town": "北山", "full": "鳥取県八頭郡八頭町北山"}, {"postal_code": "6800526", "postal_hyphen": "680-0526", "pref": "鳥取県", "city": "八頭郡八頭町", "town": "日下部", "full": "鳥取県八頭郡八頭町日下部"}, {"postal_code": "6800457", "postal_hyphen": "680-0457", "pref": "鳥取県", "city": "八頭郡八頭町", "town": "国中", "full": "鳥取県八頭郡八頭町国中"}, {"postal_code": "6800451", "postal_hyphen": "680-0451", "pref": "鳥取県", "city": "八頭郡八頭町", "town": "久能寺", "full": "鳥取県八頭郡八頭町久能寺"}, {"postal_code": "6800443", "postal_hyphen": "680-0443", "pref": "鳥取県", "city": "八頭郡八頭町", "town": "郡家殿", "full": "鳥取県八頭郡八頭町郡家殿"}, {"postal_code": "6800461", "postal_hyphen": "680-0461", "pref": "鳥取県", "city": "八頭郡八頭町", "town": "郡家", "full": "鳥取県八頭郡八頭町郡家"}, {"postal_code": "6800523", "postal_hyphen": "680-0523", "pref": "鳥取県", "city": "八頭郡八頭町", "town": "小別府", "full": "鳥取県八頭郡八頭町小別府"}, {"postal_code": "6800531", "postal_hyphen": "680-0531", "pref": "鳥取県", "city": "八頭郡八頭町", "town": "才代", "full": "鳥取県八頭郡八頭町才代"}, {"postal_code": "6800473", "postal_hyphen": "680-0473", "pref": "鳥取県", "city": "八頭郡八頭町", "town": "坂田", "full": "鳥取県八頭郡八頭町坂田"}, {"postal_code": "6800527", "postal_hyphen": "680-0527", "pref": "鳥取県", "city": "八頭郡八頭町", "town": "桜ヶ丘", "full": "鳥取県八頭郡八頭町桜ヶ丘"}, {"postal_code": "6800544", "postal_hyphen": "680-0544", "pref": "鳥取県", "city": "八頭郡八頭町", "town": "佐崎", "full": "鳥取県八頭郡八頭町佐崎"}, {"postal_code": "6800316", "postal_hyphen": "680-0316", "pref": "鳥取県", "city": "八頭郡八頭町", "town": "篠波", "full": "鳥取県八頭郡八頭町篠波"}, {"postal_code": "6800413", "postal_hyphen": "680-0413", "pref": "鳥取県", "city": "八頭郡八頭町", "town": "塩上", "full": "鳥取県八頭郡八頭町塩上"}, {"postal_code": "6800606", "postal_hyphen": "680-0606", "pref": "鳥取県", "city": "八頭郡八頭町", "town": "重枝", "full": "鳥取県八頭郡八頭町重枝"}, {"postal_code": "6800407", "postal_hyphen": "680-0407", "pref": "鳥取県", "city": "八頭郡八頭町", "town": "志子部", "full": "鳥取県八頭郡八頭町志子部"}, {"postal_code": "6800612", "postal_hyphen": "680-0612", "pref": "鳥取県", "city": "八頭郡八頭町", "town": "志谷", "full": "鳥取県八頭郡八頭町志谷"}, {"postal_code": "6800605", "postal_hyphen": "680-0605", "pref": "鳥取県", "city": "八頭郡八頭町", "town": "島", "full": "鳥取県八頭郡八頭町島"}, {"postal_code": "6800421", "postal_hyphen": "680-0421", "pref": "鳥取県", "city": "八頭郡八頭町", "town": "下門尾", "full": "鳥取県八頭郡八頭町下門尾"}, {"postal_code": "6800314", "postal_hyphen": "680-0314", "pref": "鳥取県", "city": "八頭郡八頭町", "town": "下津黒", "full": "鳥取県八頭郡八頭町下津黒"}, {"postal_code": "6800415", "postal_hyphen": "680-0415", "pref": "鳥取県", "city": "八頭郡八頭町", "town": "下野", "full": "鳥取県八頭郡八頭町下野"}, {"postal_code": "6800472", "postal_hyphen": "680-0472", "pref": "鳥取県", "city": "八頭郡八頭町", "town": "下濃", "full": "鳥取県八頭郡八頭町下濃"}, {"postal_code": "6800431", "postal_hyphen": "680-0431", "pref": "鳥取県", "city": "八頭郡八頭町", "town": "下峰寺", "full": "鳥取県八頭郡八頭町下峰寺"}, {"postal_code": "6800522", "postal_hyphen": "680-0522", "pref": "鳥取県", "city": "八頭郡八頭町", "town": "新興寺", "full": "鳥取県八頭郡八頭町新興寺"}, {"postal_code": "6800541", "postal_hyphen": "680-0541", "pref": "鳥取県", "city": "八頭郡八頭町", "town": "清徳", "full": "鳥取県八頭郡八頭町清徳"}, {"postal_code": "6800445", "postal_hyphen": "680-0445", "pref": "鳥取県", "city": "八頭郡八頭町", "town": "大門", "full": "鳥取県八頭郡八頭町大門"}, {"postal_code": "6800607", "postal_hyphen": "680-0607", "pref": "鳥取県", "city": "八頭郡八頭町", "town": "徳丸", "full": "鳥取県八頭郡八頭町徳丸"}, {"postal_code": "6800611", "postal_hyphen": "680-0611", "pref": "鳥取県", "city": "八頭郡八頭町", "town": "富枝", "full": "鳥取県八頭郡八頭町富枝"}, {"postal_code": "6800614", "postal_hyphen": "680-0614", "pref": "鳥取県", "city": "八頭郡八頭町", "town": "中", "full": "鳥取県八頭郡八頭町中"}, {"postal_code": "6800408", "postal_hyphen": "680-0408", "pref": "鳥取県", "city": "八頭郡八頭町", "town": "西谷", "full": "鳥取県八頭郡八頭町西谷"}, {"postal_code": "6800441", "postal_hyphen": "680-0441", "pref": "鳥取県", "city": "八頭郡八頭町", "town": "西御門", "full": "鳥取県八頭郡八頭町西御門"}, {"postal_code": "6800306", "postal_hyphen": "680-0306", "pref": "鳥取県", "city": "八頭郡八頭町", "town": "野町", "full": "鳥取県八頭郡八頭町野町"}, {"postal_code": "6800414", "postal_hyphen": "680-0414", "pref": "鳥取県", "city": "八頭郡八頭町", "town": "橋本", "full": "鳥取県八頭郡八頭町橋本"}, {"postal_code": "6800455", "postal_hyphen": "680-0455", "pref": "鳥取県", "city": "八頭郡八頭町", "town": "土師百井", "full": "鳥取県八頭郡八頭町土師百井"}, {"postal_code": "6800444", "postal_hyphen": "680-0444", "pref": "鳥取県", "city": "八頭郡八頭町", "town": "花", "full": "鳥取県八頭郡八頭町花"}, {"postal_code": "6800437", "postal_hyphen": "680-0437", "pref": "鳥取県", "city": "八頭郡八頭町", "town": "花原", "full": "鳥取県八頭郡八頭町花原"}, {"postal_code": "6800402", "postal_hyphen": "680-0402", "pref": "鳥取県", "city": "八頭郡八頭町", "town": "隼福", "full": "鳥取県八頭郡八頭町隼福"}, {"postal_code": "6800405", "postal_hyphen": "680-0405", "pref": "鳥取県", "city": "八頭郡八頭町", "town": "隼郡家", "full": "鳥取県八頭郡八頭町隼郡家"}, {"postal_code": "6800613", "postal_hyphen": "680-0613", "pref": "鳥取県", "city": "八頭郡八頭町", "town": "稗谷", "full": "鳥取県八頭郡八頭町稗谷"}, {"postal_code": "6800532", "postal_hyphen": "680-0532", "pref": "鳥取県", "city": "八頭郡八頭町", "town": "東", "full": "鳥取県八頭郡八頭町東"}, {"postal_code": "6800603", "postal_hyphen": "680-0603", "pref": "鳥取県", "city": "八頭郡八頭町", "town": "日田", "full": "鳥取県八頭郡八頭町日田"}, {"postal_code": "6800301", "postal_hyphen": "680-0301", "pref": "鳥取県", "city": "八頭郡八頭町", "town": "姫路", "full": "鳥取県八頭郡八頭町姫路"}, {"postal_code": "6800403", "postal_hyphen": "680-0403", "pref": "鳥取県", "city": "八頭郡八頭町", "town": "福井", "full": "鳥取県八頭郡八頭町福井"}, {"postal_code": "6800307", "postal_hyphen": "680-0307", "pref": "鳥取県", "city": "八頭郡八頭町", "town": "福地", "full": "鳥取県八頭郡八頭町福地"}, {"postal_code": "6800462", "postal_hyphen": "680-0462", "pref": "鳥取県", "city": "八頭郡八頭町", "town": "福本", "full": "鳥取県八頭郡八頭町福本"}, {"postal_code": "6800471", "postal_hyphen": "680-0471", "pref": "鳥取県", "city": "八頭郡八頭町", "town": "船岡", "full": "鳥取県八頭郡八頭町船岡"}, {"postal_code": "6800411", "postal_hyphen": "680-0411", "pref": "鳥取県", "city": "八頭郡八頭町", "town": "船岡殿", "full": "鳥取県八頭郡八頭町船岡殿"}, {"postal_code": "6800315", "postal_hyphen": "680-0315", "pref": "鳥取県", "city": "八頭郡八頭町", "town": "別府", "full": "鳥取県八頭郡八頭町別府"}, {"postal_code": "6800423", "postal_hyphen": "680-0423", "pref": "鳥取県", "city": "八頭郡八頭町", "town": "堀越", "full": "鳥取県八頭郡八頭町堀越"}, {"postal_code": "6800453", "postal_hyphen": "680-0453", "pref": "鳥取県", "city": "八頭郡八頭町", "town": "万代寺", "full": "鳥取県八頭郡八頭町万代寺"}, {"postal_code": "6800536", "postal_hyphen": "680-0536", "pref": "鳥取県", "city": "八頭郡八頭町", "town": "三浦", "full": "鳥取県八頭郡八頭町三浦"}, {"postal_code": "6800406", "postal_hyphen": "680-0406", "pref": "鳥取県", "city": "八頭郡八頭町", "town": "見槻", "full": "鳥取県八頭郡八頭町見槻"}, {"postal_code": "6800404", "postal_hyphen": "680-0404", "pref": "鳥取県", "city": "八頭郡八頭町", "town": "見槻中", "full": "鳥取県八頭郡八頭町見槻中"}, {"postal_code": "6800412", "postal_hyphen": "680-0412", "pref": "鳥取県", "city": "八頭郡八頭町", "town": "水口", "full": "鳥取県八頭郡八頭町水口"}, {"postal_code": "6800604", "postal_hyphen": "680-0604", "pref": "鳥取県", "city": "八頭郡八頭町", "town": "南", "full": "鳥取県八頭郡八頭町南"}, {"postal_code": "6800463", "postal_hyphen": "680-0463", "pref": "鳥取県", "city": "八頭郡八頭町", "town": "宮谷", "full": "鳥取県八頭郡八頭町宮谷"}, {"postal_code": "6800535", "postal_hyphen": "680-0535", "pref": "鳥取県", "city": "八頭郡八頭町", "town": "三山口", "full": "鳥取県八頭郡八頭町三山口"}, {"postal_code": "6800524", "postal_hyphen": "680-0524", "pref": "鳥取県", "city": "八頭郡八頭町", "town": "茂田", "full": "鳥取県八頭郡八頭町茂田"}, {"postal_code": "6800542", "postal_hyphen": "680-0542", "pref": "鳥取県", "city": "八頭郡八頭町", "town": "茂谷", "full": "鳥取県八頭郡八頭町茂谷"}, {"postal_code": "6800521", "postal_hyphen": "680-0521", "pref": "鳥取県", "city": "八頭郡八頭町", "town": "安井宿", "full": "鳥取県八頭郡八頭町安井宿"}, {"postal_code": "6800436", "postal_hyphen": "680-0436", "pref": "鳥取県", "city": "八頭郡八頭町", "town": "山路", "full": "鳥取県八頭郡八頭町山路"}, {"postal_code": "6800304", "postal_hyphen": "680-0304", "pref": "鳥取県", "city": "八頭郡八頭町", "town": "山志谷", "full": "鳥取県八頭郡八頭町山志谷"}, {"postal_code": "6800438", "postal_hyphen": "680-0438", "pref": "鳥取県", "city": "八頭郡八頭町", "town": "山田", "full": "鳥取県八頭郡八頭町山田"}, {"postal_code": "6800433", "postal_hyphen": "680-0433", "pref": "鳥取県", "city": "八頭郡八頭町", "town": "山上", "full": "鳥取県八頭郡八頭町山上"}, {"postal_code": "6800602", "postal_hyphen": "680-0602", "pref": "鳥取県", "city": "八頭郡八頭町", "town": "用呂", "full": "鳥取県八頭郡八頭町用呂"}, {"postal_code": "6800525", "postal_hyphen": "680-0525", "pref": "鳥取県", "city": "八頭郡八頭町", "town": "横田", "full": "鳥取県八頭郡八頭町横田"}, {"postal_code": "6800456", "postal_hyphen": "680-0456", "pref": "鳥取県", "city": "八頭郡八頭町", "town": "米岡", "full": "鳥取県八頭郡八頭町米岡"}, {"postal_code": "6800474", "postal_hyphen": "680-0474", "pref": "鳥取県", "city": "八頭郡八頭町", "town": "破岩", "full": "鳥取県八頭郡八頭町破岩"}, {"postal_code": "6820100", "postal_hyphen": "682-0100", "pref": "鳥取県", "city": "東伯郡三朝町", "town": "", "full": "鳥取県東伯郡三朝町"}, {"postal_code": "6820172", "postal_hyphen": "682-0172", "pref": "鳥取県", "city": "東伯郡三朝町", "town": "赤松", "full": "鳥取県東伯郡三朝町赤松"}, {"postal_code": "6820303", "postal_hyphen": "682-0303", "pref": "鳥取県", "city": "東伯郡三朝町", "town": "穴鴨", "full": "鳥取県東伯郡三朝町穴鴨"}, {"postal_code": "6820151", "postal_hyphen": "682-0151", "pref": "鳥取県", "city": "東伯郡三朝町", "town": "今泉", "full": "鳥取県東伯郡三朝町今泉"}, {"postal_code": "6820177", "postal_hyphen": "682-0177", "pref": "鳥取県", "city": "東伯郡三朝町", "town": "大柿", "full": "鳥取県東伯郡三朝町大柿"}, {"postal_code": "6820121", "postal_hyphen": "682-0121", "pref": "鳥取県", "city": "東伯郡三朝町", "town": "大瀬", "full": "鳥取県東伯郡三朝町大瀬"}, {"postal_code": "6820315", "postal_hyphen": "682-0315", "pref": "鳥取県", "city": "東伯郡三朝町", "town": "大谷", "full": "鳥取県東伯郡三朝町大谷"}, {"postal_code": "6820157", "postal_hyphen": "682-0157", "pref": "鳥取県", "city": "東伯郡三朝町", "town": "小河内", "full": "鳥取県東伯郡三朝町小河内"}, {"postal_code": "6820173", "postal_hyphen": "682-0173", "pref": "鳥取県", "city": "東伯郡三朝町", "town": "恩地", "full": "鳥取県東伯郡三朝町恩地"}, {"postal_code": "6820161", "postal_hyphen": "682-0161", "pref": "鳥取県", "city": "東伯郡三朝町", "town": "柿谷", "full": "鳥取県東伯郡三朝町柿谷"}, {"postal_code": "6820135", "postal_hyphen": "682-0135", "pref": "鳥取県", "city": "東伯郡三朝町", "town": "片柴", "full": "鳥取県東伯郡三朝町片柴"}, {"postal_code": "6820302", "postal_hyphen": "682-0302", "pref": "鳥取県", "city": "東伯郡三朝町", "town": "加谷", "full": "鳥取県東伯郡三朝町加谷"}, {"postal_code": "6820154", "postal_hyphen": "682-0154", "pref": "鳥取県", "city": "東伯郡三朝町", "town": "鎌田", "full": "鳥取県東伯郡三朝町鎌田"}, {"postal_code": "6820313", "postal_hyphen": "682-0313", "pref": "鳥取県", "city": "東伯郡三朝町", "town": "上西谷", "full": "鳥取県東伯郡三朝町上西谷"}, {"postal_code": "6820142", "postal_hyphen": "682-0142", "pref": "鳥取県", "city": "東伯郡三朝町", "town": "神倉", "full": "鳥取県東伯郡三朝町神倉"}, {"postal_code": "6820301", "postal_hyphen": "682-0301", "pref": "鳥取県", "city": "東伯郡三朝町", "town": "木地山", "full": "鳥取県東伯郡三朝町木地山"}, {"postal_code": "6820375", "postal_hyphen": "682-0375", "pref": "鳥取県", "city": "東伯郡三朝町", "town": "久原", "full": "鳥取県東伯郡三朝町久原"}, {"postal_code": "6820123", "postal_hyphen": "682-0123", "pref": "鳥取県", "city": "東伯郡三朝町", "town": "恋谷", "full": "鳥取県東伯郡三朝町恋谷"}, {"postal_code": "6820136", "postal_hyphen": "682-0136", "pref": "鳥取県", "city": "東伯郡三朝町", "town": "坂本", "full": "鳥取県東伯郡三朝町坂本"}, {"postal_code": "6820133", "postal_hyphen": "682-0133", "pref": "鳥取県", "city": "東伯郡三朝町", "town": "桜ケ丘", "full": "鳥取県東伯郡三朝町桜ケ丘"}, {"postal_code": "6820156", "postal_hyphen": "682-0156", "pref": "鳥取県", "city": "東伯郡三朝町", "town": "下谷", "full": "鳥取県東伯郡三朝町下谷"}, {"postal_code": "6820312", "postal_hyphen": "682-0312", "pref": "鳥取県", "city": "東伯郡三朝町", "town": "下西谷", "full": "鳥取県東伯郡三朝町下西谷"}, {"postal_code": "6820316", "postal_hyphen": "682-0316", "pref": "鳥取県", "city": "東伯郡三朝町", "town": "下畑", "full": "鳥取県東伯郡三朝町下畑"}, {"postal_code": "6820176", "postal_hyphen": "682-0176", "pref": "鳥取県", "city": "東伯郡三朝町", "town": "助谷", "full": "鳥取県東伯郡三朝町助谷"}, {"postal_code": "6820124", "postal_hyphen": "682-0124", "pref": "鳥取県", "city": "東伯郡三朝町", "town": "砂原", "full": "鳥取県東伯郡三朝町砂原"}, {"postal_code": "6820374", "postal_hyphen": "682-0374", "pref": "鳥取県", "city": "東伯郡三朝町", "town": "曹源寺", "full": "鳥取県東伯郡三朝町曹源寺"}, {"postal_code": "6820146", "postal_hyphen": "682-0146", "pref": "鳥取県", "city": "東伯郡三朝町", "town": "高橋", "full": "鳥取県東伯郡三朝町高橋"}, {"postal_code": "6820314", "postal_hyphen": "682-0314", "pref": "鳥取県", "city": "東伯郡三朝町", "town": "田代", "full": "鳥取県東伯郡三朝町田代"}, {"postal_code": "6820131", "postal_hyphen": "682-0131", "pref": "鳥取県", "city": "東伯郡三朝町", "town": "俵原", "full": "鳥取県東伯郡三朝町俵原"}, {"postal_code": "6820158", "postal_hyphen": "682-0158", "pref": "鳥取県", "city": "東伯郡三朝町", "town": "笏賀", "full": "鳥取県東伯郡三朝町笏賀"}, {"postal_code": "6820153", "postal_hyphen": "682-0153", "pref": "鳥取県", "city": "東伯郡三朝町", "town": "天神", "full": "鳥取県東伯郡三朝町天神"}, {"postal_code": "6820125", "postal_hyphen": "682-0125", "pref": "鳥取県", "city": "東伯郡三朝町", "town": "徳本", "full": "鳥取県東伯郡三朝町徳本"}, {"postal_code": "6820141", "postal_hyphen": "682-0141", "pref": "鳥取県", "city": "東伯郡三朝町", "town": "中津", "full": "鳥取県東伯郡三朝町中津"}, {"postal_code": "6820162", "postal_hyphen": "682-0162", "pref": "鳥取県", "city": "東伯郡三朝町", "town": "鉛山", "full": "鳥取県東伯郡三朝町鉛山"}, {"postal_code": "6820145", "postal_hyphen": "682-0145", "pref": "鳥取県", "city": "東伯郡三朝町", "town": "西尾", "full": "鳥取県東伯郡三朝町西尾"}, {"postal_code": "6820144", "postal_hyphen": "682-0144", "pref": "鳥取県", "city": "東伯郡三朝町", "town": "西小鹿", "full": "鳥取県東伯郡三朝町西小鹿"}, {"postal_code": "6820143", "postal_hyphen": "682-0143", "pref": "鳥取県", "city": "東伯郡三朝町", "town": "東小鹿", "full": "鳥取県東伯郡三朝町東小鹿"}, {"postal_code": "6820159", "postal_hyphen": "682-0159", "pref": "鳥取県", "city": "東伯郡三朝町", "town": "福田", "full": "鳥取県東伯郡三朝町福田"}, {"postal_code": "6820317", "postal_hyphen": "682-0317", "pref": "鳥取県", "city": "東伯郡三朝町", "town": "福本", "full": "鳥取県東伯郡三朝町福本"}, {"postal_code": "6820311", "postal_hyphen": "682-0311", "pref": "鳥取県", "city": "東伯郡三朝町", "town": "福山", "full": "鳥取県東伯郡三朝町福山"}, {"postal_code": "6820163", "postal_hyphen": "682-0163", "pref": "鳥取県", "city": "東伯郡三朝町", "town": "福吉", "full": "鳥取県東伯郡三朝町福吉"}, {"postal_code": "6820178", "postal_hyphen": "682-0178", "pref": "鳥取県", "city": "東伯郡三朝町", "town": "牧", "full": "鳥取県東伯郡三朝町牧"}, {"postal_code": "6820123", "postal_hyphen": "682-0123", "pref": "鳥取県", "city": "東伯郡三朝町", "town": "三朝", "full": "鳥取県東伯郡三朝町三朝"}, {"postal_code": "6820132", "postal_hyphen": "682-0132", "pref": "鳥取県", "city": "東伯郡三朝町", "town": "三徳", "full": "鳥取県東伯郡三朝町三徳"}, {"postal_code": "6820152", "postal_hyphen": "682-0152", "pref": "鳥取県", "city": "東伯郡三朝町", "town": "本泉", "full": "鳥取県東伯郡三朝町本泉"}, {"postal_code": "6820153", "postal_hyphen": "682-0153", "pref": "鳥取県", "city": "東伯郡三朝町", "town": "森", "full": "鳥取県東伯郡三朝町森"}, {"postal_code": "6820122", "postal_hyphen": "682-0122", "pref": "鳥取県", "city": "東伯郡三朝町", "town": "山田", "full": "鳥取県東伯郡三朝町山田"}, {"postal_code": "6820171", "postal_hyphen": "682-0171", "pref": "鳥取県", "city": "東伯郡三朝町", "town": "湯谷", "full": "鳥取県東伯郡三朝町湯谷"}, {"postal_code": "6820125", "postal_hyphen": "682-0125", "pref": "鳥取県", "city": "東伯郡三朝町", "town": "横手", "full": "鳥取県東伯郡三朝町横手"}, {"postal_code": "6820155", "postal_hyphen": "682-0155", "pref": "鳥取県", "city": "東伯郡三朝町", "town": "吉尾", "full": "鳥取県東伯郡三朝町吉尾"}, {"postal_code": "6820133", "postal_hyphen": "682-0133", "pref": "鳥取県", "city": "東伯郡三朝町", "town": "吉田", "full": "鳥取県東伯郡三朝町吉田"}, {"postal_code": "6820134", "postal_hyphen": "682-0134", "pref": "鳥取県", "city": "東伯郡三朝町", "town": "余戸", "full": "鳥取県東伯郡三朝町余戸"}, {"postal_code": "6820151", "postal_hyphen": "682-0151", "pref": "鳥取県", "city": "東伯郡三朝町", "town": "若宮", "full": "鳥取県東伯郡三朝町若宮"}, {"postal_code": "6820700", "postal_hyphen": "682-0700", "pref": "鳥取県", "city": "東伯郡湯梨浜町", "town": "", "full": "鳥取県東伯郡湯梨浜町"}, {"postal_code": "6820714", "postal_hyphen": "682-0714", "pref": "鳥取県", "city": "東伯郡湯梨浜町", "town": "赤池", "full": "鳥取県東伯郡湯梨浜町赤池"}, {"postal_code": "6890721", "postal_hyphen": "689-0721", "pref": "鳥取県", "city": "東伯郡湯梨浜町", "town": "麻畑", "full": "鳥取県東伯郡湯梨浜町麻畑"}, {"postal_code": "6890713", "postal_hyphen": "689-0713", "pref": "鳥取県", "city": "東伯郡湯梨浜町", "town": "旭", "full": "鳥取県東伯郡湯梨浜町旭"}, {"postal_code": "6890602", "postal_hyphen": "689-0602", "pref": "鳥取県", "city": "東伯郡湯梨浜町", "town": "石脇", "full": "鳥取県東伯郡湯梨浜町石脇"}, {"postal_code": "6890733", "postal_hyphen": "689-0733", "pref": "鳥取県", "city": "東伯郡湯梨浜町", "town": "羽衣石", "full": "鳥取県東伯郡湯梨浜町羽衣石"}, {"postal_code": "6890607", "postal_hyphen": "689-0607", "pref": "鳥取県", "city": "東伯郡湯梨浜町", "town": "宇谷", "full": "鳥取県東伯郡湯梨浜町宇谷"}, {"postal_code": "6820701", "postal_hyphen": "682-0701", "pref": "鳥取県", "city": "東伯郡湯梨浜町", "town": "宇野", "full": "鳥取県東伯郡湯梨浜町宇野"}, {"postal_code": "6890702", "postal_hyphen": "689-0702", "pref": "鳥取県", "city": "東伯郡湯梨浜町", "town": "漆原", "full": "鳥取県東伯郡湯梨浜町漆原"}, {"postal_code": "6890729", "postal_hyphen": "689-0729", "pref": "鳥取県", "city": "東伯郡湯梨浜町", "town": "小鹿谷", "full": "鳥取県東伯郡湯梨浜町小鹿谷"}, {"postal_code": "6890724", "postal_hyphen": "689-0724", "pref": "鳥取県", "city": "東伯郡湯梨浜町", "town": "方面", "full": "鳥取県東伯郡湯梨浜町方面"}, {"postal_code": "6890736", "postal_hyphen": "689-0736", "pref": "鳥取県", "city": "東伯郡湯梨浜町", "town": "門田", "full": "鳥取県東伯郡湯梨浜町門田"}, {"postal_code": "6820712", "postal_hyphen": "682-0712", "pref": "鳥取県", "city": "東伯郡湯梨浜町", "town": "上浅津", "full": "鳥取県東伯郡湯梨浜町上浅津"}, {"postal_code": "6820703", "postal_hyphen": "682-0703", "pref": "鳥取県", "city": "東伯郡湯梨浜町", "town": "上橋津", "full": "鳥取県東伯郡湯梨浜町上橋津"}, {"postal_code": "6890722", "postal_hyphen": "689-0722", "pref": "鳥取県", "city": "東伯郡湯梨浜町", "town": "川上", "full": "鳥取県東伯郡湯梨浜町川上"}, {"postal_code": "6890701", "postal_hyphen": "689-0701", "pref": "鳥取県", "city": "東伯郡湯梨浜町", "town": "北福", "full": "鳥取県東伯郡湯梨浜町北福"}, {"postal_code": "6890726", "postal_hyphen": "689-0726", "pref": "鳥取県", "city": "東伯郡湯梨浜町", "town": "国信", "full": "鳥取県東伯郡湯梨浜町国信"}, {"postal_code": "6890603", "postal_hyphen": "689-0603", "pref": "鳥取県", "city": "東伯郡湯梨浜町", "town": "小浜", "full": "鳥取県東伯郡湯梨浜町小浜"}, {"postal_code": "6890735", "postal_hyphen": "689-0735", "pref": "鳥取県", "city": "東伯郡湯梨浜町", "town": "佐美", "full": "鳥取県東伯郡湯梨浜町佐美"}, {"postal_code": "6820711", "postal_hyphen": "682-0711", "pref": "鳥取県", "city": "東伯郡湯梨浜町", "town": "下浅津", "full": "鳥取県東伯郡湯梨浜町下浅津"}, {"postal_code": "6890704", "postal_hyphen": "689-0704", "pref": "鳥取県", "city": "東伯郡湯梨浜町", "town": "白石", "full": "鳥取県東伯郡湯梨浜町白石"}, {"postal_code": "6890605", "postal_hyphen": "689-0605", "pref": "鳥取県", "city": "東伯郡湯梨浜町", "town": "園", "full": "鳥取県東伯郡湯梨浜町園"}, {"postal_code": "6890723", "postal_hyphen": "689-0723", "pref": "鳥取県", "city": "東伯郡湯梨浜町", "town": "高辻", "full": "鳥取県東伯郡湯梨浜町高辻"}, {"postal_code": "6820721", "postal_hyphen": "682-0721", "pref": "鳥取県", "city": "東伯郡湯梨浜町", "town": "田後", "full": "鳥取県東伯郡湯梨浜町田後"}, {"postal_code": "6890727", "postal_hyphen": "689-0727", "pref": "鳥取県", "city": "東伯郡湯梨浜町", "town": "田畑", "full": "鳥取県東伯郡湯梨浜町田畑"}, {"postal_code": "6890712", "postal_hyphen": "689-0712", "pref": "鳥取県", "city": "東伯郡湯梨浜町", "town": "中興寺", "full": "鳥取県東伯郡湯梨浜町中興寺"}, {"postal_code": "6890604", "postal_hyphen": "689-0604", "pref": "鳥取県", "city": "東伯郡湯梨浜町", "town": "筒地", "full": "鳥取県東伯郡湯梨浜町筒地"}, {"postal_code": "6890601", "postal_hyphen": "689-0601", "pref": "鳥取県", "city": "東伯郡湯梨浜町", "town": "泊", "full": "鳥取県東伯郡湯梨浜町泊"}, {"postal_code": "6890737", "postal_hyphen": "689-0737", "pref": "鳥取県", "city": "東伯郡湯梨浜町", "town": "長江", "full": "鳥取県東伯郡湯梨浜町長江"}, {"postal_code": "6890732", "postal_hyphen": "689-0732", "pref": "鳥取県", "city": "東伯郡湯梨浜町", "town": "長和田", "full": "鳥取県東伯郡湯梨浜町長和田"}, {"postal_code": "6890705", "postal_hyphen": "689-0705", "pref": "鳥取県", "city": "東伯郡湯梨浜町", "town": "野方", "full": "鳥取県東伯郡湯梨浜町野方"}, {"postal_code": "6890731", "postal_hyphen": "689-0731", "pref": "鳥取県", "city": "東伯郡湯梨浜町", "town": "野花", "full": "鳥取県東伯郡湯梨浜町野花"}, {"postal_code": "6820702", "postal_hyphen": "682-0702", "pref": "鳥取県", "city": "東伯郡湯梨浜町", "town": "橋津", "full": "鳥取県東伯郡湯梨浜町橋津"}, {"postal_code": "6890734", "postal_hyphen": "689-0734", "pref": "鳥取県", "city": "東伯郡湯梨浜町", "town": "埴見", "full": "鳥取県東伯郡湯梨浜町埴見"}, {"postal_code": "6890606", "postal_hyphen": "689-0606", "pref": "鳥取県", "city": "東伯郡湯梨浜町", "town": "原", "full": "鳥取県東伯郡湯梨浜町原"}, {"postal_code": "6820715", "postal_hyphen": "682-0715", "pref": "鳥取県", "city": "東伯郡湯梨浜町", "town": "はわい温泉", "full": "鳥取県東伯郡湯梨浜町はわい温泉"}, {"postal_code": "6820722", "postal_hyphen": "682-0722", "pref": "鳥取県", "city": "東伯郡湯梨浜町", "town": "はわい長瀬", "full": "鳥取県東伯郡湯梨浜町はわい長瀬"}, {"postal_code": "6890715", "postal_hyphen": "689-0715", "pref": "鳥取県", "city": "東伯郡湯梨浜町", "town": "引地", "full": "鳥取県東伯郡湯梨浜町引地"}, {"postal_code": "6820723", "postal_hyphen": "682-0723", "pref": "鳥取県", "city": "東伯郡湯梨浜町", "town": "久留", "full": "鳥取県東伯郡湯梨浜町久留"}, {"postal_code": "6890728", "postal_hyphen": "689-0728", "pref": "鳥取県", "city": "東伯郡湯梨浜町", "town": "久見", "full": "鳥取県東伯郡湯梨浜町久見"}, {"postal_code": "6890706", "postal_hyphen": "689-0706", "pref": "鳥取県", "city": "東伯郡湯梨浜町", "town": "藤津", "full": "鳥取県東伯郡湯梨浜町藤津"}, {"postal_code": "6890725", "postal_hyphen": "689-0725", "pref": "鳥取県", "city": "東伯郡湯梨浜町", "town": "別所", "full": "鳥取県東伯郡湯梨浜町別所"}, {"postal_code": "6890703", "postal_hyphen": "689-0703", "pref": "鳥取県", "city": "東伯郡湯梨浜町", "town": "方地", "full": "鳥取県東伯郡湯梨浜町方地"}, {"postal_code": "6890711", "postal_hyphen": "689-0711", "pref": "鳥取県", "city": "東伯郡湯梨浜町", "town": "松崎", "full": "鳥取県東伯郡湯梨浜町松崎"}, {"postal_code": "6820724", "postal_hyphen": "682-0724", "pref": "鳥取県", "city": "東伯郡湯梨浜町", "town": "水下", "full": "鳥取県東伯郡湯梨浜町水下"}, {"postal_code": "6820713", "postal_hyphen": "682-0713", "pref": "鳥取県", "city": "東伯郡湯梨浜町", "town": "光吉", "full": "鳥取県東伯郡湯梨浜町光吉"}, {"postal_code": "6820704", "postal_hyphen": "682-0704", "pref": "鳥取県", "city": "東伯郡湯梨浜町", "town": "南谷", "full": "鳥取県東伯郡湯梨浜町南谷"}, {"postal_code": "6890707", "postal_hyphen": "689-0707", "pref": "鳥取県", "city": "東伯郡湯梨浜町", "town": "宮内", "full": "鳥取県東伯郡湯梨浜町宮内"}, {"postal_code": "6890714", "postal_hyphen": "689-0714", "pref": "鳥取県", "city": "東伯郡湯梨浜町", "town": "龍島", "full": "鳥取県東伯郡湯梨浜町龍島"}, {"postal_code": "6892300", "postal_hyphen": "689-2300", "pref": "鳥取県", "city": "東伯郡琴浦町", "town": "", "full": "鳥取県東伯郡琴浦町"}, {"postal_code": "6892501", "postal_hyphen": "689-2501", "pref": "鳥取県", "city": "東伯郡琴浦町", "town": "赤碕", "full": "鳥取県東伯郡琴浦町赤碕"}, {"postal_code": "6892511", "postal_hyphen": "689-2511", "pref": "鳥取県", "city": "東伯郡琴浦町", "town": "出上", "full": "鳥取県東伯郡琴浦町出上"}, {"postal_code": "6892543", "postal_hyphen": "689-2543", "pref": "鳥取県", "city": "東伯郡琴浦町", "town": "梅田", "full": "鳥取県東伯郡琴浦町梅田"}, {"postal_code": "6892352", "postal_hyphen": "689-2352", "pref": "鳥取県", "city": "東伯郡琴浦町", "town": "浦安", "full": "鳥取県東伯郡琴浦町浦安"}, {"postal_code": "6892344", "postal_hyphen": "689-2344", "pref": "鳥取県", "city": "東伯郡琴浦町", "town": "大杉", "full": "鳥取県東伯郡琴浦町大杉"}, {"postal_code": "6892304", "postal_hyphen": "689-2304", "pref": "鳥取県", "city": "東伯郡琴浦町", "town": "逢束", "full": "鳥取県東伯郡琴浦町逢束"}, {"postal_code": "6892524", "postal_hyphen": "689-2524", "pref": "鳥取県", "city": "東伯郡琴浦町", "town": "大父", "full": "鳥取県東伯郡琴浦町大父"}, {"postal_code": "6892535", "postal_hyphen": "689-2535", "pref": "鳥取県", "city": "東伯郡琴浦町", "town": "尾張", "full": "鳥取県東伯郡琴浦町尾張"}, {"postal_code": "6892306", "postal_hyphen": "689-2306", "pref": "鳥取県", "city": "東伯郡琴浦町", "town": "笠見", "full": "鳥取県東伯郡琴浦町笠見"}, {"postal_code": "6892512", "postal_hyphen": "689-2512", "pref": "鳥取県", "city": "東伯郡琴浦町", "town": "勝田", "full": "鳥取県東伯郡琴浦町勝田"}, {"postal_code": "6892312", "postal_hyphen": "689-2312", "pref": "鳥取県", "city": "東伯郡琴浦町", "town": "金屋", "full": "鳥取県東伯郡琴浦町金屋"}, {"postal_code": "6892315", "postal_hyphen": "689-2315", "pref": "鳥取県", "city": "東伯郡琴浦町", "town": "上伊勢", "full": "鳥取県東伯郡琴浦町上伊勢"}, {"postal_code": "6892342", "postal_hyphen": "689-2342", "pref": "鳥取県", "city": "東伯郡琴浦町", "town": "公文", "full": "鳥取県東伯郡琴浦町公文"}, {"postal_code": "6892341", "postal_hyphen": "689-2341", "pref": "鳥取県", "city": "東伯郡琴浦町", "town": "倉坂", "full": "鳥取県東伯郡琴浦町倉坂"}, {"postal_code": "6892355", "postal_hyphen": "689-2355", "pref": "鳥取県", "city": "東伯郡琴浦町", "town": "釛", "full": "鳥取県東伯郡琴浦町釛"}, {"postal_code": "6892531", "postal_hyphen": "689-2531", "pref": "鳥取県", "city": "東伯郡琴浦町", "town": "佐崎", "full": "鳥取県東伯郡琴浦町佐崎"}, {"postal_code": "6892334", "postal_hyphen": "689-2334", "pref": "鳥取県", "city": "東伯郡琴浦町", "town": "三本杉", "full": "鳥取県東伯郡琴浦町三本杉"}, {"postal_code": "6892316", "postal_hyphen": "689-2316", "pref": "鳥取県", "city": "東伯郡琴浦町", "town": "下伊勢", "full": "鳥取県東伯郡琴浦町下伊勢"}, {"postal_code": "6892314", "postal_hyphen": "689-2314", "pref": "鳥取県", "city": "東伯郡琴浦町", "town": "下大江", "full": "鳥取県東伯郡琴浦町下大江"}, {"postal_code": "6892331", "postal_hyphen": "689-2331", "pref": "鳥取県", "city": "東伯郡琴浦町", "town": "杉地", "full": "鳥取県東伯郡琴浦町杉地"}, {"postal_code": "6892313", "postal_hyphen": "689-2313", "pref": "鳥取県", "city": "東伯郡琴浦町", "town": "杉下", "full": "鳥取県東伯郡琴浦町杉下"}, {"postal_code": "6892532", "postal_hyphen": "689-2532", "pref": "鳥取県", "city": "東伯郡琴浦町", "town": "太一垣", "full": "鳥取県東伯郡琴浦町太一垣"}, {"postal_code": "6892523", "postal_hyphen": "689-2523", "pref": "鳥取県", "city": "東伯郡琴浦町", "town": "高岡", "full": "鳥取県東伯郡琴浦町高岡"}, {"postal_code": "6892521", "postal_hyphen": "689-2521", "pref": "鳥取県", "city": "東伯郡琴浦町", "town": "竹内", "full": "鳥取県東伯郡琴浦町竹内"}, {"postal_code": "6892356", "postal_hyphen": "689-2356", "pref": "鳥取県", "city": "東伯郡琴浦町", "town": "田越", "full": "鳥取県東伯郡琴浦町田越"}, {"postal_code": "6892305", "postal_hyphen": "689-2305", "pref": "鳥取県", "city": "東伯郡琴浦町", "town": "槻下", "full": "鳥取県東伯郡琴浦町槻下"}, {"postal_code": "6892303", "postal_hyphen": "689-2303", "pref": "鳥取県", "city": "東伯郡琴浦町", "town": "徳万", "full": "鳥取県東伯郡琴浦町徳万"}, {"postal_code": "6892311", "postal_hyphen": "689-2311", "pref": "鳥取県", "city": "東伯郡琴浦町", "town": "中尾", "full": "鳥取県東伯郡琴浦町中尾"}, {"postal_code": "6892335", "postal_hyphen": "689-2335", "pref": "鳥取県", "city": "東伯郡琴浦町", "town": "中津原", "full": "鳥取県東伯郡琴浦町中津原"}, {"postal_code": "6892533", "postal_hyphen": "689-2533", "pref": "鳥取県", "city": "東伯郡琴浦町", "town": "中村", "full": "鳥取県東伯郡琴浦町中村"}, {"postal_code": "6892513", "postal_hyphen": "689-2513", "pref": "鳥取県", "city": "東伯郡琴浦町", "town": "西宮", "full": "鳥取県東伯郡琴浦町西宮"}, {"postal_code": "6892336", "postal_hyphen": "689-2336", "pref": "鳥取県", "city": "東伯郡琴浦町", "town": "野井倉", "full": "鳥取県東伯郡琴浦町野井倉"}, {"postal_code": "6892346", "postal_hyphen": "689-2346", "pref": "鳥取県", "city": "東伯郡琴浦町", "town": "野田", "full": "鳥取県東伯郡琴浦町野田"}, {"postal_code": "6892544", "postal_hyphen": "689-2544", "pref": "鳥取県", "city": "東伯郡琴浦町", "town": "箆津", "full": "鳥取県東伯郡琴浦町箆津"}, {"postal_code": "6892322", "postal_hyphen": "689-2322", "pref": "鳥取県", "city": "東伯郡琴浦町", "town": "八反田", "full": "鳥取県東伯郡琴浦町八反田"}, {"postal_code": "6892345", "postal_hyphen": "689-2345", "pref": "鳥取県", "city": "東伯郡琴浦町", "town": "福永", "full": "鳥取県東伯郡琴浦町福永"}, {"postal_code": "6892332", "postal_hyphen": "689-2332", "pref": "鳥取県", "city": "東伯郡琴浦町", "town": "古長", "full": "鳥取県東伯郡琴浦町古長"}, {"postal_code": "6892502", "postal_hyphen": "689-2502", "pref": "鳥取県", "city": "東伯郡琴浦町", "town": "別所", "full": "鳥取県東伯郡琴浦町別所"}, {"postal_code": "6892333", "postal_hyphen": "689-2333", "pref": "鳥取県", "city": "東伯郡琴浦町", "town": "別宮", "full": "鳥取県東伯郡琴浦町別宮"}, {"postal_code": "6892351", "postal_hyphen": "689-2351", "pref": "鳥取県", "city": "東伯郡琴浦町", "town": "保", "full": "鳥取県東伯郡琴浦町保"}, {"postal_code": "6892325", "postal_hyphen": "689-2325", "pref": "鳥取県", "city": "東伯郡琴浦町", "town": "法万", "full": "鳥取県東伯郡琴浦町法万"}, {"postal_code": "6892503", "postal_hyphen": "689-2503", "pref": "鳥取県", "city": "東伯郡琴浦町", "town": "松谷", "full": "鳥取県東伯郡琴浦町松谷"}, {"postal_code": "6892302", "postal_hyphen": "689-2302", "pref": "鳥取県", "city": "東伯郡琴浦町", "town": "丸尾", "full": "鳥取県東伯郡琴浦町丸尾"}, {"postal_code": "6892534", "postal_hyphen": "689-2534", "pref": "鳥取県", "city": "東伯郡琴浦町", "town": "光", "full": "鳥取県東伯郡琴浦町光"}, {"postal_code": "6892326", "postal_hyphen": "689-2326", "pref": "鳥取県", "city": "東伯郡琴浦町", "town": "光好", "full": "鳥取県東伯郡琴浦町光好"}, {"postal_code": "6892353", "postal_hyphen": "689-2353", "pref": "鳥取県", "city": "東伯郡琴浦町", "town": "三保", "full": "鳥取県東伯郡琴浦町三保"}, {"postal_code": "6892522", "postal_hyphen": "689-2522", "pref": "鳥取県", "city": "東伯郡琴浦町", "town": "宮木", "full": "鳥取県東伯郡琴浦町宮木"}, {"postal_code": "6892323", "postal_hyphen": "689-2323", "pref": "鳥取県", "city": "東伯郡琴浦町", "town": "宮場", "full": "鳥取県東伯郡琴浦町宮場"}, {"postal_code": "6892354", "postal_hyphen": "689-2354", "pref": "鳥取県", "city": "東伯郡琴浦町", "town": "美好", "full": "鳥取県東伯郡琴浦町美好"}, {"postal_code": "6892321", "postal_hyphen": "689-2321", "pref": "鳥取県", "city": "東伯郡琴浦町", "town": "森藤", "full": "鳥取県東伯郡琴浦町森藤"}, {"postal_code": "6892324", "postal_hyphen": "689-2324", "pref": "鳥取県", "city": "東伯郡琴浦町", "town": "矢下", "full": "鳥取県東伯郡琴浦町矢下"}, {"postal_code": "6892301", "postal_hyphen": "689-2301", "pref": "鳥取県", "city": "東伯郡琴浦町", "town": "八橋", "full": "鳥取県東伯郡琴浦町八橋"}, {"postal_code": "6892525", "postal_hyphen": "689-2525", "pref": "鳥取県", "city": "東伯郡琴浦町", "town": "山川", "full": "鳥取県東伯郡琴浦町山川"}, {"postal_code": "6892343", "postal_hyphen": "689-2343", "pref": "鳥取県", "city": "東伯郡琴浦町", "town": "山田", "full": "鳥取県東伯郡琴浦町山田"}, {"postal_code": "6892541", "postal_hyphen": "689-2541", "pref": "鳥取県", "city": "東伯郡琴浦町", "town": "八幡", "full": "鳥取県東伯郡琴浦町八幡"}, {"postal_code": "6892542", "postal_hyphen": "689-2542", "pref": "鳥取県", "city": "東伯郡琴浦町", "town": "湯坂", "full": "鳥取県東伯郡琴浦町湯坂"}, {"postal_code": "6892200", "postal_hyphen": "689-2200", "pref": "鳥取県", "city": "東伯郡北栄町", "town": "", "full": "鳥取県東伯郡北栄町"}, {"postal_code": "6892216", "postal_hyphen": "689-2216", "pref": "鳥取県", "city": "東伯郡北栄町", "town": "岩坪", "full": "鳥取県東伯郡北栄町岩坪"}, {"postal_code": "6892101", "postal_hyphen": "689-2101", "pref": "鳥取県", "city": "東伯郡北栄町", "town": "江北", "full": "鳥取県東伯郡北栄町江北"}, {"postal_code": "6892206", "postal_hyphen": "689-2206", "pref": "鳥取県", "city": "東伯郡北栄町", "town": "大島", "full": "鳥取県東伯郡北栄町大島"}, {"postal_code": "6892223", "postal_hyphen": "689-2223", "pref": "鳥取県", "city": "東伯郡北栄町", "town": "大谷", "full": "鳥取県東伯郡北栄町大谷"}, {"postal_code": "6892213", "postal_hyphen": "689-2213", "pref": "鳥取県", "city": "東伯郡北栄町", "town": "上種", "full": "鳥取県東伯郡北栄町上種"}, {"postal_code": "6892211", "postal_hyphen": "689-2211", "pref": "鳥取県", "city": "東伯郡北栄町", "town": "亀谷", "full": "鳥取県東伯郡北栄町亀谷"}, {"postal_code": "6892114", "postal_hyphen": "689-2114", "pref": "鳥取県", "city": "東伯郡北栄町", "town": "北尾", "full": "鳥取県東伯郡北栄町北尾"}, {"postal_code": "6892102", "postal_hyphen": "689-2102", "pref": "鳥取県", "city": "東伯郡北栄町", "town": "国坂", "full": "鳥取県東伯郡北栄町国坂"}, {"postal_code": "6892212", "postal_hyphen": "689-2212", "pref": "鳥取県", "city": "東伯郡北栄町", "town": "下種", "full": "鳥取県東伯郡北栄町下種"}, {"postal_code": "6892105", "postal_hyphen": "689-2105", "pref": "鳥取県", "city": "東伯郡北栄町", "town": "下神", "full": "鳥取県東伯郡北栄町下神"}, {"postal_code": "6892205", "postal_hyphen": "689-2205", "pref": "鳥取県", "city": "東伯郡北栄町", "town": "瀬戸", "full": "鳥取県東伯郡北栄町瀬戸"}, {"postal_code": "6892103", "postal_hyphen": "689-2103", "pref": "鳥取県", "city": "東伯郡北栄町", "town": "田井", "full": "鳥取県東伯郡北栄町田井"}, {"postal_code": "6892224", "postal_hyphen": "689-2224", "pref": "鳥取県", "city": "東伯郡北栄町", "town": "妻波", "full": "鳥取県東伯郡北栄町妻波"}, {"postal_code": "6892201", "postal_hyphen": "689-2201", "pref": "鳥取県", "city": "東伯郡北栄町", "town": "西園", "full": "鳥取県東伯郡北栄町西園"}, {"postal_code": "6892215", "postal_hyphen": "689-2215", "pref": "鳥取県", "city": "東伯郡北栄町", "town": "西高尾", "full": "鳥取県東伯郡北栄町西高尾"}, {"postal_code": "6892207", "postal_hyphen": "689-2207", "pref": "鳥取県", "city": "東伯郡北栄町", "town": "西穂波", "full": "鳥取県東伯郡北栄町西穂波"}, {"postal_code": "6892111", "postal_hyphen": "689-2111", "pref": "鳥取県", "city": "東伯郡北栄町", "town": "土下", "full": "鳥取県東伯郡北栄町土下"}, {"postal_code": "6892203", "postal_hyphen": "689-2203", "pref": "鳥取県", "city": "東伯郡北栄町", "town": "原", "full": "鳥取県東伯郡北栄町原"}, {"postal_code": "6892202", "postal_hyphen": "689-2202", "pref": "鳥取県", "city": "東伯郡北栄町", "town": "東園", "full": "鳥取県東伯郡北栄町東園"}, {"postal_code": "6892214", "postal_hyphen": "689-2214", "pref": "鳥取県", "city": "東伯郡北栄町", "town": "東高尾", "full": "鳥取県東伯郡北栄町東高尾"}, {"postal_code": "6892112", "postal_hyphen": "689-2112", "pref": "鳥取県", "city": "東伯郡北栄町", "town": "北条島", "full": "鳥取県東伯郡北栄町北条島"}, {"postal_code": "6892204", "postal_hyphen": "689-2204", "pref": "鳥取県", "city": "東伯郡北栄町", "town": "穂波", "full": "鳥取県東伯郡北栄町穂波"}, {"postal_code": "6892115", "postal_hyphen": "689-2115", "pref": "鳥取県", "city": "東伯郡北栄町", "town": "曲", "full": "鳥取県東伯郡北栄町曲"}, {"postal_code": "6892106", "postal_hyphen": "689-2106", "pref": "鳥取県", "city": "東伯郡北栄町", "town": "松神", "full": "鳥取県東伯郡北栄町松神"}, {"postal_code": "6892208", "postal_hyphen": "689-2208", "pref": "鳥取県", "city": "東伯郡北栄町", "town": "六尾", "full": "鳥取県東伯郡北栄町六尾"}, {"postal_code": "6892104", "postal_hyphen": "689-2104", "pref": "鳥取県", "city": "東伯郡北栄町", "town": "弓原", "full": "鳥取県東伯郡北栄町弓原"}, {"postal_code": "6892221", "postal_hyphen": "689-2221", "pref": "鳥取県", "city": "東伯郡北栄町", "town": "由良宿", "full": "鳥取県東伯郡北栄町由良宿"}, {"postal_code": "6892113", "postal_hyphen": "689-2113", "pref": "鳥取県", "city": "東伯郡北栄町", "town": "米里", "full": "鳥取県東伯郡北栄町米里"}, {"postal_code": "6893500", "postal_hyphen": "689-3500", "pref": "鳥取県", "city": "西伯郡日吉津村", "town": "", "full": "鳥取県西伯郡日吉津村"}, {"postal_code": "6893551", "postal_hyphen": "689-3551", "pref": "鳥取県", "city": "西伯郡日吉津村", "town": "今吉", "full": "鳥取県西伯郡日吉津村今吉"}, {"postal_code": "6893552", "postal_hyphen": "689-3552", "pref": "鳥取県", "city": "西伯郡日吉津村", "town": "富吉", "full": "鳥取県西伯郡日吉津村富吉"}, {"postal_code": "6893553", "postal_hyphen": "689-3553", "pref": "鳥取県", "city": "西伯郡日吉津村", "town": "日吉津", "full": "鳥取県西伯郡日吉津村日吉津"}, {"postal_code": "6893200", "postal_hyphen": "689-3200", "pref": "鳥取県", "city": "西伯郡大山町", "town": "", "full": "鳥取県西伯郡大山町"}, {"postal_code": "6893111", "postal_hyphen": "689-3111", "pref": "鳥取県", "city": "西伯郡大山町", "town": "赤坂", "full": "鳥取県西伯郡大山町赤坂"}, {"postal_code": "6893319", "postal_hyphen": "689-3319", "pref": "鳥取県", "city": "西伯郡大山町", "town": "赤松", "full": "鳥取県西伯郡大山町赤松"}, {"postal_code": "6893334", "postal_hyphen": "689-3334", "pref": "鳥取県", "city": "西伯郡大山町", "town": "稲光", "full": "鳥取県西伯郡大山町稲光"}, {"postal_code": "6893314", "postal_hyphen": "689-3314", "pref": "鳥取県", "city": "西伯郡大山町", "town": "今在家", "full": "鳥取県西伯郡大山町今在家"}, {"postal_code": "6893102", "postal_hyphen": "689-3102", "pref": "鳥取県", "city": "西伯郡大山町", "town": "石井垣", "full": "鳥取県西伯郡大山町石井垣"}, {"postal_code": "6893302", "postal_hyphen": "689-3302", "pref": "鳥取県", "city": "西伯郡大山町", "town": "上野", "full": "鳥取県西伯郡大山町上野"}, {"postal_code": "6893124", "postal_hyphen": "689-3124", "pref": "鳥取県", "city": "西伯郡大山町", "town": "上市", "full": "鳥取県西伯郡大山町上市"}, {"postal_code": "6893226", "postal_hyphen": "689-3226", "pref": "鳥取県", "city": "西伯郡大山町", "town": "大塚", "full": "鳥取県西伯郡大山町大塚"}, {"postal_code": "6893121", "postal_hyphen": "689-3121", "pref": "鳥取県", "city": "西伯郡大山町", "town": "岡", "full": "鳥取県西伯郡大山町岡"}, {"postal_code": "6893225", "postal_hyphen": "689-3225", "pref": "鳥取県", "city": "西伯郡大山町", "town": "押平", "full": "鳥取県西伯郡大山町押平"}, {"postal_code": "6893214", "postal_hyphen": "689-3214", "pref": "鳥取県", "city": "西伯郡大山町", "town": "加茂", "full": "鳥取県西伯郡大山町加茂"}, {"postal_code": "6893305", "postal_hyphen": "689-3305", "pref": "鳥取県", "city": "西伯郡大山町", "town": "神原", "full": "鳥取県西伯郡大山町神原"}, {"postal_code": "6893308", "postal_hyphen": "689-3308", "pref": "鳥取県", "city": "西伯郡大山町", "town": "清原", "full": "鳥取県西伯郡大山町清原"}, {"postal_code": "6893309", "postal_hyphen": "689-3309", "pref": "鳥取県", "city": "西伯郡大山町", "town": "国信", "full": "鳥取県西伯郡大山町国信"}, {"postal_code": "6893202", "postal_hyphen": "689-3202", "pref": "鳥取県", "city": "西伯郡大山町", "town": "倉谷", "full": "鳥取県西伯郡大山町倉谷"}, {"postal_code": "6893203", "postal_hyphen": "689-3203", "pref": "鳥取県", "city": "西伯郡大山町", "town": "小竹", "full": "鳥取県西伯郡大山町小竹"}, {"postal_code": "6893222", "postal_hyphen": "689-3222", "pref": "鳥取県", "city": "西伯郡大山町", "town": "古御堂", "full": "鳥取県西伯郡大山町古御堂"}, {"postal_code": "6893115", "postal_hyphen": "689-3115", "pref": "鳥取県", "city": "西伯郡大山町", "town": "栄田", "full": "鳥取県西伯郡大山町栄田"}, {"postal_code": "6893313", "postal_hyphen": "689-3313", "pref": "鳥取県", "city": "西伯郡大山町", "town": "佐摩", "full": "鳥取県西伯郡大山町佐摩"}, {"postal_code": "6893122", "postal_hyphen": "689-3122", "pref": "鳥取県", "city": "西伯郡大山町", "town": "塩津", "full": "鳥取県西伯郡大山町塩津"}, {"postal_code": "6893125", "postal_hyphen": "689-3125", "pref": "鳥取県", "city": "西伯郡大山町", "town": "下市", "full": "鳥取県西伯郡大山町下市"}, {"postal_code": "6893112", "postal_hyphen": "689-3112", "pref": "鳥取県", "city": "西伯郡大山町", "town": "下甲", "full": "鳥取県西伯郡大山町下甲"}, {"postal_code": "6893323", "postal_hyphen": "689-3323", "pref": "鳥取県", "city": "西伯郡大山町", "town": "荘田", "full": "鳥取県西伯郡大山町荘田"}, {"postal_code": "6893335", "postal_hyphen": "689-3335", "pref": "鳥取県", "city": "西伯郡大山町", "town": "上万", "full": "鳥取県西伯郡大山町上万"}, {"postal_code": "6893332", "postal_hyphen": "689-3332", "pref": "鳥取県", "city": "西伯郡大山町", "town": "末長", "full": "鳥取県西伯郡大山町末長"}, {"postal_code": "6893331", "postal_hyphen": "689-3331", "pref": "鳥取県", "city": "西伯郡大山町", "town": "末吉", "full": "鳥取県西伯郡大山町末吉"}, {"postal_code": "6893123", "postal_hyphen": "689-3123", "pref": "鳥取県", "city": "西伯郡大山町", "town": "住吉", "full": "鳥取県西伯郡大山町住吉"}, {"postal_code": "6893133", "postal_hyphen": "689-3133", "pref": "鳥取県", "city": "西伯郡大山町", "town": "退休寺", "full": "鳥取県西伯郡大山町退休寺"}, {"postal_code": "6893318", "postal_hyphen": "689-3318", "pref": "鳥取県", "city": "西伯郡大山町", "town": "大山", "full": "鳥取県西伯郡大山町大山"}, {"postal_code": "6893224", "postal_hyphen": "689-3224", "pref": "鳥取県", "city": "西伯郡大山町", "town": "高田", "full": "鳥取県西伯郡大山町高田"}, {"postal_code": "6893134", "postal_hyphen": "689-3134", "pref": "鳥取県", "city": "西伯郡大山町", "town": "高橋", "full": "鳥取県西伯郡大山町高橋"}, {"postal_code": "6893317", "postal_hyphen": "689-3317", "pref": "鳥取県", "city": "西伯郡大山町", "town": "鈑戸", "full": "鳥取県西伯郡大山町鈑戸"}, {"postal_code": "6893114", "postal_hyphen": "689-3114", "pref": "鳥取県", "city": "西伯郡大山町", "town": "田中", "full": "鳥取県西伯郡大山町田中"}, {"postal_code": "6893223", "postal_hyphen": "689-3223", "pref": "鳥取県", "city": "西伯郡大山町", "town": "茶畑", "full": "鳥取県西伯郡大山町茶畑"}, {"postal_code": "6893101", "postal_hyphen": "689-3101", "pref": "鳥取県", "city": "西伯郡大山町", "town": "潮音寺", "full": "鳥取県西伯郡大山町潮音寺"}, {"postal_code": "6893105", "postal_hyphen": "689-3105", "pref": "鳥取県", "city": "西伯郡大山町", "town": "束積", "full": "鳥取県西伯郡大山町束積"}, {"postal_code": "6893333", "postal_hyphen": "689-3333", "pref": "鳥取県", "city": "西伯郡大山町", "town": "唐王", "full": "鳥取県西伯郡大山町唐王"}, {"postal_code": "6893303", "postal_hyphen": "689-3303", "pref": "鳥取県", "city": "西伯郡大山町", "town": "所子", "full": "鳥取県西伯郡大山町所子"}, {"postal_code": "6893135", "postal_hyphen": "689-3135", "pref": "鳥取県", "city": "西伯郡大山町", "town": "殿河内", "full": "鳥取県西伯郡大山町殿河内"}, {"postal_code": "6893325", "postal_hyphen": "689-3325", "pref": "鳥取県", "city": "西伯郡大山町", "town": "富岡", "full": "鳥取県西伯郡大山町富岡"}, {"postal_code": "6893221", "postal_hyphen": "689-3221", "pref": "鳥取県", "city": "西伯郡大山町", "town": "富長", "full": "鳥取県西伯郡大山町富長"}, {"postal_code": "6893201", "postal_hyphen": "689-3201", "pref": "鳥取県", "city": "西伯郡大山町", "town": "豊成", "full": "鳥取県西伯郡大山町豊成"}, {"postal_code": "6893316", "postal_hyphen": "689-3316", "pref": "鳥取県", "city": "西伯郡大山町", "town": "豊房", "full": "鳥取県西伯郡大山町豊房"}, {"postal_code": "6893322", "postal_hyphen": "689-3322", "pref": "鳥取県", "city": "西伯郡大山町", "town": "長田", "full": "鳥取県西伯郡大山町長田"}, {"postal_code": "6893306", "postal_hyphen": "689-3306", "pref": "鳥取県", "city": "西伯郡大山町", "town": "中高", "full": "鳥取県西伯郡大山町中高"}, {"postal_code": "6893136", "postal_hyphen": "689-3136", "pref": "鳥取県", "city": "西伯郡大山町", "town": "長野", "full": "鳥取県西伯郡大山町長野"}, {"postal_code": "6893212", "postal_hyphen": "689-3212", "pref": "鳥取県", "city": "西伯郡大山町", "town": "名和", "full": "鳥取県西伯郡大山町名和"}, {"postal_code": "6893205", "postal_hyphen": "689-3205", "pref": "鳥取県", "city": "西伯郡大山町", "town": "西坪", "full": "鳥取県西伯郡大山町西坪"}, {"postal_code": "6893307", "postal_hyphen": "689-3307", "pref": "鳥取県", "city": "西伯郡大山町", "town": "野田", "full": "鳥取県西伯郡大山町野田"}, {"postal_code": "6893106", "postal_hyphen": "689-3106", "pref": "鳥取県", "city": "西伯郡大山町", "town": "羽田井", "full": "鳥取県西伯郡大山町羽田井"}, {"postal_code": "6893204", "postal_hyphen": "689-3204", "pref": "鳥取県", "city": "西伯郡大山町", "town": "東坪", "full": "鳥取県西伯郡大山町東坪"}, {"postal_code": "6893103", "postal_hyphen": "689-3103", "pref": "鳥取県", "city": "西伯郡大山町", "town": "樋口", "full": "鳥取県西伯郡大山町樋口"}, {"postal_code": "6893321", "postal_hyphen": "689-3321", "pref": "鳥取県", "city": "西伯郡大山町", "town": "平", "full": "鳥取県西伯郡大山町平"}, {"postal_code": "6893304", "postal_hyphen": "689-3304", "pref": "鳥取県", "city": "西伯郡大山町", "town": "平木", "full": "鳥取県西伯郡大山町平木"}, {"postal_code": "6893336", "postal_hyphen": "689-3336", "pref": "鳥取県", "city": "西伯郡大山町", "town": "平田", "full": "鳥取県西伯郡大山町平田"}, {"postal_code": "6893301", "postal_hyphen": "689-3301", "pref": "鳥取県", "city": "西伯郡大山町", "town": "福尾", "full": "鳥取県西伯郡大山町福尾"}, {"postal_code": "6893312", "postal_hyphen": "689-3312", "pref": "鳥取県", "city": "西伯郡大山町", "town": "坊領", "full": "鳥取県西伯郡大山町坊領"}, {"postal_code": "6893315", "postal_hyphen": "689-3315", "pref": "鳥取県", "city": "西伯郡大山町", "town": "前", "full": "鳥取県西伯郡大山町前"}, {"postal_code": "6893132", "postal_hyphen": "689-3132", "pref": "鳥取県", "city": "西伯郡大山町", "town": "松河原", "full": "鳥取県西伯郡大山町松河原"}, {"postal_code": "6893211", "postal_hyphen": "689-3211", "pref": "鳥取県", "city": "西伯郡大山町", "town": "御来屋", "full": "鳥取県西伯郡大山町御来屋"}, {"postal_code": "6893113", "postal_hyphen": "689-3113", "pref": "鳥取県", "city": "西伯郡大山町", "town": "御崎", "full": "鳥取県西伯郡大山町御崎"}, {"postal_code": "6893311", "postal_hyphen": "689-3311", "pref": "鳥取県", "city": "西伯郡大山町", "town": "宮内", "full": "鳥取県西伯郡大山町宮内"}, {"postal_code": "6893324", "postal_hyphen": "689-3324", "pref": "鳥取県", "city": "西伯郡大山町", "town": "妻木", "full": "鳥取県西伯郡大山町妻木"}, {"postal_code": "6893213", "postal_hyphen": "689-3213", "pref": "鳥取県", "city": "西伯郡大山町", "town": "門前", "full": "鳥取県西伯郡大山町門前"}, {"postal_code": "6893104", "postal_hyphen": "689-3104", "pref": "鳥取県", "city": "西伯郡大山町", "town": "八重", "full": "鳥取県西伯郡大山町八重"}, {"postal_code": "6893327", "postal_hyphen": "689-3327", "pref": "鳥取県", "city": "西伯郡大山町", "town": "保田", "full": "鳥取県西伯郡大山町保田"}, {"postal_code": "6893326", "postal_hyphen": "689-3326", "pref": "鳥取県", "city": "西伯郡大山町", "town": "安原", "full": "鳥取県西伯郡大山町安原"}, {"postal_code": "6830300", "postal_hyphen": "683-0300", "pref": "鳥取県", "city": "西伯郡南部町", "town": "", "full": "鳥取県西伯郡南部町"}, {"postal_code": "6830322", "postal_hyphen": "683-0322", "pref": "鳥取県", "city": "西伯郡南部町", "town": "阿賀", "full": "鳥取県西伯郡南部町阿賀"}, {"postal_code": "6830227", "postal_hyphen": "683-0227", "pref": "鳥取県", "city": "西伯郡南部町", "town": "浅井", "full": "鳥取県西伯郡南部町浅井"}, {"postal_code": "6830216", "postal_hyphen": "683-0216", "pref": "鳥取県", "city": "西伯郡南部町", "town": "朝金", "full": "鳥取県西伯郡南部町朝金"}, {"postal_code": "6830218", "postal_hyphen": "683-0218", "pref": "鳥取県", "city": "西伯郡南部町", "town": "池野", "full": "鳥取県西伯郡南部町池野"}, {"postal_code": "6830222", "postal_hyphen": "683-0222", "pref": "鳥取県", "city": "西伯郡南部町", "town": "市山", "full": "鳥取県西伯郡南部町市山"}, {"postal_code": "6830223", "postal_hyphen": "683-0223", "pref": "鳥取県", "city": "西伯郡南部町", "town": "井上", "full": "鳥取県西伯郡南部町井上"}, {"postal_code": "6830367", "postal_hyphen": "683-0367", "pref": "鳥取県", "city": "西伯郡南部町", "town": "猪小路", "full": "鳥取県西伯郡南部町猪小路"}, {"postal_code": "6830345", "postal_hyphen": "683-0345", "pref": "鳥取県", "city": "西伯郡南部町", "town": "大木屋", "full": "鳥取県西伯郡南部町大木屋"}, {"postal_code": "6830215", "postal_hyphen": "683-0215", "pref": "鳥取県", "city": "西伯郡南部町", "town": "荻名", "full": "鳥取県西伯郡南部町荻名"}, {"postal_code": "6830337", "postal_hyphen": "683-0337", "pref": "鳥取県", "city": "西伯郡南部町", "town": "落合", "full": "鳥取県西伯郡南部町落合"}, {"postal_code": "6830331", "postal_hyphen": "683-0331", "pref": "鳥取県", "city": "西伯郡南部町", "town": "掛相", "full": "鳥取県西伯郡南部町掛相"}, {"postal_code": "6830224", "postal_hyphen": "683-0224", "pref": "鳥取県", "city": "西伯郡南部町", "town": "金田", "full": "鳥取県西伯郡南部町金田"}, {"postal_code": "6830344", "postal_hyphen": "683-0344", "pref": "鳥取県", "city": "西伯郡南部町", "town": "上中谷", "full": "鳥取県西伯郡南部町上中谷"}, {"postal_code": "6830341", "postal_hyphen": "683-0341", "pref": "鳥取県", "city": "西伯郡南部町", "town": "鴨部", "full": "鳥取県西伯郡南部町鴨部"}, {"postal_code": "6830361", "postal_hyphen": "683-0361", "pref": "鳥取県", "city": "西伯郡南部町", "town": "北方", "full": "鳥取県西伯郡南部町北方"}, {"postal_code": "6830364", "postal_hyphen": "683-0364", "pref": "鳥取県", "city": "西伯郡南部町", "town": "絹屋", "full": "鳥取県西伯郡南部町絹屋"}, {"postal_code": "6830356", "postal_hyphen": "683-0356", "pref": "鳥取県", "city": "西伯郡南部町", "town": "伐株", "full": "鳥取県西伯郡南部町伐株"}, {"postal_code": "6830311", "postal_hyphen": "683-0311", "pref": "鳥取県", "city": "西伯郡南部町", "town": "境", "full": "鳥取県西伯郡南部町境"}, {"postal_code": "6830321", "postal_hyphen": "683-0321", "pref": "鳥取県", "city": "西伯郡南部町", "town": "清水川", "full": "鳥取県西伯郡南部町清水川"}, {"postal_code": "6830343", "postal_hyphen": "683-0343", "pref": "鳥取県", "city": "西伯郡南部町", "town": "下中谷", "full": "鳥取県西伯郡南部町下中谷"}, {"postal_code": "6830226", "postal_hyphen": "683-0226", "pref": "鳥取県", "city": "西伯郡南部町", "town": "高姫", "full": "鳥取県西伯郡南部町高姫"}, {"postal_code": "6830354", "postal_hyphen": "683-0354", "pref": "鳥取県", "city": "西伯郡南部町", "town": "武信", "full": "鳥取県西伯郡南部町武信"}, {"postal_code": "6830214", "postal_hyphen": "683-0214", "pref": "鳥取県", "city": "西伯郡南部町", "town": "田住", "full": "鳥取県西伯郡南部町田住"}, {"postal_code": "6830217", "postal_hyphen": "683-0217", "pref": "鳥取県", "city": "西伯郡南部町", "town": "鶴田", "full": "鳥取県西伯郡南部町鶴田"}, {"postal_code": "6830202", "postal_hyphen": "683-0202", "pref": "鳥取県", "city": "西伯郡南部町", "town": "寺内", "full": "鳥取県西伯郡南部町寺内"}, {"postal_code": "6830201", "postal_hyphen": "683-0201", "pref": "鳥取県", "city": "西伯郡南部町", "town": "天万", "full": "鳥取県西伯郡南部町天万"}, {"postal_code": "6830355", "postal_hyphen": "683-0355", "pref": "鳥取県", "city": "西伯郡南部町", "town": "道河内", "full": "鳥取県西伯郡南部町道河内"}, {"postal_code": "6830334", "postal_hyphen": "683-0334", "pref": "鳥取県", "city": "西伯郡南部町", "town": "東上", "full": "鳥取県西伯郡南部町東上"}, {"postal_code": "6830353", "postal_hyphen": "683-0353", "pref": "鳥取県", "city": "西伯郡南部町", "town": "徳長", "full": "鳥取県西伯郡南部町徳長"}, {"postal_code": "6830335", "postal_hyphen": "683-0335", "pref": "鳥取県", "city": "西伯郡南部町", "town": "中", "full": "鳥取県西伯郡南部町中"}, {"postal_code": "6830365", "postal_hyphen": "683-0365", "pref": "鳥取県", "city": "西伯郡南部町", "town": "鍋倉", "full": "鳥取県西伯郡南部町鍋倉"}, {"postal_code": "6830363", "postal_hyphen": "683-0363", "pref": "鳥取県", "city": "西伯郡南部町", "town": "西", "full": "鳥取県西伯郡南部町西"}, {"postal_code": "6830213", "postal_hyphen": "683-0213", "pref": "鳥取県", "city": "西伯郡南部町", "town": "西原", "full": "鳥取県西伯郡南部町西原"}, {"postal_code": "6830302", "postal_hyphen": "683-0302", "pref": "鳥取県", "city": "西伯郡南部町", "town": "西町", "full": "鳥取県西伯郡南部町西町"}, {"postal_code": "6830342", "postal_hyphen": "683-0342", "pref": "鳥取県", "city": "西伯郡南部町", "town": "能竹", "full": "鳥取県西伯郡南部町能竹"}, {"postal_code": "6830332", "postal_hyphen": "683-0332", "pref": "鳥取県", "city": "西伯郡南部町", "town": "馬佐良", "full": "鳥取県西伯郡南部町馬佐良"}, {"postal_code": "6830352", "postal_hyphen": "683-0352", "pref": "鳥取県", "city": "西伯郡南部町", "town": "馬場", "full": "鳥取県西伯郡南部町馬場"}, {"postal_code": "6830362", "postal_hyphen": "683-0362", "pref": "鳥取県", "city": "西伯郡南部町", "town": "原", "full": "鳥取県西伯郡南部町原"}, {"postal_code": "6830301", "postal_hyphen": "683-0301", "pref": "鳥取県", "city": "西伯郡南部町", "town": "東町", "full": "鳥取県西伯郡南部町東町"}, {"postal_code": "6830204", "postal_hyphen": "683-0204", "pref": "鳥取県", "city": "西伯郡南部町", "town": "福里", "full": "鳥取県西伯郡南部町福里"}, {"postal_code": "6830312", "postal_hyphen": "683-0312", "pref": "鳥取県", "city": "西伯郡南部町", "town": "福成", "full": "鳥取県西伯郡南部町福成"}, {"postal_code": "6830336", "postal_hyphen": "683-0336", "pref": "鳥取県", "city": "西伯郡南部町", "town": "福頼", "full": "鳥取県西伯郡南部町福頼"}, {"postal_code": "6830351", "postal_hyphen": "683-0351", "pref": "鳥取県", "city": "西伯郡南部町", "town": "法勝寺", "full": "鳥取県西伯郡南部町法勝寺"}, {"postal_code": "6830211", "postal_hyphen": "683-0211", "pref": "鳥取県", "city": "西伯郡南部町", "town": "円山", "full": "鳥取県西伯郡南部町円山"}, {"postal_code": "6830225", "postal_hyphen": "683-0225", "pref": "鳥取県", "city": "西伯郡南部町", "town": "御内谷", "full": "鳥取県西伯郡南部町御内谷"}, {"postal_code": "6830203", "postal_hyphen": "683-0203", "pref": "鳥取県", "city": "西伯郡南部町", "town": "三崎", "full": "鳥取県西伯郡南部町三崎"}, {"postal_code": "6830221", "postal_hyphen": "683-0221", "pref": "鳥取県", "city": "西伯郡南部町", "town": "宮前", "full": "鳥取県西伯郡南部町宮前"}, {"postal_code": "6830212", "postal_hyphen": "683-0212", "pref": "鳥取県", "city": "西伯郡南部町", "town": "諸木", "full": "鳥取県西伯郡南部町諸木"}, {"postal_code": "6830333", "postal_hyphen": "683-0333", "pref": "鳥取県", "city": "西伯郡南部町", "town": "八金", "full": "鳥取県西伯郡南部町八金"}, {"postal_code": "6830323", "postal_hyphen": "683-0323", "pref": "鳥取県", "city": "西伯郡南部町", "town": "倭", "full": "鳥取県西伯郡南部町倭"}, {"postal_code": "6830366", "postal_hyphen": "683-0366", "pref": "鳥取県", "city": "西伯郡南部町", "town": "与一谷", "full": "鳥取県西伯郡南部町与一谷"}, {"postal_code": "6894100", "postal_hyphen": "689-4100", "pref": "鳥取県", "city": "西伯郡伯耆町", "town": "", "full": "鳥取県西伯郡伯耆町"}, {"postal_code": "6894214", "postal_hyphen": "689-4214", "pref": "鳥取県", "city": "西伯郡伯耆町", "town": "岩立", "full": "鳥取県西伯郡伯耆町岩立"}, {"postal_code": "6894123", "postal_hyphen": "689-4123", "pref": "鳥取県", "city": "西伯郡伯耆町", "town": "岩屋谷", "full": "鳥取県西伯郡伯耆町岩屋谷"}, {"postal_code": "6894212", "postal_hyphen": "689-4212", "pref": "鳥取県", "city": "西伯郡伯耆町", "town": "上野", "full": "鳥取県西伯郡伯耆町上野"}, {"postal_code": "6894207", "postal_hyphen": "689-4207", "pref": "鳥取県", "city": "西伯郡伯耆町", "town": "宇代", "full": "鳥取県西伯郡伯耆町宇代"}, {"postal_code": "6894134", "postal_hyphen": "689-4134", "pref": "鳥取県", "city": "西伯郡伯耆町", "town": "遠藤", "full": "鳥取県西伯郡伯耆町遠藤"}, {"postal_code": "6894215", "postal_hyphen": "689-4215", "pref": "鳥取県", "city": "西伯郡伯耆町", "town": "大内", "full": "鳥取県西伯郡伯耆町大内"}, {"postal_code": "6894211", "postal_hyphen": "689-4211", "pref": "鳥取県", "city": "西伯郡伯耆町", "town": "大江", "full": "鳥取県西伯郡伯耆町大江"}, {"postal_code": "6894205", "postal_hyphen": "689-4205", "pref": "鳥取県", "city": "西伯郡伯耆町", "town": "大倉", "full": "鳥取県西伯郡伯耆町大倉"}, {"postal_code": "6894226", "postal_hyphen": "689-4226", "pref": "鳥取県", "city": "西伯郡伯耆町", "town": "大坂", "full": "鳥取県西伯郡伯耆町大坂"}, {"postal_code": "6894222", "postal_hyphen": "689-4222", "pref": "鳥取県", "city": "西伯郡伯耆町", "town": "大滝", "full": "鳥取県西伯郡伯耆町大滝"}, {"postal_code": "6894121", "postal_hyphen": "689-4121", "pref": "鳥取県", "city": "西伯郡伯耆町", "town": "大殿", "full": "鳥取県西伯郡伯耆町大殿"}, {"postal_code": "6894102", "postal_hyphen": "689-4102", "pref": "鳥取県", "city": "西伯郡伯耆町", "town": "大原", "full": "鳥取県西伯郡伯耆町大原"}, {"postal_code": "6894135", "postal_hyphen": "689-4135", "pref": "鳥取県", "city": "西伯郡伯耆町", "town": "押口", "full": "鳥取県西伯郡伯耆町押口"}, {"postal_code": "6894113", "postal_hyphen": "689-4113", "pref": "鳥取県", "city": "西伯郡伯耆町", "town": "小野", "full": "鳥取県西伯郡伯耆町小野"}, {"postal_code": "6894213", "postal_hyphen": "689-4213", "pref": "鳥取県", "city": "西伯郡伯耆町", "town": "金屋谷", "full": "鳥取県西伯郡伯耆町金屋谷"}, {"postal_code": "6894112", "postal_hyphen": "689-4112", "pref": "鳥取県", "city": "西伯郡伯耆町", "town": "上細見", "full": "鳥取県西伯郡伯耆町上細見"}, {"postal_code": "6894132", "postal_hyphen": "689-4132", "pref": "鳥取県", "city": "西伯郡伯耆町", "town": "岸本", "full": "鳥取県西伯郡伯耆町岸本"}, {"postal_code": "6894203", "postal_hyphen": "689-4203", "pref": "鳥取県", "city": "西伯郡伯耆町", "town": "貴住", "full": "鳥取県西伯郡伯耆町貴住"}, {"postal_code": "6894111", "postal_hyphen": "689-4111", "pref": "鳥取県", "city": "西伯郡伯耆町", "town": "清原", "full": "鳥取県西伯郡伯耆町清原"}, {"postal_code": "6894105", "postal_hyphen": "689-4105", "pref": "鳥取県", "city": "西伯郡伯耆町", "town": "久古", "full": "鳥取県西伯郡伯耆町久古"}, {"postal_code": "6894106", "postal_hyphen": "689-4106", "pref": "鳥取県", "city": "西伯郡伯耆町", "town": "口別所", "full": "鳥取県西伯郡伯耆町口別所"}, {"postal_code": "6894101", "postal_hyphen": "689-4101", "pref": "鳥取県", "city": "西伯郡伯耆町", "town": "小林", "full": "鳥取県西伯郡伯耆町小林"}, {"postal_code": "6894115", "postal_hyphen": "689-4115", "pref": "鳥取県", "city": "西伯郡伯耆町", "town": "小町", "full": "鳥取県西伯郡伯耆町小町"}, {"postal_code": "6894122", "postal_hyphen": "689-4122", "pref": "鳥取県", "city": "西伯郡伯耆町", "town": "坂長", "full": "鳥取県西伯郡伯耆町坂長"}, {"postal_code": "6894246", "postal_hyphen": "689-4246", "pref": "鳥取県", "city": "西伯郡伯耆町", "town": "三部", "full": "鳥取県西伯郡伯耆町三部"}, {"postal_code": "6894243", "postal_hyphen": "689-4243", "pref": "鳥取県", "city": "西伯郡伯耆町", "town": "荘", "full": "鳥取県西伯郡伯耆町荘"}, {"postal_code": "6894225", "postal_hyphen": "689-4225", "pref": "鳥取県", "city": "西伯郡伯耆町", "town": "白水", "full": "鳥取県西伯郡伯耆町白水"}, {"postal_code": "6894107", "postal_hyphen": "689-4107", "pref": "鳥取県", "city": "西伯郡伯耆町", "town": "須村", "full": "鳥取県西伯郡伯耆町須村"}, {"postal_code": "6894217", "postal_hyphen": "689-4217", "pref": "鳥取県", "city": "西伯郡伯耆町", "town": "添谷", "full": "鳥取県西伯郡伯耆町添谷"}, {"postal_code": "6894114", "postal_hyphen": "689-4114", "pref": "鳥取県", "city": "西伯郡伯耆町", "town": "立岩", "full": "鳥取県西伯郡伯耆町立岩"}, {"postal_code": "6894204", "postal_hyphen": "689-4204", "pref": "鳥取県", "city": "西伯郡伯耆町", "town": "谷川", "full": "鳥取県西伯郡伯耆町谷川"}, {"postal_code": "6894244", "postal_hyphen": "689-4244", "pref": "鳥取県", "city": "西伯郡伯耆町", "town": "父原", "full": "鳥取県西伯郡伯耆町父原"}, {"postal_code": "6894223", "postal_hyphen": "689-4223", "pref": "鳥取県", "city": "西伯郡伯耆町", "town": "栃原", "full": "鳥取県西伯郡伯耆町栃原"}, {"postal_code": "6894221", "postal_hyphen": "689-4221", "pref": "鳥取県", "city": "西伯郡伯耆町", "town": "富江", "full": "鳥取県西伯郡伯耆町富江"}, {"postal_code": "6894241", "postal_hyphen": "689-4241", "pref": "鳥取県", "city": "西伯郡伯耆町", "town": "中祖", "full": "鳥取県西伯郡伯耆町中祖"}, {"postal_code": "6894202", "postal_hyphen": "689-4202", "pref": "鳥取県", "city": "西伯郡伯耆町", "town": "長山", "full": "鳥取県西伯郡伯耆町長山"}, {"postal_code": "6894233", "postal_hyphen": "689-4233", "pref": "鳥取県", "city": "西伯郡伯耆町", "town": "二部", "full": "鳥取県西伯郡伯耆町二部"}, {"postal_code": "6894224", "postal_hyphen": "689-4224", "pref": "鳥取県", "city": "西伯郡伯耆町", "town": "根雨原", "full": "鳥取県西伯郡伯耆町根雨原"}, {"postal_code": "6894234", "postal_hyphen": "689-4234", "pref": "鳥取県", "city": "西伯郡伯耆町", "town": "畑池", "full": "鳥取県西伯郡伯耆町畑池"}, {"postal_code": "6894104", "postal_hyphen": "689-4104", "pref": "鳥取県", "city": "西伯郡伯耆町", "town": "番原", "full": "鳥取県西伯郡伯耆町番原"}, {"postal_code": "6894237", "postal_hyphen": "689-4237", "pref": "鳥取県", "city": "西伯郡伯耆町", "town": "福居", "full": "鳥取県西伯郡伯耆町福居"}, {"postal_code": "6894235", "postal_hyphen": "689-4235", "pref": "鳥取県", "city": "西伯郡伯耆町", "town": "福岡", "full": "鳥取県西伯郡伯耆町福岡"}, {"postal_code": "6894136", "postal_hyphen": "689-4136", "pref": "鳥取県", "city": "西伯郡伯耆町", "town": "福岡原", "full": "鳥取県西伯郡伯耆町福岡原"}, {"postal_code": "6894216", "postal_hyphen": "689-4216", "pref": "鳥取県", "city": "西伯郡伯耆町", "town": "福兼", "full": "鳥取県西伯郡伯耆町福兼"}, {"postal_code": "6894232", "postal_hyphen": "689-4232", "pref": "鳥取県", "city": "西伯郡伯耆町", "town": "福島", "full": "鳥取県西伯郡伯耆町福島"}, {"postal_code": "6894245", "postal_hyphen": "689-4245", "pref": "鳥取県", "city": "西伯郡伯耆町", "town": "福吉", "full": "鳥取県西伯郡伯耆町福吉"}, {"postal_code": "6894231", "postal_hyphen": "689-4231", "pref": "鳥取県", "city": "西伯郡伯耆町", "town": "船越", "full": "鳥取県西伯郡伯耆町船越"}, {"postal_code": "6894242", "postal_hyphen": "689-4242", "pref": "鳥取県", "city": "西伯郡伯耆町", "town": "古市", "full": "鳥取県西伯郡伯耆町古市"}, {"postal_code": "6894103", "postal_hyphen": "689-4103", "pref": "鳥取県", "city": "西伯郡伯耆町", "town": "真野", "full": "鳥取県西伯郡伯耆町真野"}, {"postal_code": "6894108", "postal_hyphen": "689-4108", "pref": "鳥取県", "city": "西伯郡伯耆町", "town": "丸山", "full": "鳥取県西伯郡伯耆町丸山"}, {"postal_code": "6894201", "postal_hyphen": "689-4201", "pref": "鳥取県", "city": "西伯郡伯耆町", "town": "溝口", "full": "鳥取県西伯郡伯耆町溝口"}, {"postal_code": "6894206", "postal_hyphen": "689-4206", "pref": "鳥取県", "city": "西伯郡伯耆町", "town": "宮原", "full": "鳥取県西伯郡伯耆町宮原"}, {"postal_code": "6894236", "postal_hyphen": "689-4236", "pref": "鳥取県", "city": "西伯郡伯耆町", "town": "焼杉", "full": "鳥取県西伯郡伯耆町焼杉"}, {"postal_code": "6894131", "postal_hyphen": "689-4131", "pref": "鳥取県", "city": "西伯郡伯耆町", "town": "吉定", "full": "鳥取県西伯郡伯耆町吉定"}, {"postal_code": "6894133", "postal_hyphen": "689-4133", "pref": "鳥取県", "city": "西伯郡伯耆町", "town": "吉長", "full": "鳥取県西伯郡伯耆町吉長"}, {"postal_code": "6895200", "postal_hyphen": "689-5200", "pref": "鳥取県", "city": "日野郡日南町", "town": "", "full": "鳥取県日野郡日南町"}, {"postal_code": "6895551", "postal_hyphen": "689-5551", "pref": "鳥取県", "city": "日野郡日南町", "town": "阿毘縁", "full": "鳥取県日野郡日南町阿毘縁"}, {"postal_code": "6895531", "postal_hyphen": "689-5531", "pref": "鳥取県", "city": "日野郡日南町", "town": "印賀", "full": "鳥取県日野郡日南町印賀"}, {"postal_code": "6895534", "postal_hyphen": "689-5534", "pref": "鳥取県", "city": "日野郡日南町", "town": "折渡", "full": "鳥取県日野郡日南町折渡"}, {"postal_code": "6895543", "postal_hyphen": "689-5543", "pref": "鳥取県", "city": "日野郡日南町", "town": "笠木", "full": "鳥取県日野郡日南町笠木"}, {"postal_code": "6895212", "postal_hyphen": "689-5212", "pref": "鳥取県", "city": "日野郡日南町", "town": "霞", "full": "鳥取県日野郡日南町霞"}, {"postal_code": "6895662", "postal_hyphen": "689-5662", "pref": "鳥取県", "city": "日野郡日南町", "town": "神戸上", "full": "鳥取県日野郡日南町神戸上"}, {"postal_code": "6895663", "postal_hyphen": "689-5663", "pref": "鳥取県", "city": "日野郡日南町", "town": "上石見", "full": "鳥取県日野郡日南町上石見"}, {"postal_code": "6895223", "postal_hyphen": "689-5223", "pref": "鳥取県", "city": "日野郡日南町", "town": "上萩山", "full": "鳥取県日野郡日南町上萩山"}, {"postal_code": "6895672", "postal_hyphen": "689-5672", "pref": "鳥取県", "city": "日野郡日南町", "town": "神福", "full": "鳥取県日野郡日南町神福"}, {"postal_code": "6895221", "postal_hyphen": "689-5221", "pref": "鳥取県", "city": "日野郡日南町", "town": "河上", "full": "鳥取県日野郡日南町河上"}, {"postal_code": "6895541", "postal_hyphen": "689-5541", "pref": "鳥取県", "city": "日野郡日南町", "town": "佐木谷", "full": "鳥取県日野郡日南町佐木谷"}, {"postal_code": "6895552", "postal_hyphen": "689-5552", "pref": "鳥取県", "city": "日野郡日南町", "town": "下阿毘縁", "full": "鳥取県日野郡日南町下阿毘縁"}, {"postal_code": "6895665", "postal_hyphen": "689-5665", "pref": "鳥取県", "city": "日野郡日南町", "town": "下石見", "full": "鳥取県日野郡日南町下石見"}, {"postal_code": "6895211", "postal_hyphen": "689-5211", "pref": "鳥取県", "city": "日野郡日南町", "town": "生山", "full": "鳥取県日野郡日南町生山"}, {"postal_code": "6895532", "postal_hyphen": "689-5532", "pref": "鳥取県", "city": "日野郡日南町", "town": "菅沢", "full": "鳥取県日野郡日南町菅沢"}, {"postal_code": "6895533", "postal_hyphen": "689-5533", "pref": "鳥取県", "city": "日野郡日南町", "town": "宝谷", "full": "鳥取県日野郡日南町宝谷"}, {"postal_code": "6895224", "postal_hyphen": "689-5224", "pref": "鳥取県", "city": "日野郡日南町", "town": "多里", "full": "鳥取県日野郡日南町多里"}, {"postal_code": "6895544", "postal_hyphen": "689-5544", "pref": "鳥取県", "city": "日野郡日南町", "town": "茶屋", "full": "鳥取県日野郡日南町茶屋"}, {"postal_code": "6895673", "postal_hyphen": "689-5673", "pref": "鳥取県", "city": "日野郡日南町", "town": "豊栄", "full": "鳥取県日野郡日南町豊栄"}, {"postal_code": "6895664", "postal_hyphen": "689-5664", "pref": "鳥取県", "city": "日野郡日南町", "town": "中石見", "full": "鳥取県日野郡日南町中石見"}, {"postal_code": "6895225", "postal_hyphen": "689-5225", "pref": "鳥取県", "city": "日野郡日南町", "town": "新屋", "full": "鳥取県日野郡日南町新屋"}, {"postal_code": "6895222", "postal_hyphen": "689-5222", "pref": "鳥取県", "city": "日野郡日南町", "town": "萩原", "full": "鳥取県日野郡日南町萩原"}, {"postal_code": "6895661", "postal_hyphen": "689-5661", "pref": "鳥取県", "city": "日野郡日南町", "town": "花口", "full": "鳥取県日野郡日南町花口"}, {"postal_code": "6895545", "postal_hyphen": "689-5545", "pref": "鳥取県", "city": "日野郡日南町", "town": "福寿実", "full": "鳥取県日野郡日南町福寿実"}, {"postal_code": "6895671", "postal_hyphen": "689-5671", "pref": "鳥取県", "city": "日野郡日南町", "town": "福塚", "full": "鳥取県日野郡日南町福塚"}, {"postal_code": "6895542", "postal_hyphen": "689-5542", "pref": "鳥取県", "city": "日野郡日南町", "town": "福万来", "full": "鳥取県日野郡日南町福万来"}, {"postal_code": "6895213", "postal_hyphen": "689-5213", "pref": "鳥取県", "city": "日野郡日南町", "town": "丸山", "full": "鳥取県日野郡日南町丸山"}, {"postal_code": "6895214", "postal_hyphen": "689-5214", "pref": "鳥取県", "city": "日野郡日南町", "town": "三栄", "full": "鳥取県日野郡日南町三栄"}, {"postal_code": "6895216", "postal_hyphen": "689-5216", "pref": "鳥取県", "city": "日野郡日南町", "town": "宮内", "full": "鳥取県日野郡日南町宮内"}, {"postal_code": "6895666", "postal_hyphen": "689-5666", "pref": "鳥取県", "city": "日野郡日南町", "town": "三吉", "full": "鳥取県日野郡日南町三吉"}, {"postal_code": "6895215", "postal_hyphen": "689-5215", "pref": "鳥取県", "city": "日野郡日南町", "town": "矢戸", "full": "鳥取県日野郡日南町矢戸"}, {"postal_code": "6895226", "postal_hyphen": "689-5226", "pref": "鳥取県", "city": "日野郡日南町", "town": "湯河", "full": "鳥取県日野郡日南町湯河"}, {"postal_code": "6894500", "postal_hyphen": "689-4500", "pref": "鳥取県", "city": "日野郡日野町", "town": "", "full": "鳥取県日野郡日野町"}, {"postal_code": "6894515", "postal_hyphen": "689-4515", "pref": "鳥取県", "city": "日野郡日野町", "town": "秋縄", "full": "鳥取県日野郡日野町秋縄"}, {"postal_code": "6894513", "postal_hyphen": "689-4513", "pref": "鳥取県", "city": "日野郡日野町", "town": "板井原", "full": "鳥取県日野郡日野町板井原"}, {"postal_code": "6894523", "postal_hyphen": "689-4523", "pref": "鳥取県", "city": "日野郡日野町", "town": "榎市", "full": "鳥取県日野郡日野町榎市"}, {"postal_code": "6895136", "postal_hyphen": "689-5136", "pref": "鳥取県", "city": "日野郡日野町", "town": "小河内", "full": "鳥取県日野郡日野町小河内"}, {"postal_code": "6894501", "postal_hyphen": "689-4501", "pref": "鳥取県", "city": "日野郡日野町", "town": "貝原", "full": "鳥取県日野郡日野町貝原"}, {"postal_code": "6894516", "postal_hyphen": "689-4516", "pref": "鳥取県", "city": "日野郡日野町", "town": "門谷", "full": "鳥取県日野郡日野町門谷"}, {"postal_code": "6895137", "postal_hyphen": "689-5137", "pref": "鳥取県", "city": "日野郡日野町", "town": "上菅", "full": "鳥取県日野郡日野町上菅"}, {"postal_code": "6894512", "postal_hyphen": "689-4512", "pref": "鳥取県", "city": "日野郡日野町", "town": "金持", "full": "鳥取県日野郡日野町金持"}, {"postal_code": "6895132", "postal_hyphen": "689-5132", "pref": "鳥取県", "city": "日野郡日野町", "town": "久住", "full": "鳥取県日野郡日野町久住"}, {"postal_code": "6895131", "postal_hyphen": "689-5131", "pref": "鳥取県", "city": "日野郡日野町", "town": "黒坂", "full": "鳥取県日野郡日野町黒坂"}, {"postal_code": "6894511", "postal_hyphen": "689-4511", "pref": "鳥取県", "city": "日野郡日野町", "town": "高尾", "full": "鳥取県日野郡日野町高尾"}, {"postal_code": "6894525", "postal_hyphen": "689-4525", "pref": "鳥取県", "city": "日野郡日野町", "town": "小原", "full": "鳥取県日野郡日野町小原"}, {"postal_code": "6894526", "postal_hyphen": "689-4526", "pref": "鳥取県", "city": "日野郡日野町", "town": "下榎", "full": "鳥取県日野郡日野町下榎"}, {"postal_code": "6895133", "postal_hyphen": "689-5133", "pref": "鳥取県", "city": "日野郡日野町", "town": "下黒坂", "full": "鳥取県日野郡日野町下黒坂"}, {"postal_code": "6895134", "postal_hyphen": "689-5134", "pref": "鳥取県", "city": "日野郡日野町", "town": "下菅", "full": "鳥取県日野郡日野町下菅"}, {"postal_code": "6894521", "postal_hyphen": "689-4521", "pref": "鳥取県", "city": "日野郡日野町", "town": "津地", "full": "鳥取県日野郡日野町津地"}, {"postal_code": "6895135", "postal_hyphen": "689-5135", "pref": "鳥取県", "city": "日野郡日野町", "town": "中菅", "full": "鳥取県日野郡日野町中菅"}, {"postal_code": "6894517", "postal_hyphen": "689-4517", "pref": "鳥取県", "city": "日野郡日野町", "town": "濁谷", "full": "鳥取県日野郡日野町濁谷"}, {"postal_code": "6894503", "postal_hyphen": "689-4503", "pref": "鳥取県", "city": "日野郡日野町", "town": "根雨", "full": "鳥取県日野郡日野町根雨"}, {"postal_code": "6894504", "postal_hyphen": "689-4504", "pref": "鳥取県", "city": "日野郡日野町", "town": "野田", "full": "鳥取県日野郡日野町野田"}, {"postal_code": "6895137", "postal_hyphen": "689-5137", "pref": "鳥取県", "city": "日野郡日野町", "town": "福長", "full": "鳥取県日野郡日野町福長"}, {"postal_code": "6894505", "postal_hyphen": "689-4505", "pref": "鳥取県", "city": "日野郡日野町", "town": "舟場", "full": "鳥取県日野郡日野町舟場"}, {"postal_code": "6894524", "postal_hyphen": "689-4524", "pref": "鳥取県", "city": "日野郡日野町", "town": "別所", "full": "鳥取県日野郡日野町別所"}, {"postal_code": "6894522", "postal_hyphen": "689-4522", "pref": "鳥取県", "city": "日野郡日野町", "town": "本郷", "full": "鳥取県日野郡日野町本郷"}, {"postal_code": "6894502", "postal_hyphen": "689-4502", "pref": "鳥取県", "city": "日野郡日野町", "town": "三谷", "full": "鳥取県日野郡日野町三谷"}, {"postal_code": "6894514", "postal_hyphen": "689-4514", "pref": "鳥取県", "city": "日野郡日野町", "town": "三土", "full": "鳥取県日野郡日野町三土"}, {"postal_code": "6894527", "postal_hyphen": "689-4527", "pref": "鳥取県", "city": "日野郡日野町", "town": "安原", "full": "鳥取県日野郡日野町安原"}, {"postal_code": "6894400", "postal_hyphen": "689-4400", "pref": "鳥取県", "city": "日野郡江府町", "town": "", "full": "鳥取県日野郡江府町"}, {"postal_code": "6894401", "postal_hyphen": "689-4401", "pref": "鳥取県", "city": "日野郡江府町", "town": "江尾", "full": "鳥取県日野郡江府町江尾"}, {"postal_code": "6894434", "postal_hyphen": "689-4434", "pref": "鳥取県", "city": "日野郡江府町", "town": "大河原", "full": "鳥取県日野郡江府町大河原"}, {"postal_code": "6894435", "postal_hyphen": "689-4435", "pref": "鳥取県", "city": "日野郡江府町", "town": "貝田", "full": "鳥取県日野郡江府町貝田"}, {"postal_code": "6894432", "postal_hyphen": "689-4432", "pref": "鳥取県", "city": "日野郡江府町", "town": "柿原", "full": "鳥取県日野郡江府町柿原"}, {"postal_code": "6894403", "postal_hyphen": "689-4403", "pref": "鳥取県", "city": "日野郡江府町", "town": "久連", "full": "鳥取県日野郡江府町久連"}, {"postal_code": "6894402", "postal_hyphen": "689-4402", "pref": "鳥取県", "city": "日野郡江府町", "town": "小江尾", "full": "鳥取県日野郡江府町小江尾"}, {"postal_code": "6894425", "postal_hyphen": "689-4425", "pref": "鳥取県", "city": "日野郡江府町", "town": "下蚊屋", "full": "鳥取県日野郡江府町下蚊屋"}, {"postal_code": "6894431", "postal_hyphen": "689-4431", "pref": "鳥取県", "city": "日野郡江府町", "town": "佐川", "full": "鳥取県日野郡江府町佐川"}, {"postal_code": "6894412", "postal_hyphen": "689-4412", "pref": "鳥取県", "city": "日野郡江府町", "town": "下安井", "full": "鳥取県日野郡江府町下安井"}, {"postal_code": "6894413", "postal_hyphen": "689-4413", "pref": "鳥取県", "city": "日野郡江府町", "town": "洲河崎", "full": "鳥取県日野郡江府町洲河崎"}, {"postal_code": "6894422", "postal_hyphen": "689-4422", "pref": "鳥取県", "city": "日野郡江府町", "town": "杉谷", "full": "鳥取県日野郡江府町杉谷"}, {"postal_code": "6894426", "postal_hyphen": "689-4426", "pref": "鳥取県", "city": "日野郡江府町", "town": "助沢", "full": "鳥取県日野郡江府町助沢"}, {"postal_code": "6894414", "postal_hyphen": "689-4414", "pref": "鳥取県", "city": "日野郡江府町", "town": "俣野", "full": "鳥取県日野郡江府町俣野"}, {"postal_code": "6894424", "postal_hyphen": "689-4424", "pref": "鳥取県", "city": "日野郡江府町", "town": "御机", "full": "鳥取県日野郡江府町御机"}, {"postal_code": "6894421", "postal_hyphen": "689-4421", "pref": "鳥取県", "city": "日野郡江府町", "town": "宮市", "full": "鳥取県日野郡江府町宮市"}, {"postal_code": "6894423", "postal_hyphen": "689-4423", "pref": "鳥取県", "city": "日野郡江府町", "town": "美用", "full": "鳥取県日野郡江府町美用"}, {"postal_code": "6894411", "postal_hyphen": "689-4411", "pref": "鳥取県", "city": "日野郡江府町", "town": "武庫", "full": "鳥取県日野郡江府町武庫"}, {"postal_code": "6894433", "postal_hyphen": "689-4433", "pref": "鳥取県", "city": "日野郡江府町", "town": "吉原", "full": "鳥取県日野郡江府町吉原"}]